{
  "type": "FeatureCollection",
  "features": [
    {
      "type": "Feature",
      "id": "catchment_3613",
      "properties": {
        "station_id": "3613",
        "station_name": "บ้านวังเย็น",
        "catchment_area_km2": 10947.97,
        "contributing_cells": 11530437
      },
      "geometry": {
        "type": "Polygon",
        "coordinates": [
          [
            [
              99.284436,
              13.265254
            ],
            [
              99.244158,
              13.268866
            ],
            [
              98.34888,
              14.726643
            ],
            [
              98.259436,
              14.913588
            ],
            [
              98.234158,
              15.145254
            ],
            [
              98.467769,
              15.299421
            ],
            [
              98.605547,
              15.287754
            ],
            [
              98.631102,
              15.279699
            ],
            [
              98.690269,
              15.248588
            ],
            [
              98.721102,
              15.209699
            ],
            [
              99.417491,
              13.939421
            ],
            [
              99.54888,
              13.659143
            ],
            [
              99.565547,
              13.617477
            ],
            [
              99.50638,
              13.337754
            ],
            [
              99.284436,
              13.265254
            ]
          ]
        ]
      }
    },
    {
      "type": "Feature",
      "id": "catchment_6222",
      "properties": {
        "station_id": "6222",
        "station_name": "บ้านวังเย็น (K.37)",
        "catchment_area_km2": 10947.95,
        "contributing_cells": 11530416
      },
      "geometry": {
        "type": "Polygon",
        "coordinates": [
          [
            [
              99.288324,
              13.259699
            ],
            [
              98.34388,
              14.731088
            ],
            [
              98.261658,
              14.91331
            ],
            [
              98.198324,
              15.230254
            ],
            [
              98.469713,
              15.294421
            ],
            [
              98.610269,
              15.280254
            ],
            [
              98.704158,
              15.24081
            ],
            [
              98.726102,
              15.208588
            ],
            [
              99.416658,
              13.939421
            ],
            [
              99.557491,
              13.645532
            ],
            [
              99.562491,
              13.614143
            ],
            [
              99.501658,
              13.337199
            ],
            [
              99.288324,
              13.259699
            ]
          ]
        ]
      }
    },
    {
      "type": "Feature",
      "id": "catchment_7163",
      "properties": {
        "station_id": "7163",
        "station_name": "บ้านหนองไผ่",
        "catchment_area_km2": 2295.0,
        "contributing_cells": 2417103
      },
      "geometry": {
        "type": "Polygon",
        "coordinates": [
          [
            [
              99.299713,
              13.173866
            ],
            [
              99.229158,
              13.292199
            ],
            [
              99.206936,
              13.361921
            ],
            [
              99.172213,
              13.604699
            ],
            [
              99.215547,
              13.706921
            ],
            [
              99.269713,
              13.741366
            ],
            [
              99.420547,
              13.782477
            ],
            [
              99.485547,
              13.744421
            ],
            [
              99.602769,
              13.609143
            ],
            [
              99.538047,
              13.366921
            ],
            [
              99.486658,
              13.221366
            ],
            [
              99.477769,
              13.203032
            ],
            [
              99.299713,
              13.173866
            ]
          ]
        ]
      }
    },
    {
      "type": "Feature",
      "id": "catchment_6225",
      "properties": {
        "station_id": "6225",
        "station_name": "วัดหินแท่น (K.62)",
        "catchment_area_km2": 2295.0,
        "contributing_cells": 2417103
      },
      "geometry": {
        "type": "Polygon",
        "coordinates": [
          [
            [
              99.299713,
              13.173866
            ],
            [
              99.229158,
              13.292199
            ],
            [
              99.206936,
              13.361921
            ],
            [
              99.172213,
              13.604699
            ],
            [
              99.215547,
              13.706921
            ],
            [
              99.269713,
              13.741366
            ],
            [
              99.420547,
              13.782477
            ],
            [
              99.485547,
              13.744421
            ],
            [
              99.602769,
              13.609143
            ],
            [
              99.538047,
              13.366921
            ],
            [
              99.486658,
              13.221366
            ],
            [
              99.477769,
              13.203032
            ],
            [
              99.299713,
              13.173866
            ]
          ]
        ]
      }
    },
    {
      "type": "Feature",
      "id": "catchment_6219",
      "properties": {
        "station_id": "6219",
        "station_name": "บ้านลิ่นถิ่น (K.54)",
        "catchment_area_km2": 4910.2,
        "contributing_cells": 5171436
      },
      "geometry": {
        "type": "Polygon",
        "coordinates": [
          [
            [
              98.789158,
              14.536088
            ],
            [
              98.470269,
              14.598588
            ],
            [
              98.424713,
              14.643588
            ],
            [
              98.310269,
              14.822199
            ],
            [
              98.259713,
              14.913588
            ],
            [
              98.249991,
              14.995532
            ],
            [
              98.257491,
              15.132754
            ],
            [
              98.274713,
              15.197199
            ],
            [
              98.280269,
              15.202199
            ],
            [
              98.340824,
              15.254699
            ],
            [
              98.445269,
              15.332477
            ],
            [
              98.499436,
              15.34081
            ],
            [
              98.576102,
              15.324143
            ],
            [
              98.704436,
              15.256088
            ],
            [
              98.864991,
              14.59581
            ],
            [
              98.816102,
              14.551088
            ],
            [
              98.789158,
              14.536088
            ]
          ]
        ]
      }
    },
    {
      "type": "Feature",
      "id": "catchment_6218",
      "properties": {
        "station_id": "6218",
        "station_name": "บ้านหินดาด",
        "catchment_area_km2": 4671.23,
        "contributing_cells": 4919761
      },
      "geometry": {
        "type": "Polygon",
        "coordinates": [
          [
            [
              98.469436,
              14.543866
            ],
            [
              98.263602,
              14.834699
            ],
            [
              98.222769,
              14.984699
            ],
            [
              98.196658,
              15.138032
            ],
            [
              98.220269,
              15.184421
            ],
            [
              98.233047,
              15.193866
            ],
            [
              98.485824,
              15.376643
            ],
            [
              98.612491,
              15.324977
            ],
            [
              98.648047,
              15.297477
            ],
            [
              98.726936,
              15.186643
            ],
            [
              98.784158,
              14.821088
            ],
            [
              98.786102,
              14.804421
            ],
            [
              98.773324,
              14.643588
            ],
            [
              98.730824,
              14.594977
            ],
            [
              98.664158,
              14.571088
            ],
            [
              98.553602,
              14.552477
            ],
            [
              98.469436,
              14.543866
            ]
          ]
        ]
      }
    },
    {
      "type": "Feature",
      "id": "catchment_6217",
      "properties": {
        "station_id": "6217",
        "station_name": "อ.ทองผาภูมิ",
        "catchment_area_km2": 4166.36,
        "contributing_cells": 4388028
      },
      "geometry": {
        "type": "Polygon",
        "coordinates": [
          [
            [
              98.601102,
              14.566366
            ],
            [
              98.484713,
              14.576921
            ],
            [
              98.409436,
              14.633866
            ],
            [
              98.272213,
              14.816643
            ],
            [
              98.214991,
              14.982754
            ],
            [
              98.232491,
              15.107199
            ],
            [
              98.290824,
              15.221643
            ],
            [
              98.455824,
              15.376921
            ],
            [
              98.630824,
              15.29831
            ],
            [
              98.748047,
              14.953588
            ],
            [
              98.782491,
              14.828588
            ],
            [
              98.601102,
              14.566366
            ]
          ]
        ]
      }
    },
    {
      "type": "Feature",
      "id": "catchment_3721",
      "properties": {
        "station_id": "3721",
        "station_name": "บ้านวังขนาย",
        "catchment_area_km2": 2.17,
        "contributing_cells": 2290
      },
      "geometry": {
        "type": "Polygon",
        "coordinates": [
          [
            [
              99.64388,
              13.947477
            ],
            [
              99.628324,
              13.951921
            ],
            [
              99.62638,
              13.952754
            ],
            [
              99.625269,
              13.953866
            ],
            [
              99.625269,
              13.954421
            ],
            [
              99.628324,
              13.957477
            ],
            [
              99.635547,
              13.961643
            ],
            [
              99.637491,
              13.962477
            ],
            [
              99.645269,
              13.953866
            ],
            [
              99.64638,
              13.952199
            ],
            [
              99.646936,
              13.949977
            ],
            [
              99.64638,
              13.949421
            ],
            [
              99.64388,
              13.947477
            ]
          ]
        ]
      }
    },
    {
      "type": "Feature",
      "id": "catchment_6100324",
      "properties": {
        "station_id": "6100324",
        "station_name": "บ้านใหม่",
        "catchment_area_km2": 5.67,
        "contributing_cells": 5968
      },
      "geometry": {
        "type": "Polygon",
        "coordinates": [
          [
            [
              99.662769,
              13.927477
            ],
            [
              99.655547,
              13.929143
            ],
            [
              99.64888,
              13.932199
            ],
            [
              99.626936,
              13.952754
            ],
            [
              99.627491,
              13.95581
            ],
            [
              99.628047,
              13.957199
            ],
            [
              99.636936,
              13.96331
            ],
            [
              99.671658,
              13.928866
            ],
            [
              99.671658,
              13.92831
            ],
            [
              99.662769,
              13.927477
            ]
          ]
        ]
      }
    },
    {
      "type": "Feature",
      "id": "catchment_7164",
      "properties": {
        "station_id": "7164",
        "station_name": "บ้านยางสูง",
        "catchment_area_km2": 231.26,
        "contributing_cells": 243562
      },
      "geometry": {
        "type": "Polygon",
        "coordinates": [
          [
            [
              99.342213,
              14.404421
            ],
            [
              99.324713,
              14.414977
            ],
            [
              99.284158,
              14.568588
            ],
            [
              99.279991,
              14.618032
            ],
            [
              99.328324,
              14.596921
            ],
            [
              99.36638,
              14.579699
            ],
            [
              99.421936,
              14.543866
            ],
            [
              99.427769,
              14.538032
            ],
            [
              99.457769,
              14.504699
            ],
            [
              99.471102,
              14.489143
            ],
            [
              99.342213,
              14.404421
            ]
          ]
        ]
      }
    },
    {
      "type": "Feature",
      "id": "catchment_252319",
      "properties": {
        "station_id": "252319",
        "station_name": "วัดหนองปรือ",
        "catchment_area_km2": 0.1,
        "contributing_cells": 104
      },
      "geometry": {
        "type": "Polygon",
        "coordinates": [
          [
            [
              99.456658,
              14.608032
            ],
            [
              99.45638,
              14.60831
            ],
            [
              99.456658,
              14.612477
            ],
            [
              99.456936,
              14.612754
            ],
            [
              99.457213,
              14.612754
            ],
            [
              99.458047,
              14.612199
            ],
            [
              99.45888,
              14.610532
            ],
            [
              99.45888,
              14.609699
            ],
            [
              99.457491,
              14.60831
            ],
            [
              99.457213,
              14.608032
            ],
            [
              99.456658,
              14.608032
            ]
          ]
        ]
      }
    },
    {
      "type": "Feature",
      "id": "catchment_3728",
      "properties": {
        "station_id": "3728",
        "station_name": "บ้านทุ่งนานางหรอก",
        "catchment_area_km2": 11.3,
        "contributing_cells": 11901
      },
      "geometry": {
        "type": "Polygon",
        "coordinates": [
          [
            [
              99.425824,
              14.178032
            ],
            [
              99.408602,
              14.182477
            ],
            [
              99.402213,
              14.187199
            ],
            [
              99.396936,
              14.192199
            ],
            [
              99.386102,
              14.205532
            ],
            [
              99.383324,
              14.219977
            ],
            [
              99.399158,
              14.214977
            ],
            [
              99.425269,
              14.195254
            ],
            [
              99.431658,
              14.186921
            ],
            [
              99.432213,
              14.178588
            ],
            [
              99.425824,
              14.178032
            ]
          ]
        ]
      }
    },
    {
      "type": "Feature",
      "id": "catchment_3724",
      "properties": {
        "station_id": "3724",
        "station_name": "บ้านหนองบัว",
        "catchment_area_km2": 14985.67,
        "contributing_cells": 15782957
      },
      "geometry": {
        "type": "Polygon",
        "coordinates": [
          [
            [
              99.446658,
              14.057754
            ],
            [
              99.01888,
              14.41831
            ],
            [
              98.982769,
              14.455254
            ],
            [
              98.942491,
              14.536643
            ],
            [
              98.829713,
              14.796366
            ],
            [
              98.76638,
              14.986921
            ],
            [
              98.706102,
              15.50081
            ],
            [
              98.699158,
              15.804421
            ],
            [
              98.700824,
              15.927477
            ],
            [
              98.721102,
              16.115254
            ],
            [
              99.011658,
              16.259699
            ],
            [
              99.342213,
              15.41581
            ],
            [
              99.445269,
              14.899421
            ],
            [
              99.47638,
              14.727754
            ],
            [
              99.518047,
              14.292199
            ],
            [
              99.446658,
              14.057754
            ]
          ]
        ]
      }
    },
    {
      "type": "Feature",
      "id": "catchment_252316",
      "properties": {
        "station_id": "252316",
        "station_name": "บ้านหนองบัว (K.35A)",
        "catchment_area_km2": 14985.56,
        "contributing_cells": 15782847
      },
      "geometry": {
        "type": "Polygon",
        "coordinates": [
          [
            [
              99.445269,
              14.058866
            ],
            [
              99.017213,
              14.452754
            ],
            [
              98.944713,
              14.524977
            ],
            [
              98.776936,
              14.911088
            ],
            [
              98.707769,
              15.498032
            ],
            [
              98.696936,
              15.795254
            ],
            [
              98.706102,
              15.958032
            ],
            [
              98.720547,
              16.098032
            ],
            [
              99.000269,
              16.264977
            ],
            [
              99.050824,
              16.161366
            ],
            [
              99.33638,
              15.409977
            ],
            [
              99.493047,
              14.712754
            ],
            [
              99.571936,
              14.263866
            ],
            [
              99.445269,
              14.058866
            ]
          ]
        ]
      }
    },
    {
      "type": "Feature",
      "id": "catchment_252317",
      "properties": {
        "station_id": "252317",
        "station_name": "วัดไชยชุมพลชนะสงคราม (วัดใต้)",
        "catchment_area_km2": 26525.58,
        "contributing_cells": 27936837
      },
      "geometry": {
        "type": "Polygon",
        "coordinates": [
          [
            [
              99.36888,
              13.379143
            ],
            [
              98.504436,
              14.56081
            ],
            [
              98.281102,
              14.874143
            ],
            [
              98.30138,
              15.076088
            ],
            [
              98.66138,
              16.03081
            ],
            [
              98.869991,
              16.233032
            ],
            [
              99.045269,
              16.16581
            ],
            [
              99.54138,
              14.591643
            ],
            [
              99.56138,
              14.308588
            ],
            [
              99.590824,
              13.599699
            ],
            [
              99.36888,
              13.379143
            ]
          ]
        ]
      }
    },
    {
      "type": "Feature",
      "id": "catchment_5810",
      "properties": {
        "station_id": "5810",
        "station_name": "สะพานข้ามแม่น้ำแม่กลองหน้าศาลากลางจ.กาญจนบุรี",
        "catchment_area_km2": 26531.52,
        "contributing_cells": 27943092
      },
      "geometry": {
        "type": "Polygon",
        "coordinates": [
          [
            [
              99.281658,
              13.170532
            ],
            [
              98.263602,
              14.839421
            ],
            [
              98.204991,
              15.109699
            ],
            [
              98.214991,
              15.13331
            ],
            [
              98.644436,
              15.917199
            ],
            [
              98.85888,
              16.074421
            ],
            [
              99.050269,
              16.161921
            ],
            [
              99.326102,
              15.351921
            ],
            [
              99.47638,
              14.782199
            ],
            [
              99.527491,
              14.513866
            ],
            [
              99.539436,
              13.994143
            ],
            [
              99.547769,
              13.598032
            ],
            [
              99.519158,
              13.38831
            ],
            [
              99.281658,
              13.170532
            ]
          ]
        ]
      }
    },
    {
      "type": "Feature",
      "id": "catchment_252315",
      "properties": {
        "station_id": "252315",
        "station_name": "เขื่อนท่าทุ่งนา",
        "catchment_area_km2": 11967.81,
        "contributing_cells": 12604544
      },
      "geometry": {
        "type": "Polygon",
        "coordinates": [
          [
            [
              99.236658,
              14.233032
            ],
            [
              99.093324,
              14.352754
            ],
            [
              99.050824,
              14.403032
            ],
            [
              98.956936,
              14.58331
            ],
            [
              98.764713,
              15.012199
            ],
            [
              98.600824,
              15.878588
            ],
            [
              98.758602,
              16.088588
            ],
            [
              98.970269,
              16.260532
            ],
            [
              99.04888,
              16.307199
            ],
            [
              99.324158,
              15.377754
            ],
            [
              99.304991,
              14.412754
            ],
            [
              99.236658,
              14.233032
            ]
          ]
        ]
      }
    },
    {
      "type": "Feature",
      "id": "catchment_1792",
      "properties": {
        "station_id": "1792",
        "station_name": "เมืองกาญจนบุรี",
        "catchment_area_km2": 15072.37,
        "contributing_cells": 15874271
      },
      "geometry": {
        "type": "Polygon",
        "coordinates": [
          [
            [
              99.483047,
              14.059143
            ],
            [
              99.370269,
              14.079977
            ],
            [
              99.306102,
              14.107199
            ],
            [
              99.022213,
              14.432477
            ],
            [
              98.982769,
              14.482199
            ],
            [
              98.70638,
              15.128866
            ],
            [
              98.599436,
              15.87581
            ],
            [
              98.640824,
              15.981088
            ],
            [
              98.670547,
              16.049143
            ],
            [
              98.924436,
              16.247199
            ],
            [
              99.025824,
              16.318588
            ],
            [
              99.340824,
              15.34831
            ],
            [
              99.56138,
              14.646366
            ],
            [
              99.483047,
              14.059143
            ]
          ]
        ]
      }
    },
    {
      "type": "Feature",
      "id": "catchment_252320",
      "properties": {
        "station_id": "252320",
        "station_name": "โรงเรียนบ้านทุ่งนานางหรอก",
        "catchment_area_km2": 11.3,
        "contributing_cells": 11901
      },
      "geometry": {
        "type": "Polygon",
        "coordinates": [
          [
            [
              99.425824,
              14.178032
            ],
            [
              99.408602,
              14.182477
            ],
            [
              99.402213,
              14.187199
            ],
            [
              99.396936,
              14.192199
            ],
            [
              99.386102,
              14.205532
            ],
            [
              99.383324,
              14.219977
            ],
            [
              99.399158,
              14.214977
            ],
            [
              99.425269,
              14.195254
            ],
            [
              99.431658,
              14.186921
            ],
            [
              99.432213,
              14.178588
            ],
            [
              99.425824,
              14.178032
            ]
          ]
        ]
      }
    },
    {
      "type": "Feature",
      "id": "catchment_3615",
      "properties": {
        "station_id": "3615",
        "station_name": "บ้านน้ำโจน",
        "catchment_area_km2": 800.46,
        "contributing_cells": 843050
      },
      "geometry": {
        "type": "Polygon",
        "coordinates": [
          [
            [
              98.786658,
              14.219699
            ],
            [
              98.749713,
              14.231921
            ],
            [
              98.601936,
              14.325532
            ],
            [
              98.506102,
              14.51081
            ],
            [
              98.497491,
              14.537477
            ],
            [
              98.638047,
              14.549421
            ],
            [
              98.661936,
              14.537477
            ],
            [
              98.702491,
              14.514699
            ],
            [
              98.786102,
              14.46331
            ],
            [
              98.802769,
              14.443588
            ],
            [
              98.830547,
              14.357754
            ],
            [
              98.786658,
              14.219699
            ]
          ]
        ]
      }
    },
    {
      "type": "Feature",
      "id": "catchment_3730",
      "properties": {
        "station_id": "3730",
        "station_name": "บ้านบ้องตี้น้อย",
        "catchment_area_km2": 535.71,
        "contributing_cells": 564216
      },
      "geometry": {
        "type": "Polygon",
        "coordinates": [
          [
            [
              99.009991,
              14.030532
            ],
            [
              98.96888,
              14.062477
            ],
            [
              98.785269,
              14.212477
            ],
            [
              98.781102,
              14.281088
            ],
            [
              98.782213,
              14.313032
            ],
            [
              98.844713,
              14.346088
            ],
            [
              98.862769,
              14.350532
            ],
            [
              98.970269,
              14.24081
            ],
            [
              99.013047,
              14.179143
            ],
            [
              99.035824,
              14.126366
            ],
            [
              99.046658,
              14.078588
            ],
            [
              99.009991,
              14.030532
            ]
          ]
        ]
      }
    },
    {
      "type": "Feature",
      "id": "catchment_5809",
      "properties": {
        "station_id": "5809",
        "station_name": "บ้านปากแซง",
        "catchment_area_km2": 6914.62,
        "contributing_cells": 7282505
      },
      "geometry": {
        "type": "Polygon",
        "coordinates": [
          [
            [
              98.98138,
              14.076366
            ],
            [
              98.74638,
              14.244977
            ],
            [
              98.563047,
              14.447754
            ],
            [
              98.39388,
              14.682477
            ],
            [
              98.26138,
              14.913588
            ],
            [
              98.235824,
              14.99081
            ],
            [
              98.202769,
              15.119421
            ],
            [
              98.35888,
              15.245254
            ],
            [
              98.464158,
              15.316088
            ],
            [
              98.63138,
              15.298032
            ],
            [
              98.669991,
              15.238588
            ],
            [
              98.687491,
              15.21081
            ],
            [
              98.989436,
              14.417477
            ],
            [
              99.058602,
              14.213588
            ],
            [
              98.98138,
              14.076366
            ]
          ]
        ]
      }
    },
    {
      "type": "Feature",
      "id": "catchment_6220",
      "properties": {
        "station_id": "6220",
        "station_name": "บ้านปากแซง (K.58)",
        "catchment_area_km2": 6914.62,
        "contributing_cells": 7282505
      },
      "geometry": {
        "type": "Polygon",
        "coordinates": [
          [
            [
              98.98138,
              14.076366
            ],
            [
              98.74638,
              14.244977
            ],
            [
              98.563047,
              14.447754
            ],
            [
              98.39388,
              14.682477
            ],
            [
              98.26138,
              14.913588
            ],
            [
              98.235824,
              14.99081
            ],
            [
              98.202769,
              15.119421
            ],
            [
              98.35888,
              15.245254
            ],
            [
              98.464158,
              15.316088
            ],
            [
              98.63138,
              15.298032
            ],
            [
              98.669991,
              15.238588
            ],
            [
              98.687491,
              15.21081
            ],
            [
              98.989436,
              14.417477
            ],
            [
              99.058602,
              14.213588
            ],
            [
              98.98138,
              14.076366
            ]
          ]
        ]
      }
    },
    {
      "type": "Feature",
      "id": "catchment_3614",
      "properties": {
        "station_id": "3614",
        "station_name": "บ้านลุ่มสุ่ม",
        "catchment_area_km2": 7217.75,
        "contributing_cells": 7601765
      },
      "geometry": {
        "type": "Polygon",
        "coordinates": [
          [
            [
              99.038602,
              14.070532
            ],
            [
              98.848324,
              14.194699
            ],
            [
              98.609158,
              14.411366
            ],
            [
              98.480547,
              14.554977
            ],
            [
              98.323324,
              14.753032
            ],
            [
              98.258324,
              14.91331
            ],
            [
              98.22888,
              15.030254
            ],
            [
              98.230547,
              15.093032
            ],
            [
              98.298324,
              15.264143
            ],
            [
              98.576102,
              15.325532
            ],
            [
              98.737491,
              15.202754
            ],
            [
              99.174713,
              14.166643
            ],
            [
              99.179991,
              14.090532
            ],
            [
              99.038602,
              14.070532
            ]
          ]
        ]
      }
    },
    {
      "type": "Feature",
      "id": "catchment_6221",
      "properties": {
        "station_id": "6221",
        "station_name": "บ้านลุ่มสุ่ม (K.10)",
        "catchment_area_km2": 7217.57,
        "contributing_cells": 7601568
      },
      "geometry": {
        "type": "Polygon",
        "coordinates": [
          [
            [
              99.001658,
              14.051366
            ],
            [
              98.550269,
              14.432754
            ],
            [
              98.345547,
              14.75581
            ],
            [
              98.251936,
              14.916088
            ],
            [
              98.229158,
              15.030254
            ],
            [
              98.226936,
              15.093588
            ],
            [
              98.258324,
              15.177754
            ],
            [
              98.41888,
              15.356643
            ],
            [
              98.577213,
              15.324977
            ],
            [
              98.739158,
              15.197477
            ],
            [
              99.177491,
              14.092199
            ],
            [
              99.100547,
              14.059977
            ],
            [
              99.001658,
              14.051366
            ]
          ]
        ]
      }
    },
    {
      "type": "Feature",
      "id": "catchment_6223",
      "properties": {
        "station_id": "6223",
        "station_name": "บ้านแม่น้ำน้อย",
        "catchment_area_km2": 318.53,
        "contributing_cells": 335480
      },
      "geometry": {
        "type": "Polygon",
        "coordinates": [
          [
            [
              98.576658,
              14.370532
            ],
            [
              98.505824,
              14.500532
            ],
            [
              98.498324,
              14.536088
            ],
            [
              98.499436,
              14.54331
            ],
            [
              98.639991,
              14.544977
            ],
            [
              98.677213,
              14.533032
            ],
            [
              98.755269,
              14.486366
            ],
            [
              98.80138,
              14.444143
            ],
            [
              98.576658,
              14.370532
            ]
          ]
        ]
      }
    },
    {
      "type": "Feature",
      "id": "catchment_4769",
      "properties": {
        "station_id": "4769",
        "station_name": "ลิ่นถิ่น",
        "catchment_area_km2": 4910.2,
        "contributing_cells": 5171436
      },
      "geometry": {
        "type": "Polygon",
        "coordinates": [
          [
            [
              98.789158,
              14.536088
            ],
            [
              98.470269,
              14.598588
            ],
            [
              98.424713,
              14.643588
            ],
            [
              98.310269,
              14.822199
            ],
            [
              98.259713,
              14.913588
            ],
            [
              98.249991,
              14.995532
            ],
            [
              98.257491,
              15.132754
            ],
            [
              98.274713,
              15.197199
            ],
            [
              98.280269,
              15.202199
            ],
            [
              98.340824,
              15.254699
            ],
            [
              98.445269,
              15.332477
            ],
            [
              98.499436,
              15.34081
            ],
            [
              98.576102,
              15.324143
            ],
            [
              98.704436,
              15.256088
            ],
            [
              98.864991,
              14.59581
            ],
            [
              98.816102,
              14.551088
            ],
            [
              98.789158,
              14.536088
            ]
          ]
        ]
      }
    },
    {
      "type": "Feature",
      "id": "catchment_1795",
      "properties": {
        "station_id": "1795",
        "station_name": "ไทรโยค",
        "catchment_area_km2": 7117.08,
        "contributing_cells": 7495730
      },
      "geometry": {
        "type": "Polygon",
        "coordinates": [
          [
            [
              99.147769,
              14.112477
            ],
            [
              98.944436,
              14.137754
            ],
            [
              98.868602,
              14.155254
            ],
            [
              98.678324,
              14.30331
            ],
            [
              98.66638,
              14.317199
            ],
            [
              98.335824,
              14.73331
            ],
            [
              98.261658,
              14.913032
            ],
            [
              98.228602,
              15.032199
            ],
            [
              98.206102,
              15.210532
            ],
            [
              98.332213,
              15.298866
            ],
            [
              98.454713,
              15.358866
            ],
            [
              98.531658,
              15.369699
            ],
            [
              98.729991,
              15.158866
            ],
            [
              99.147769,
              14.112477
            ]
          ]
        ]
      }
    },
    {
      "type": "Feature",
      "id": "catchment_8625",
      "properties": {
        "station_id": "8625",
        "station_name": "สะพานแม่น้ำแควใหญ่",
        "catchment_area_km2": 0.01,
        "contributing_cells": 12
      },
      "geometry": {
        "type": "Polygon",
        "coordinates": [
          [
            [
              98.846936,
              16.046366
            ],
            [
              98.844713,
              16.049421
            ],
            [
              98.844991,
              16.049143
            ],
            [
              98.846658,
              16.047477
            ],
            [
              98.847213,
              16.046921
            ],
            [
              98.846936,
              16.046366
            ]
          ]
        ]
      }
    },
    {
      "type": "Feature",
      "id": "catchment_1787",
      "properties": {
        "station_id": "1787",
        "station_name": "บ้านโป่ง",
        "catchment_area_km2": 121.78,
        "contributing_cells": 128255
      },
      "geometry": {
        "type": "Polygon",
        "coordinates": [
          [
            [
              99.819713,
              13.544699
            ],
            [
              99.796936,
              13.596921
            ],
            [
              99.80888,
              13.656088
            ],
            [
              99.843324,
              13.79081
            ],
            [
              99.864158,
              13.819977
            ],
            [
              99.904158,
              13.766921
            ],
            [
              99.919991,
              13.698032
            ],
            [
              99.900547,
              13.652199
            ],
            [
              99.819713,
              13.544699
            ]
          ]
        ]
      }
    },
    {
      "type": "Feature",
      "id": "catchment_7165",
      "properties": {
        "station_id": "7165",
        "station_name": "สะพานค่ายหลวง",
        "catchment_area_km2": 120.8,
        "contributing_cells": 127231
      },
      "geometry": {
        "type": "Polygon",
        "coordinates": [
          [
            [
              99.821102,
              13.544699
            ],
            [
              99.794991,
              13.596088
            ],
            [
              99.840824,
              13.784143
            ],
            [
              99.848602,
              13.791921
            ],
            [
              99.872213,
              13.807199
            ],
            [
              99.906102,
              13.764977
            ],
            [
              99.91138,
              13.745254
            ],
            [
              99.91138,
              13.701088
            ],
            [
              99.899436,
              13.652754
            ],
            [
              99.821102,
              13.544699
            ]
          ]
        ]
      }
    },
    {
      "type": "Feature",
      "id": "catchment_6100323",
      "properties": {
        "station_id": "6100323",
        "station_name": "บ้านทุ่งแหลม",
        "catchment_area_km2": 1734.68,
        "contributing_cells": 1826970
      },
      "geometry": {
        "type": "Polygon",
        "coordinates": [
          [
            [
              99.258047,
              13.188866
            ],
            [
              99.192769,
              13.310254
            ],
            [
              99.175824,
              13.56831
            ],
            [
              99.17138,
              13.662754
            ],
            [
              99.221936,
              13.746366
            ],
            [
              99.289713,
              13.747477
            ],
            [
              99.408047,
              13.620532
            ],
            [
              99.52138,
              13.434421
            ],
            [
              99.544158,
              13.38331
            ],
            [
              99.478602,
              13.241921
            ],
            [
              99.450547,
              13.202754
            ],
            [
              99.435269,
              13.196366
            ],
            [
              99.258047,
              13.188866
            ]
          ]
        ]
      }
    },
    {
      "type": "Feature",
      "id": "catchment_1784",
      "properties": {
        "station_id": "1784",
        "station_name": "สวนผึ้ง",
        "catchment_area_km2": 1390.95,
        "contributing_cells": 1464955
      },
      "geometry": {
        "type": "Polygon",
        "coordinates": [
          [
            [
              99.283602,
              13.169699
            ],
            [
              99.238047,
              13.206366
            ],
            [
              99.193602,
              13.307477
            ],
            [
              99.198047,
              13.568588
            ],
            [
              99.201102,
              13.607199
            ],
            [
              99.204713,
              13.632199
            ],
            [
              99.363602,
              13.559977
            ],
            [
              99.46888,
              13.474699
            ],
            [
              99.544991,
              13.377477
            ],
            [
              99.472213,
              13.226643
            ],
            [
              99.452491,
              13.19581
            ],
            [
              99.283602,
              13.169699
            ]
          ]
        ]
      }
    },
    {
      "type": "Feature",
      "id": "catchment_6224",
      "properties": {
        "station_id": "6224",
        "station_name": "สะพานมิตรภาพชุมพล",
        "catchment_area_km2": 1390.94,
        "contributing_cells": 1464948
      },
      "geometry": {
        "type": "Polygon",
        "coordinates": [
          [
            [
              99.281658,
              13.171088
            ],
            [
              99.227491,
              13.23831
            ],
            [
              99.194158,
              13.306088
            ],
            [
              99.199713,
              13.609977
            ],
            [
              99.205547,
              13.631643
            ],
            [
              99.363324,
              13.559699
            ],
            [
              99.451658,
              13.487754
            ],
            [
              99.469436,
              13.472477
            ],
            [
              99.545269,
              13.37331
            ],
            [
              99.47138,
              13.229421
            ],
            [
              99.449713,
              13.194421
            ],
            [
              99.281658,
              13.171088
            ]
          ]
        ]
      }
    },
    {
      "type": "Feature",
      "id": "catchment_10100",
      "properties": {
        "station_id": "10100",
        "station_name": "สะพานบ้านหม้อ-สร้อยฟ้า",
        "catchment_area_km2": 113.09,
        "contributing_cells": 119110
      },
      "geometry": {
        "type": "Polygon",
        "coordinates": [
          [
            [
              99.819436,
              13.567199
            ],
            [
              99.795824,
              13.600254
            ],
            [
              99.80888,
              13.654977
            ],
            [
              99.841102,
              13.741366
            ],
            [
              99.852769,
              13.76581
            ],
            [
              99.86638,
              13.776088
            ],
            [
              99.888324,
              13.774143
            ],
            [
              99.907769,
              13.772199
            ],
            [
              99.909158,
              13.726643
            ],
            [
              99.907491,
              13.699143
            ],
            [
              99.897769,
              13.648588
            ],
            [
              99.840547,
              13.572199
            ],
            [
              99.819436,
              13.567199
            ]
          ]
        ]
      }
    },
    {
      "type": "Feature",
      "id": "catchment_1788",
      "properties": {
        "station_id": "1788",
        "station_name": "โพธาราม",
        "catchment_area_km2": 7.23,
        "contributing_cells": 7613
      },
      "geometry": {
        "type": "Polygon",
        "coordinates": [
          [
            [
              99.82138,
              13.551088
            ],
            [
              99.793602,
              13.597754
            ],
            [
              99.794436,
              13.603032
            ],
            [
              99.802769,
              13.619143
            ],
            [
              99.80388,
              13.620532
            ],
            [
              99.811936,
              13.629977
            ],
            [
              99.817769,
              13.634143
            ],
            [
              99.840269,
              13.572754
            ],
            [
              99.840547,
              13.568032
            ],
            [
              99.82138,
              13.551088
            ]
          ]
        ]
      }
    },
    {
      "type": "Feature",
      "id": "catchment_1829",
      "properties": {
        "station_id": "1829",
        "station_name": "พระรามสอง",
        "catchment_area_km2": 3.29,
        "contributing_cells": 3460
      },
      "geometry": {
        "type": "Polygon",
        "coordinates": [
          [
            [
              99.98138,
              13.374699
            ],
            [
              99.972769,
              13.375532
            ],
            [
              99.956658,
              13.377754
            ],
            [
              99.956936,
              13.379977
            ],
            [
              99.957769,
              13.383032
            ],
            [
              99.958602,
              13.383588
            ],
            [
              99.971102,
              13.38581
            ],
            [
              99.981102,
              13.386366
            ],
            [
              99.992769,
              13.381921
            ],
            [
              99.992769,
              13.378866
            ],
            [
              99.98138,
              13.374699
            ]
          ]
        ]
      }
    },
    {
      "type": "Feature",
      "id": "catchment_1828",
      "properties": {
        "station_id": "1828",
        "station_name": "บ้านแพ้ว",
        "catchment_area_km2": 1.17,
        "contributing_cells": 1227
      },
      "geometry": {
        "type": "Polygon",
        "coordinates": [
          [
            [
              100.08138,
              13.578866
            ],
            [
              100.079713,
              13.58081
            ],
            [
              100.078047,
              13.584143
            ],
            [
              100.079158,
              13.589143
            ],
            [
              100.08138,
              13.597754
            ],
            [
              100.08388,
              13.59831
            ],
            [
              100.085269,
              13.59831
            ],
            [
              100.086102,
              13.596921
            ],
            [
              100.086102,
              13.596088
            ],
            [
              100.084713,
              13.585532
            ],
            [
              100.084436,
              13.584699
            ],
            [
              100.083324,
              13.581643
            ],
            [
              100.082491,
              13.579977
            ],
            [
              100.08138,
              13.578866
            ]
          ]
        ]
      }
    },
    {
      "type": "Feature",
      "id": "catchment_252323",
      "properties": {
        "station_id": "252323",
        "station_name": "หน่วยพิทักษ์ป่าเขาบันได",
        "catchment_area_km2": 1534.02,
        "contributing_cells": 1615639
      },
      "geometry": {
        "type": "Polygon",
        "coordinates": [
          [
            [
              99.32138,
              15.095532
            ],
            [
              99.083324,
              15.324143
            ],
            [
              99.072213,
              15.392754
            ],
            [
              99.064713,
              15.519143
            ],
            [
              99.135269,
              15.797199
            ],
            [
              99.17888,
              15.745532
            ],
            [
              99.323047,
              15.47581
            ],
            [
              99.342213,
              15.427754
            ],
            [
              99.356936,
              15.358032
            ],
            [
              99.369158,
              15.140532
            ],
            [
              99.32138,
              15.095532
            ]
          ]
        ]
      }
    }
  ]
}