{
  "type": "FeatureCollection",
  "features": [
    {
      "type": "Feature",
      "properties": {
        "basin_slug": "mae-klong",
        "basin_name_th": "ลุ่มน้ำแม่กลอง",
        "source": "ThaiWater (HII Official)",
        "min_lat": 13.159,
        "max_lat": 16.389,
        "min_lon": 98.184,
        "max_lon": 100.193
      },
      "geometry": {
        "type": "Polygon",
        "coordinates": [
          [
            [
              100.0,
              13.358
            ],
            [
              100.023,
              13.362
            ],
            [
              99.996,
              13.375
            ],
            [
              100.009,
              13.402
            ],
            [
              100.117,
              13.475
            ],
            [
              100.131,
              13.508
            ],
            [
              100.193,
              13.533
            ],
            [
              100.119,
              13.56
            ],
            [
              100.099,
              13.603
            ],
            [
              100.088,
              13.68
            ],
            [
              100.076,
              13.712
            ],
            [
              100.097,
              13.814
            ],
            [
              100.036,
              13.832
            ],
            [
              99.996,
              13.877
            ],
            [
              99.964,
              13.892
            ],
            [
              99.905,
              13.889
            ],
            [
              99.872,
              13.922
            ],
            [
              99.841,
              13.932
            ],
            [
              99.807,
              13.958
            ],
            [
              99.641,
              13.979
            ],
            [
              99.629,
              14.006
            ],
            [
              99.635,
              14.062
            ],
            [
              99.659,
              14.079
            ],
            [
              99.674,
              14.113
            ],
            [
              99.649,
              14.146
            ],
            [
              99.648,
              14.169
            ],
            [
              99.624,
              14.227
            ],
            [
              99.587,
              14.237
            ],
            [
              99.587,
              14.258
            ],
            [
              99.559,
              14.291
            ],
            [
              99.573,
              14.311
            ],
            [
              99.548,
              14.344
            ],
            [
              99.543,
              14.381
            ],
            [
              99.574,
              14.47
            ],
            [
              99.595,
              14.561
            ],
            [
              99.598,
              14.569
            ],
            [
              99.581,
              14.59
            ],
            [
              99.578,
              14.631
            ],
            [
              99.549,
              14.684
            ],
            [
              99.543,
              14.716
            ],
            [
              99.549,
              14.722
            ],
            [
              99.542,
              14.762
            ],
            [
              99.519,
              14.797
            ],
            [
              99.504,
              14.83
            ],
            [
              99.472,
              14.863
            ],
            [
              99.462,
              14.875
            ],
            [
              99.455,
              14.939
            ],
            [
              99.444,
              14.983
            ],
            [
              99.426,
              15.01
            ],
            [
              99.409,
              15.046
            ],
            [
              99.367,
              15.049
            ],
            [
              99.343,
              15.088
            ],
            [
              99.37,
              15.144
            ],
            [
              99.349,
              15.162
            ],
            [
              99.349,
              15.161
            ],
            [
              99.349,
              15.162
            ],
            [
              99.349,
              15.161
            ],
            [
              99.345,
              15.18
            ],
            [
              99.358,
              15.198
            ],
            [
              99.353,
              15.231
            ],
            [
              99.371,
              15.256
            ],
            [
              99.374,
              15.345
            ],
            [
              99.365,
              15.367
            ],
            [
              99.343,
              15.386
            ],
            [
              99.35,
              15.44
            ],
            [
              99.32,
              15.492
            ],
            [
              99.256,
              15.487
            ],
            [
              99.243,
              15.51
            ],
            [
              99.253,
              15.632
            ],
            [
              99.224,
              15.653
            ],
            [
              99.224,
              15.704
            ],
            [
              99.211,
              15.729
            ],
            [
              99.212,
              15.732
            ],
            [
              99.194,
              15.779
            ],
            [
              99.137,
              15.797
            ],
            [
              99.097,
              15.831
            ],
            [
              99.097,
              15.871
            ],
            [
              99.088,
              15.898
            ],
            [
              99.087,
              15.947
            ],
            [
              99.086,
              15.952
            ],
            [
              99.088,
              15.98
            ],
            [
              99.083,
              16.013
            ],
            [
              99.083,
              16.022
            ],
            [
              99.115,
              16.061
            ],
            [
              99.108,
              16.086
            ],
            [
              99.106,
              16.102
            ],
            [
              99.052,
              16.156
            ],
            [
              99.068,
              16.165
            ],
            [
              99.08,
              16.218
            ],
            [
              99.072,
              16.229
            ],
            [
              99.068,
              16.234
            ],
            [
              99.048,
              16.26
            ],
            [
              99.042,
              16.293
            ],
            [
              99.052,
              16.334
            ],
            [
              99.038,
              16.382
            ],
            [
              99.024,
              16.382
            ],
            [
              99.009,
              16.379
            ],
            [
              99.001,
              16.369
            ],
            [
              98.93,
              16.389
            ],
            [
              98.919,
              16.384
            ],
            [
              98.911,
              16.344
            ],
            [
              98.931,
              16.325
            ],
            [
              98.912,
              16.301
            ],
            [
              98.904,
              16.254
            ],
            [
              98.852,
              16.214
            ],
            [
              98.861,
              16.169
            ],
            [
              98.849,
              16.128
            ],
            [
              98.806,
              16.105
            ],
            [
              98.768,
              16.12
            ],
            [
              98.685,
              16.132
            ],
            [
              98.663,
              16.075
            ],
            [
              98.639,
              16.062
            ],
            [
              98.614,
              16.04
            ],
            [
              98.598,
              16.074
            ],
            [
              98.569,
              16.058
            ],
            [
              98.561,
              16.033
            ],
            [
              98.597,
              16.008
            ],
            [
              98.609,
              15.973
            ],
            [
              98.584,
              15.919
            ],
            [
              98.61,
              15.876
            ],
            [
              98.569,
              15.775
            ],
            [
              98.548,
              15.682
            ],
            [
              98.562,
              15.641
            ],
            [
              98.553,
              15.603
            ],
            [
              98.582,
              15.491
            ],
            [
              98.581,
              15.377
            ],
            [
              98.56,
              15.337
            ],
            [
              98.52,
              15.393
            ],
            [
              98.501,
              15.405
            ],
            [
              98.451,
              15.383
            ],
            [
              98.394,
              15.343
            ],
            [
              98.401,
              15.309
            ],
            [
              98.346,
              15.293
            ],
            [
              98.344,
              15.293
            ],
            [
              98.307,
              15.313
            ],
            [
              98.301,
              15.277
            ],
            [
              98.234,
              15.22
            ],
            [
              98.197,
              15.232
            ],
            [
              98.213,
              15.177
            ],
            [
              98.189,
              15.147
            ],
            [
              98.184,
              15.096
            ],
            [
              98.231,
              15.046
            ],
            [
              98.213,
              15.021
            ],
            [
              98.208,
              14.985
            ],
            [
              98.228,
              14.968
            ],
            [
              98.251,
              14.916
            ],
            [
              98.23,
              14.889
            ],
            [
              98.259,
              14.86
            ],
            [
              98.251,
              14.826
            ],
            [
              98.295,
              14.769
            ],
            [
              98.323,
              14.711
            ],
            [
              98.363,
              14.687
            ],
            [
              98.366,
              14.666
            ],
            [
              98.439,
              14.607
            ],
            [
              98.459,
              14.579
            ],
            [
              98.461,
              14.532
            ],
            [
              98.498,
              14.512
            ],
            [
              98.524,
              14.455
            ],
            [
              98.577,
              14.369
            ],
            [
              98.597,
              14.327
            ],
            [
              98.632,
              14.312
            ],
            [
              98.777,
              14.2
            ],
            [
              98.845,
              14.164
            ],
            [
              98.892,
              14.115
            ],
            [
              98.925,
              14.108
            ],
            [
              98.969,
              14.081
            ],
            [
              98.971,
              14.034
            ],
            [
              99.009,
              13.995
            ],
            [
              99.021,
              13.945
            ],
            [
              99.059,
              13.93
            ],
            [
              99.077,
              13.894
            ],
            [
              99.108,
              13.894
            ],
            [
              99.1,
              13.837
            ],
            [
              99.115,
              13.83
            ],
            [
              99.122,
              13.772
            ],
            [
              99.154,
              13.756
            ],
            [
              99.168,
              13.725
            ],
            [
              99.171,
              13.625
            ],
            [
              99.177,
              13.592
            ],
            [
              99.164,
              13.574
            ],
            [
              99.192,
              13.546
            ],
            [
              99.187,
              13.496
            ],
            [
              99.207,
              13.461
            ],
            [
              99.2,
              13.444
            ],
            [
              99.206,
              13.34
            ],
            [
              99.188,
              13.289
            ],
            [
              99.199,
              13.253
            ],
            [
              99.199,
              13.252
            ],
            [
              99.199,
              13.253
            ],
            [
              99.199,
              13.252
            ],
            [
              99.211,
              13.207
            ],
            [
              99.265,
              13.159
            ],
            [
              99.303,
              13.163
            ],
            [
              99.32,
              13.19
            ],
            [
              99.325,
              13.231
            ],
            [
              99.349,
              13.242
            ],
            [
              99.394,
              13.213
            ],
            [
              99.423,
              13.198
            ],
            [
              99.438,
              13.185
            ],
            [
              99.482,
              13.196
            ],
            [
              99.485,
              13.191
            ],
            [
              99.495,
              13.198
            ],
            [
              99.488,
              13.253
            ],
            [
              99.483,
              13.288
            ],
            [
              99.517,
              13.317
            ],
            [
              99.518,
              13.34
            ],
            [
              99.526,
              13.35
            ],
            [
              99.53,
              13.367
            ],
            [
              99.547,
              13.375
            ],
            [
              99.549,
              13.372
            ],
            [
              99.549,
              13.371
            ],
            [
              99.549,
              13.372
            ],
            [
              99.549,
              13.371
            ],
            [
              99.554,
              13.371
            ],
            [
              99.556,
              13.369
            ],
            [
              99.56,
              13.38
            ],
            [
              99.573,
              13.383
            ],
            [
              99.586,
              13.408
            ],
            [
              99.616,
              13.427
            ],
            [
              99.668,
              13.455
            ],
            [
              99.721,
              13.461
            ],
            [
              99.727,
              13.451
            ],
            [
              99.735,
              13.44
            ],
            [
              99.724,
              13.423
            ],
            [
              99.737,
              13.401
            ],
            [
              99.764,
              13.396
            ],
            [
              99.8,
              13.364
            ],
            [
              99.87,
              13.374
            ],
            [
              99.884,
              13.386
            ],
            [
              99.984,
              13.396
            ],
            [
              99.988,
              13.376
            ],
            [
              99.988,
              13.375
            ],
            [
              99.988,
              13.376
            ],
            [
              99.988,
              13.375
            ],
            [
              100.0,
              13.358
            ]
          ]
        ]
      }
    }
  ]
}