{
  "type": "FeatureCollection",
  "features": [
    {
      "type": "Feature",
      "id": "catchment_1653",
      "properties": {
        "station_id": "1653",
        "station_name": "ชุมแสง",
        "catchment_area_km2": 0.03,
        "contributing_cells": 24
      },
      "geometry": {
        "type": "Polygon",
        "coordinates": [
          [
            [
              100.466129,
              15.174916
            ],
            [
              100.465501,
              15.175535
            ],
            [
              100.462042,
              15.178939
            ],
            [
              100.459527,
              15.181414
            ],
            [
              100.458899,
              15.182033
            ],
            [
              100.459842,
              15.181105
            ],
            [
              100.4633,
              15.177701
            ],
            [
              100.466129,
              15.174916
            ]
          ]
        ]
      }
    },
    {
      "type": "Feature",
      "id": "catchment_3863",
      "properties": {
        "station_id": "3863",
        "station_name": "วัดเกยไชยเหนือ",
        "catchment_area_km2": 0.03,
        "contributing_cells": 24
      },
      "geometry": {
        "type": "Polygon",
        "coordinates": [
          [
            [
              100.466446,
              15.174914
            ],
            [
              100.465817,
              15.175533
            ],
            [
              100.464874,
              15.176461
            ],
            [
              100.461416,
              15.179865
            ],
            [
              100.459844,
              15.181412
            ],
            [
              100.459215,
              15.182031
            ],
            [
              100.462673,
              15.178627
            ],
            [
              100.466446,
              15.174914
            ]
          ]
        ]
      }
    },
    {
      "type": "Feature",
      "id": "catchment_5305",
      "properties": {
        "station_id": "5305",
        "station_name": "บ้านไร่รวงทอง",
        "catchment_area_km2": 0.19,
        "contributing_cells": 163
      },
      "geometry": {
        "type": "Polygon",
        "coordinates": [
          [
            [
              101.204486,
              18.962633
            ],
            [
              101.203849,
              18.963255
            ],
            [
              101.202892,
              18.964187
            ],
            [
              101.202586,
              18.96542
            ],
            [
              101.202602,
              18.966648
            ],
            [
              101.202945,
              18.96818
            ],
            [
              101.203268,
              18.968176
            ],
            [
              101.204555,
              18.967854
            ],
            [
              101.205196,
              18.967539
            ],
            [
              101.206157,
              18.966913
            ],
            [
              101.206128,
              18.964763
            ],
            [
              101.205793,
              18.963846
            ],
            [
              101.20514,
              18.963239
            ],
            [
              101.204486,
              18.962633
            ]
          ]
        ]
      }
    },
    {
      "type": "Feature",
      "id": "catchment_1602",
      "properties": {
        "station_id": "1602",
        "station_name": "ภูเพียง",
        "catchment_area_km2": 0.02,
        "contributing_cells": 13
      },
      "geometry": {
        "type": "Polygon",
        "coordinates": [
          [
            [
              101.095119,
              18.630583
            ],
            [
              101.098705,
              18.633922
            ],
            [
              101.099031,
              18.634226
            ],
            [
              101.098053,
              18.633315
            ],
            [
              101.097401,
              18.632708
            ],
            [
              101.096097,
              18.631494
            ],
            [
              101.095119,
              18.630583
            ]
          ]
        ]
      }
    },
    {
      "type": "Feature",
      "id": "catchment_2529",
      "properties": {
        "station_id": "2529",
        "station_name": "บ้านสองแคว*",
        "catchment_area_km2": 0.06,
        "contributing_cells": 49
      },
      "geometry": {
        "type": "Polygon",
        "coordinates": [
          [
            [
              100.972342,
              19.208258
            ],
            [
              100.972022,
              19.208569
            ],
            [
              100.971383,
              19.20919
            ],
            [
              100.973991,
              19.211005
            ],
            [
              100.975285,
              19.210991
            ],
            [
              100.974304,
              19.21008
            ],
            [
              100.972669,
              19.208562
            ],
            [
              100.972342,
              19.208258
            ]
          ]
        ]
      }
    },
    {
      "type": "Feature",
      "id": "catchment_5488",
      "properties": {
        "station_id": "5488",
        "station_name": "บ้านห้วยเลา",
        "catchment_area_km2": 12.71,
        "contributing_cells": 10991
      },
      "geometry": {
        "type": "Polygon",
        "coordinates": [
          [
            [
              100.925861,
              19.381408
            ],
            [
              100.913575,
              19.382767
            ],
            [
              100.901318,
              19.386582
            ],
            [
              100.892016,
              19.394052
            ],
            [
              100.890117,
              19.397759
            ],
            [
              100.96535,
              19.40802
            ],
            [
              100.973409,
              19.405168
            ],
            [
              100.978563,
              19.402962
            ],
            [
              100.976922,
              19.401136
            ],
            [
              100.971036,
              19.396285
            ],
            [
              100.94243,
              19.386455
            ],
            [
              100.925861,
              19.381408
            ]
          ]
        ]
      }
    },
    {
      "type": "Feature",
      "id": "catchment_5881",
      "properties": {
        "station_id": "5881",
        "station_name": "สะพานน้ำมวบ (บ้านภูแยง)",
        "catchment_area_km2": 11.91,
        "contributing_cells": 10297
      },
      "geometry": {
        "type": "Polygon",
        "coordinates": [
          [
            [
              101.261396,
              18.679957
            ],
            [
              101.251109,
              18.681923
            ],
            [
              101.225347,
              18.708342
            ],
            [
              101.215906,
              18.725963
            ],
            [
              101.217215,
              18.727484
            ],
            [
              101.220136,
              18.728985
            ],
            [
              101.222385,
              18.728344
            ],
            [
              101.24923,
              18.710514
            ],
            [
              101.265839,
              18.698948
            ],
            [
              101.270918,
              18.69305
            ],
            [
              101.269885,
              18.688148
            ],
            [
              101.261396,
              18.679957
            ]
          ]
        ]
      }
    },
    {
      "type": "Feature",
      "id": "catchment_268786",
      "properties": {
        "station_id": "268786",
        "station_name": "อ่างเก็บน้ำขอนแก่น 2",
        "catchment_area_km2": 0.04,
        "contributing_cells": 36
      },
      "geometry": {
        "type": "Polygon",
        "coordinates": [
          [
            [
              101.217262,
              18.755745
            ],
            [
              101.216943,
              18.756056
            ],
            [
              101.215033,
              18.757921
            ],
            [
              101.215355,
              18.757918
            ],
            [
              101.217282,
              18.75728
            ],
            [
              101.218563,
              18.756651
            ],
            [
              101.217584,
              18.755741
            ],
            [
              101.217262,
              18.755745
            ]
          ]
        ]
      }
    },
    {
      "type": "Feature",
      "id": "catchment_2536",
      "properties": {
        "station_id": "2536",
        "station_name": "บ้านเปียงซ้อ",
        "catchment_area_km2": 0.04,
        "contributing_cells": 34
      },
      "geometry": {
        "type": "Polygon",
        "coordinates": [
          [
            [
              101.521728,
              19.233462
            ],
            [
              101.520117,
              19.233791
            ],
            [
              101.521101,
              19.234699
            ],
            [
              101.521756,
              19.235304
            ],
            [
              101.522394,
              19.234681
            ],
            [
              101.522712,
              19.23437
            ],
            [
              101.522375,
              19.233453
            ],
            [
              101.521728,
              19.233462
            ]
          ]
        ]
      }
    },
    {
      "type": "Feature",
      "id": "catchment_5549",
      "properties": {
        "station_id": "5549",
        "station_name": "บ้านนาเคียน",
        "catchment_area_km2": 0.04,
        "contributing_cells": 36
      },
      "geometry": {
        "type": "Polygon",
        "coordinates": [
          [
            [
              101.07965,
              18.363783
            ],
            [
              101.07644,
              18.364433
            ],
            [
              101.076126,
              18.365051
            ],
            [
              101.07613,
              18.365358
            ],
            [
              101.07678,
              18.365965
            ],
            [
              101.077106,
              18.366269
            ],
            [
              101.077424,
              18.365958
            ],
            [
              101.07965,
              18.363783
            ]
          ]
        ]
      }
    },
    {
      "type": "Feature",
      "id": "catchment_5558",
      "properties": {
        "station_id": "5558",
        "station_name": "บ้านนาเหลืองใน",
        "catchment_area_km2": 8.85,
        "contributing_cells": 7655
      },
      "geometry": {
        "type": "Polygon",
        "coordinates": [
          [
            [
              101.079804,
              18.403413
            ],
            [
              101.071496,
              18.408419
            ],
            [
              101.068304,
              18.410605
            ],
            [
              101.0626,
              18.41804
            ],
            [
              101.060713,
              18.421747
            ],
            [
              101.06945,
              18.425646
            ],
            [
              101.071388,
              18.426239
            ],
            [
              101.077835,
              18.42709
            ],
            [
              101.087479,
              18.426063
            ],
            [
              101.094547,
              18.425063
            ],
            [
              101.104434,
              18.417581
            ],
            [
              101.104733,
              18.415734
            ],
            [
              101.103064,
              18.410837
            ],
            [
              101.100453,
              18.407794
            ],
            [
              101.097871,
              18.407208
            ],
            [
              101.079804,
              18.403413
            ]
          ]
        ]
      }
    },
    {
      "type": "Feature",
      "id": "catchment_2498",
      "properties": {
        "station_id": "2498",
        "station_name": "บ้านสันนาเคียน*",
        "catchment_area_km2": 0.05,
        "contributing_cells": 47
      },
      "geometry": {
        "type": "Polygon",
        "coordinates": [
          [
            [
              101.240787,
              18.209892
            ],
            [
              101.239834,
              18.210825
            ],
            [
              101.239838,
              18.211132
            ],
            [
              101.240818,
              18.21235
            ],
            [
              101.242104,
              18.212335
            ],
            [
              101.242088,
              18.211106
            ],
            [
              101.241763,
              18.210803
            ],
            [
              101.241112,
              18.210196
            ],
            [
              101.240787,
              18.209892
            ]
          ]
        ]
      }
    },
    {
      "type": "Feature",
      "id": "catchment_8285",
      "properties": {
        "station_id": "8285",
        "station_name": "อ.เวียงสา (N.13A) น้ำน่าน",
        "catchment_area_km2": 0.02,
        "contributing_cells": 13
      },
      "geometry": {
        "type": "Polygon",
        "coordinates": [
          [
            [
              101.03391,
              18.276717
            ],
            [
              101.033595,
              18.277335
            ],
            [
              101.033606,
              18.278256
            ],
            [
              101.033931,
              18.27856
            ],
            [
              101.034242,
              18.277635
            ],
            [
              101.034235,
              18.277021
            ],
            [
              101.03391,
              18.276717
            ]
          ]
        ]
      }
    },
    {
      "type": "Feature",
      "id": "catchment_2475",
      "properties": {
        "station_id": "2475",
        "station_name": "บ้านน้ำปาย",
        "catchment_area_km2": 0.05,
        "contributing_cells": 43
      },
      "geometry": {
        "type": "Polygon",
        "coordinates": [
          [
            [
              101.26487,
              18.405905
            ],
            [
              101.265196,
              18.406208
            ],
            [
              101.266173,
              18.407118
            ],
            [
              101.266825,
              18.407725
            ],
            [
              101.267143,
              18.407414
            ],
            [
              101.268096,
              18.406481
            ],
            [
              101.267444,
              18.405874
            ],
            [
              101.26487,
              18.405905
            ]
          ]
        ]
      }
    },
    {
      "type": "Feature",
      "id": "catchment_10101",
      "properties": {
        "station_id": "10101",
        "station_name": "บางมูลนาก",
        "catchment_area_km2": 0.28,
        "contributing_cells": 246
      },
      "geometry": {
        "type": "Polygon",
        "coordinates": [
          [
            [
              100.58163,
              15.341654
            ],
            [
              100.580999,
              15.341966
            ],
            [
              100.579746,
              15.343819
            ],
            [
              100.579751,
              15.344434
            ],
            [
              100.580389,
              15.345044
            ],
            [
              100.581027,
              15.345654
            ],
            [
              100.583889,
              15.347171
            ],
            [
              100.584523,
              15.347166
            ],
            [
              100.585468,
              15.346545
            ],
            [
              100.58578,
              15.345928
            ],
            [
              100.585764,
              15.343777
            ],
            [
              100.584807,
              15.342861
            ],
            [
              100.5829,
              15.341953
            ],
            [
              100.58163,
              15.341654
            ]
          ]
        ]
      }
    },
    {
      "type": "Feature",
      "id": "catchment_6119",
      "properties": {
        "station_id": "6119",
        "station_name": "บ้านแก่งบัวคำ",
        "catchment_area_km2": 0.19,
        "contributing_cells": 162
      },
      "geometry": {
        "type": "Polygon",
        "coordinates": [
          [
            [
              100.833063,
              16.62741
            ],
            [
              100.832122,
              16.628955
            ],
            [
              100.831534,
              16.634184
            ],
            [
              100.83154,
              16.634799
            ],
            [
              100.831861,
              16.635103
            ],
            [
              100.832183,
              16.635408
            ],
            [
              100.832505,
              16.635712
            ],
            [
              100.83282,
              16.635402
            ],
            [
              100.835312,
              16.629234
            ],
            [
              100.834019,
              16.627402
            ],
            [
              100.833063,
              16.62741
            ]
          ]
        ]
      }
    },
    {
      "type": "Feature",
      "id": "catchment_5376",
      "properties": {
        "station_id": "5376",
        "station_name": "บ้านแยง",
        "catchment_area_km2": 0.03,
        "contributing_cells": 25
      },
      "geometry": {
        "type": "Polygon",
        "coordinates": [
          [
            [
              101.073747,
              16.363657
            ],
            [
              101.073432,
              16.363967
            ],
            [
              101.073757,
              16.364579
            ],
            [
              101.0744,
              16.365187
            ],
            [
              101.074718,
              16.365184
            ],
            [
              101.075348,
              16.364563
            ],
            [
              101.075027,
              16.364259
            ],
            [
              101.074384,
              16.363651
            ],
            [
              101.073747,
              16.363657
            ]
          ]
        ]
      }
    },
    {
      "type": "Feature",
      "id": "catchment_1745",
      "properties": {
        "station_id": "1745",
        "station_name": "บางกระทุ่ม",
        "catchment_area_km2": 0.05,
        "contributing_cells": 39
      },
      "geometry": {
        "type": "Polygon",
        "coordinates": [
          [
            [
              100.441747,
              15.991485
            ],
            [
              100.441431,
              15.991795
            ],
            [
              100.438907,
              15.994271
            ],
            [
              100.431965,
              16.001079
            ],
            [
              100.430071,
              16.002936
            ],
            [
              100.429756,
              16.003246
            ],
            [
              100.430702,
              16.002317
            ],
            [
              100.441116,
              15.992104
            ],
            [
              100.441747,
              15.991485
            ]
          ]
        ]
      }
    },
    {
      "type": "Feature",
      "id": "catchment_4034",
      "properties": {
        "station_id": "4034",
        "station_name": "ท้ายเขื่อนนเรศวร",
        "catchment_area_km2": 0.02,
        "contributing_cells": 17
      },
      "geometry": {
        "type": "Polygon",
        "coordinates": [
          [
            [
              100.386048,
              16.522991
            ],
            [
              100.385415,
              16.52361
            ],
            [
              100.385098,
              16.523919
            ],
            [
              100.382888,
              16.5267
            ],
            [
              100.383837,
              16.525772
            ],
            [
              100.385736,
              16.523915
            ],
            [
              100.386052,
              16.523606
            ],
            [
              100.386048,
              16.522991
            ]
          ]
        ]
      }
    },
    {
      "type": "Feature",
      "id": "catchment_8277",
      "properties": {
        "station_id": "8277",
        "station_name": "อ.น้ำปาด (N.33)",
        "catchment_area_km2": 0.02,
        "contributing_cells": 14
      },
      "geometry": {
        "type": "Polygon",
        "coordinates": [
          [
            [
              100.820254,
              17.316792
            ],
            [
              100.81962,
              17.317413
            ],
            [
              100.819943,
              17.317717
            ],
            [
              100.820266,
              17.318021
            ],
            [
              100.820589,
              17.318326
            ],
            [
              100.820577,
              17.317097
            ],
            [
              100.820254,
              17.316792
            ]
          ]
        ]
      }
    },
    {
      "type": "Feature",
      "id": "catchment_8895",
      "properties": {
        "station_id": "8895",
        "station_name": "บ้านไร่อ้อย*",
        "catchment_area_km2": 0.11,
        "contributing_cells": 97
      },
      "geometry": {
        "type": "Polygon",
        "coordinates": [
          [
            [
              100.232978,
              16.900179
            ],
            [
              100.232343,
              16.900797
            ],
            [
              100.231709,
              16.901416
            ],
            [
              100.232357,
              16.902949
            ],
            [
              100.233002,
              16.903867
            ],
            [
              100.234277,
              16.903552
            ],
            [
              100.235552,
              16.903237
            ],
            [
              100.23555,
              16.902929
            ],
            [
              100.234901,
              16.901397
            ],
            [
              100.234259,
              16.900786
            ],
            [
              100.232978,
              16.900179
            ]
          ]
        ]
      }
    },
    {
      "type": "Feature",
      "id": "catchment_4175",
      "properties": {
        "station_id": "4175",
        "station_name": "บ้านฟากท่า",
        "catchment_area_km2": 0.06,
        "contributing_cells": 56
      },
      "geometry": {
        "type": "Polygon",
        "coordinates": [
          [
            [
              101.167926,
              17.638382
            ],
            [
              101.167293,
              17.639003
            ],
            [
              101.166659,
              17.639624
            ],
            [
              101.166666,
              17.640239
            ],
            [
              101.167315,
              17.640846
            ],
            [
              101.167955,
              17.640839
            ],
            [
              101.168592,
              17.640525
            ],
            [
              101.168909,
              17.640214
            ],
            [
              101.169218,
              17.639289
            ],
            [
              101.169211,
              17.638675
            ],
            [
              101.168887,
              17.638371
            ],
            [
              101.167926,
              17.638382
            ]
          ]
        ]
      }
    },
    {
      "type": "Feature",
      "id": "catchment_4136",
      "properties": {
        "station_id": "4136",
        "station_name": "ต.ในเมือง",
        "catchment_area_km2": 0.04,
        "contributing_cells": 35
      },
      "geometry": {
        "type": "Polygon",
        "coordinates": [
          [
            [
              100.271343,
              17.191631
            ],
            [
              100.270386,
              17.191944
            ],
            [
              100.270068,
              17.192254
            ],
            [
              100.270072,
              17.192868
            ],
            [
              100.270394,
              17.193174
            ],
            [
              100.270714,
              17.193172
            ],
            [
              100.27231,
              17.192854
            ],
            [
              100.272626,
              17.192237
            ],
            [
              100.272304,
              17.191932
            ],
            [
              100.271662,
              17.191629
            ],
            [
              100.271343,
              17.191631
            ]
          ]
        ]
      }
    },
    {
      "type": "Feature",
      "id": "catchment_8273",
      "properties": {
        "station_id": "8273",
        "station_name": "บ้านผาจุก",
        "catchment_area_km2": 0.06,
        "contributing_cells": 50
      },
      "geometry": {
        "type": "Polygon",
        "coordinates": [
          [
            [
              100.40231,
              17.2593
            ],
            [
              100.403276,
              17.260215
            ],
            [
              100.403921,
              17.260826
            ],
            [
              100.404565,
              17.261436
            ],
            [
              100.40552,
              17.260814
            ],
            [
              100.406473,
              17.259886
            ],
            [
              100.40615,
              17.259581
            ],
            [
              100.404869,
              17.259282
            ],
            [
              100.40231,
              17.2593
            ]
          ]
        ]
      }
    },
    {
      "type": "Feature",
      "id": "catchment_2430",
      "properties": {
        "station_id": "2430",
        "station_name": "บ้านฝางแล้ง",
        "catchment_area_km2": 0.02,
        "contributing_cells": 13
      },
      "geometry": {
        "type": "Polygon",
        "coordinates": [
          [
            [
              100.406391,
              17.333341
            ],
            [
              100.405756,
              17.33396
            ],
            [
              100.405758,
              17.334267
            ],
            [
              100.40608,
              17.334572
            ],
            [
              100.407036,
              17.333951
            ],
            [
              100.406391,
              17.333341
            ]
          ]
        ]
      }
    },
    {
      "type": "Feature",
      "id": "catchment_8281",
      "properties": {
        "station_id": "8281",
        "station_name": "บ้านแสนตอ",
        "catchment_area_km2": 0.04,
        "contributing_cells": 34
      },
      "geometry": {
        "type": "Polygon",
        "coordinates": [
          [
            [
              100.501418,
              17.253667
            ],
            [
              100.500784,
              17.254286
            ],
            [
              100.499514,
              17.255525
            ],
            [
              100.499197,
              17.255835
            ],
            [
              100.500159,
              17.256135
            ],
            [
              100.500798,
              17.25613
            ],
            [
              100.501116,
              17.25582
            ],
            [
              100.501426,
              17.254589
            ],
            [
              100.501418,
              17.253667
            ]
          ]
        ]
      }
    },
    {
      "type": "Feature",
      "id": "catchment_2808",
      "properties": {
        "station_id": "2808",
        "station_name": "บ้านวังลาด",
        "catchment_area_km2": 0.02,
        "contributing_cells": 13
      },
      "geometry": {
        "type": "Polygon",
        "coordinates": [
          [
            [
              101.199946,
              15.535222
            ],
            [
              101.199955,
              15.536144
            ],
            [
              101.200276,
              15.536448
            ],
            [
              101.200903,
              15.535827
            ],
            [
              101.200583,
              15.535523
            ],
            [
              101.200263,
              15.535219
            ],
            [
              101.199946,
              15.535222
            ]
          ]
        ]
      }
    },
    {
      "type": "Feature",
      "id": "catchment_2823",
      "properties": {
        "station_id": "2823",
        "station_name": "บ้านทุ่งสมอ",
        "catchment_area_km2": 1.04,
        "contributing_cells": 903
      },
      "geometry": {
        "type": "Polygon",
        "coordinates": [
          [
            [
              101.349626,
              16.146928
            ],
            [
              101.344248,
              16.149138
            ],
            [
              101.341724,
              16.150701
            ],
            [
              101.341095,
              16.151323
            ],
            [
              101.341756,
              16.153466
            ],
            [
              101.345007,
              16.159575
            ],
            [
              101.346929,
              16.160783
            ],
            [
              101.347886,
              16.16108
            ],
            [
              101.349161,
              16.161373
            ],
            [
              101.349764,
              16.158601
            ],
            [
              101.351861,
              16.147825
            ],
            [
              101.349626,
              16.146928
            ]
          ]
        ]
      }
    }
  ]
}