{
  "type": "FeatureCollection",
  "features": [
    {
      "type": "Feature",
      "properties": {
        "basin_slug": "yom",
        "basin_name_th": "ลุ่มน้ำยม",
        "source": "ThaiWater (HII Official)",
        "min_lat": 15.889,
        "max_lat": 19.416,
        "min_lon": 99.233,
        "max_lon": 100.68
      },
      "geometry": {
        "type": "Polygon",
        "coordinates": [
          [
            [
              99.774,
              19.064
            ],
            [
              99.773,
              19.064
            ],
            [
              99.764,
              19.056
            ],
            [
              99.753,
              19.049
            ],
            [
              99.766,
              18.917
            ],
            [
              99.768,
              18.914
            ],
            [
              99.779,
              18.913
            ],
            [
              99.801,
              18.881
            ],
            [
              99.802,
              18.816
            ],
            [
              99.796,
              18.781
            ],
            [
              99.777,
              18.739
            ],
            [
              99.776,
              18.73
            ],
            [
              99.789,
              18.702
            ],
            [
              99.803,
              18.694
            ],
            [
              99.805,
              18.693
            ],
            [
              99.834,
              18.662
            ],
            [
              99.829,
              18.642
            ],
            [
              99.807,
              18.603
            ],
            [
              99.794,
              18.567
            ],
            [
              99.794,
              18.566
            ],
            [
              99.794,
              18.567
            ],
            [
              99.794,
              18.566
            ],
            [
              99.82,
              18.55
            ],
            [
              99.816,
              18.506
            ],
            [
              99.833,
              18.481
            ],
            [
              99.872,
              18.498
            ],
            [
              99.877,
              18.504
            ],
            [
              99.887,
              18.5
            ],
            [
              99.898,
              18.473
            ],
            [
              99.911,
              18.456
            ],
            [
              99.908,
              18.453
            ],
            [
              99.908,
              18.452
            ],
            [
              99.909,
              18.452
            ],
            [
              99.908,
              18.452
            ],
            [
              99.909,
              18.452
            ],
            [
              99.911,
              18.439
            ],
            [
              99.917,
              18.421
            ],
            [
              99.915,
              18.408
            ],
            [
              99.909,
              18.401
            ],
            [
              99.913,
              18.388
            ],
            [
              99.952,
              18.37
            ],
            [
              99.907,
              18.28
            ],
            [
              99.886,
              18.282
            ],
            [
              99.88,
              18.283
            ],
            [
              99.852,
              18.258
            ],
            [
              99.849,
              18.25
            ],
            [
              99.801,
              18.212
            ],
            [
              99.756,
              18.144
            ],
            [
              99.756,
              18.121
            ],
            [
              99.723,
              18.075
            ],
            [
              99.69,
              18.065
            ],
            [
              99.682,
              18.046
            ],
            [
              99.656,
              18.04
            ],
            [
              99.636,
              18.062
            ],
            [
              99.61,
              18.049
            ],
            [
              99.585,
              18.036
            ],
            [
              99.595,
              18.011
            ],
            [
              99.571,
              17.994
            ],
            [
              99.547,
              17.972
            ],
            [
              99.539,
              17.964
            ],
            [
              99.484,
              17.918
            ],
            [
              99.472,
              17.893
            ],
            [
              99.459,
              17.883
            ],
            [
              99.448,
              17.869
            ],
            [
              99.393,
              17.815
            ],
            [
              99.38,
              17.766
            ],
            [
              99.386,
              17.741
            ],
            [
              99.382,
              17.73
            ],
            [
              99.38,
              17.706
            ],
            [
              99.387,
              17.69
            ],
            [
              99.353,
              17.658
            ],
            [
              99.338,
              17.635
            ],
            [
              99.329,
              17.636
            ],
            [
              99.298,
              17.603
            ],
            [
              99.275,
              17.57
            ],
            [
              99.236,
              17.542
            ],
            [
              99.233,
              17.5
            ],
            [
              99.233,
              17.499
            ],
            [
              99.252,
              17.483
            ],
            [
              99.244,
              17.449
            ],
            [
              99.253,
              17.429
            ],
            [
              99.268,
              17.413
            ],
            [
              99.274,
              17.403
            ],
            [
              99.274,
              17.347
            ],
            [
              99.298,
              17.291
            ],
            [
              99.298,
              17.287
            ],
            [
              99.321,
              17.247
            ],
            [
              99.319,
              17.215
            ],
            [
              99.318,
              17.215
            ],
            [
              99.319,
              17.215
            ],
            [
              99.318,
              17.215
            ],
            [
              99.315,
              17.193
            ],
            [
              99.318,
              17.154
            ],
            [
              99.323,
              17.086
            ],
            [
              99.324,
              17.012
            ],
            [
              99.34,
              16.994
            ],
            [
              99.346,
              16.984
            ],
            [
              99.351,
              16.964
            ],
            [
              99.354,
              16.945
            ],
            [
              99.389,
              16.904
            ],
            [
              99.429,
              16.876
            ],
            [
              99.457,
              16.873
            ],
            [
              99.488,
              16.863
            ],
            [
              99.525,
              16.831
            ],
            [
              99.496,
              16.787
            ],
            [
              99.485,
              16.762
            ],
            [
              99.507,
              16.736
            ],
            [
              99.493,
              16.705
            ],
            [
              99.493,
              16.701
            ],
            [
              99.5,
              16.67
            ],
            [
              99.491,
              16.64
            ],
            [
              99.507,
              16.599
            ],
            [
              99.51,
              16.541
            ],
            [
              99.55,
              16.474
            ],
            [
              99.66,
              16.492
            ],
            [
              99.67,
              16.523
            ],
            [
              99.713,
              16.488
            ],
            [
              99.738,
              16.483
            ],
            [
              99.787,
              16.449
            ],
            [
              99.832,
              16.433
            ],
            [
              99.854,
              16.371
            ],
            [
              99.895,
              16.325
            ],
            [
              99.943,
              16.24
            ],
            [
              100.036,
              16.213
            ],
            [
              100.063,
              16.177
            ],
            [
              100.092,
              16.17
            ],
            [
              100.105,
              16.147
            ],
            [
              100.16,
              16.105
            ],
            [
              100.209,
              16.077
            ],
            [
              100.216,
              16.05
            ],
            [
              100.263,
              16.018
            ],
            [
              100.252,
              15.992
            ],
            [
              100.258,
              15.964
            ],
            [
              100.249,
              15.943
            ],
            [
              100.263,
              15.933
            ],
            [
              100.243,
              15.908
            ],
            [
              100.264,
              15.889
            ],
            [
              100.281,
              15.924
            ],
            [
              100.252,
              15.944
            ],
            [
              100.274,
              15.978
            ],
            [
              100.278,
              16.024
            ],
            [
              100.295,
              16.054
            ],
            [
              100.345,
              16.072
            ],
            [
              100.328,
              16.113
            ],
            [
              100.291,
              16.161
            ],
            [
              100.295,
              16.205
            ],
            [
              100.315,
              16.244
            ],
            [
              100.292,
              16.264
            ],
            [
              100.294,
              16.289
            ],
            [
              100.319,
              16.301
            ],
            [
              100.32,
              16.363
            ],
            [
              100.292,
              16.424
            ],
            [
              100.32,
              16.445
            ],
            [
              100.268,
              16.495
            ],
            [
              100.235,
              16.575
            ],
            [
              100.249,
              16.625
            ],
            [
              100.232,
              16.655
            ],
            [
              100.262,
              16.698
            ],
            [
              100.195,
              16.777
            ],
            [
              100.248,
              16.83
            ],
            [
              100.238,
              16.867
            ],
            [
              100.214,
              16.893
            ],
            [
              100.196,
              16.954
            ],
            [
              100.197,
              16.982
            ],
            [
              100.161,
              17.05
            ],
            [
              100.168,
              17.073
            ],
            [
              100.129,
              17.113
            ],
            [
              100.101,
              17.124
            ],
            [
              100.065,
              17.172
            ],
            [
              100.06,
              17.201
            ],
            [
              100.028,
              17.223
            ],
            [
              100.026,
              17.265
            ],
            [
              100.007,
              17.341
            ],
            [
              100.008,
              17.383
            ],
            [
              99.99,
              17.401
            ],
            [
              100.002,
              17.456
            ],
            [
              99.981,
              17.487
            ],
            [
              99.941,
              17.509
            ],
            [
              99.882,
              17.439
            ],
            [
              99.86,
              17.454
            ],
            [
              99.856,
              17.49
            ],
            [
              99.881,
              17.506
            ],
            [
              99.866,
              17.588
            ],
            [
              99.887,
              17.607
            ],
            [
              99.903,
              17.596
            ],
            [
              99.909,
              17.594
            ],
            [
              99.925,
              17.588
            ],
            [
              99.935,
              17.59
            ],
            [
              99.972,
              17.623
            ],
            [
              99.974,
              17.674
            ],
            [
              99.963,
              17.712
            ],
            [
              99.93,
              17.752
            ],
            [
              99.949,
              17.762
            ],
            [
              99.963,
              17.798
            ],
            [
              99.989,
              17.807
            ],
            [
              99.997,
              17.832
            ],
            [
              100.03,
              17.841
            ],
            [
              100.047,
              17.847
            ],
            [
              100.053,
              17.839
            ],
            [
              100.07,
              17.84
            ],
            [
              100.139,
              17.863
            ],
            [
              100.194,
              17.905
            ],
            [
              100.226,
              17.948
            ],
            [
              100.297,
              17.967
            ],
            [
              100.308,
              17.974
            ],
            [
              100.356,
              17.985
            ],
            [
              100.393,
              18.021
            ],
            [
              100.417,
              18.03
            ],
            [
              100.392,
              18.119
            ],
            [
              100.414,
              18.152
            ],
            [
              100.441,
              18.153
            ],
            [
              100.46,
              18.194
            ],
            [
              100.454,
              18.212
            ],
            [
              100.493,
              18.283
            ],
            [
              100.483,
              18.343
            ],
            [
              100.506,
              18.362
            ],
            [
              100.518,
              18.393
            ],
            [
              100.551,
              18.419
            ],
            [
              100.55,
              18.452
            ],
            [
              100.543,
              18.486
            ],
            [
              100.519,
              18.477
            ],
            [
              100.519,
              18.476
            ],
            [
              100.519,
              18.477
            ],
            [
              100.519,
              18.476
            ],
            [
              100.477,
              18.491
            ],
            [
              100.46,
              18.491
            ],
            [
              100.454,
              18.495
            ],
            [
              100.399,
              18.486
            ],
            [
              100.387,
              18.513
            ],
            [
              100.396,
              18.527
            ],
            [
              100.376,
              18.579
            ],
            [
              100.392,
              18.634
            ],
            [
              100.36,
              18.655
            ],
            [
              100.356,
              18.673
            ],
            [
              100.354,
              18.677
            ],
            [
              100.364,
              18.708
            ],
            [
              100.391,
              18.74
            ],
            [
              100.452,
              18.746
            ],
            [
              100.493,
              18.735
            ],
            [
              100.509,
              18.814
            ],
            [
              100.532,
              18.842
            ],
            [
              100.529,
              18.874
            ],
            [
              100.528,
              18.874
            ],
            [
              100.529,
              18.874
            ],
            [
              100.527,
              18.899
            ],
            [
              100.519,
              18.928
            ],
            [
              100.543,
              18.962
            ],
            [
              100.528,
              19.014
            ],
            [
              100.533,
              19.041
            ],
            [
              100.599,
              19.024
            ],
            [
              100.634,
              19.062
            ],
            [
              100.655,
              19.058
            ],
            [
              100.68,
              19.093
            ],
            [
              100.641,
              19.133
            ],
            [
              100.64,
              19.141
            ],
            [
              100.618,
              19.182
            ],
            [
              100.617,
              19.227
            ],
            [
              100.6,
              19.252
            ],
            [
              100.611,
              19.288
            ],
            [
              100.616,
              19.323
            ],
            [
              100.591,
              19.326
            ],
            [
              100.591,
              19.323
            ],
            [
              100.586,
              19.315
            ],
            [
              100.558,
              19.322
            ],
            [
              100.569,
              19.341
            ],
            [
              100.54,
              19.416
            ],
            [
              100.469,
              19.4
            ],
            [
              100.415,
              19.4
            ],
            [
              100.408,
              19.398
            ],
            [
              100.399,
              19.396
            ],
            [
              100.387,
              19.394
            ],
            [
              100.39,
              19.387
            ],
            [
              100.367,
              19.389
            ],
            [
              100.348,
              19.358
            ],
            [
              100.326,
              19.368
            ],
            [
              100.298,
              19.34
            ],
            [
              100.277,
              19.333
            ],
            [
              100.242,
              19.349
            ],
            [
              100.228,
              19.336
            ],
            [
              100.26,
              19.288
            ],
            [
              100.247,
              19.259
            ],
            [
              100.229,
              19.266
            ],
            [
              100.219,
              19.246
            ],
            [
              100.142,
              19.201
            ],
            [
              100.132,
              19.172
            ],
            [
              100.113,
              19.142
            ],
            [
              100.107,
              19.072
            ],
            [
              100.118,
              19.064
            ],
            [
              100.106,
              19.017
            ],
            [
              100.113,
              18.999
            ],
            [
              100.123,
              18.959
            ],
            [
              100.12,
              18.936
            ],
            [
              100.078,
              18.935
            ],
            [
              100.073,
              18.934
            ],
            [
              100.058,
              18.929
            ],
            [
              100.034,
              18.9
            ],
            [
              100.017,
              18.896
            ],
            [
              100.016,
              18.896
            ],
            [
              100.017,
              18.896
            ],
            [
              100.016,
              18.896
            ],
            [
              99.971,
              18.923
            ],
            [
              99.94,
              18.96
            ],
            [
              99.941,
              18.96
            ],
            [
              99.94,
              18.96
            ],
            [
              99.904,
              18.986
            ],
            [
              99.89,
              18.988
            ],
            [
              99.862,
              18.999
            ],
            [
              99.836,
              19.004
            ],
            [
              99.82,
              19.059
            ],
            [
              99.774,
              19.064
            ]
          ]
        ]
      }
    }
  ]
}