{
  "type": "FeatureCollection",
  "features": [
    {
      "type": "Feature",
      "properties": {
        "basin_slug": "ping",
        "basin_name_th": "ลุ่มน้ำปิง",
        "source": "ThaiWater (HII Official)",
        "min_lat": 15.701,
        "max_lat": 19.801,
        "min_lon": 98.072,
        "max_lon": 100.15
      },
      "geometry": {
        "type": "Polygon",
        "coordinates": [
          [
            [
              99.402,
              19.0
            ],
            [
              99.382,
              19.05
            ],
            [
              99.365,
              19.08
            ],
            [
              99.324,
              19.106
            ],
            [
              99.319,
              19.166
            ],
            [
              99.305,
              19.191
            ],
            [
              99.342,
              19.268
            ],
            [
              99.337,
              19.294
            ],
            [
              99.338,
              19.298
            ],
            [
              99.328,
              19.319
            ],
            [
              99.323,
              19.335
            ],
            [
              99.323,
              19.358
            ],
            [
              99.331,
              19.369
            ],
            [
              99.315,
              19.417
            ],
            [
              99.315,
              19.418
            ],
            [
              99.315,
              19.417
            ],
            [
              99.315,
              19.418
            ],
            [
              99.314,
              19.446
            ],
            [
              99.305,
              19.489
            ],
            [
              99.308,
              19.52
            ],
            [
              99.305,
              19.534
            ],
            [
              99.291,
              19.546
            ],
            [
              99.265,
              19.569
            ],
            [
              99.231,
              19.549
            ],
            [
              99.202,
              19.535
            ],
            [
              99.188,
              19.543
            ],
            [
              99.174,
              19.561
            ],
            [
              99.168,
              19.575
            ],
            [
              99.155,
              19.581
            ],
            [
              99.143,
              19.575
            ],
            [
              99.121,
              19.585
            ],
            [
              99.09,
              19.632
            ],
            [
              99.09,
              19.633
            ],
            [
              99.079,
              19.649
            ],
            [
              99.078,
              19.654
            ],
            [
              99.078,
              19.656
            ],
            [
              99.078,
              19.657
            ],
            [
              99.041,
              19.682
            ],
            [
              99.033,
              19.688
            ],
            [
              99.032,
              19.683
            ],
            [
              99.029,
              19.675
            ],
            [
              99.016,
              19.677
            ],
            [
              99.015,
              19.685
            ],
            [
              98.976,
              19.681
            ],
            [
              98.97,
              19.688
            ],
            [
              98.955,
              19.673
            ],
            [
              98.912,
              19.693
            ],
            [
              98.916,
              19.71
            ],
            [
              98.91,
              19.712
            ],
            [
              98.926,
              19.768
            ],
            [
              98.91,
              19.762
            ],
            [
              98.85,
              19.801
            ],
            [
              98.795,
              19.772
            ],
            [
              98.781,
              19.753
            ],
            [
              98.75,
              19.76
            ],
            [
              98.664,
              19.748
            ],
            [
              98.607,
              19.709
            ],
            [
              98.538,
              19.689
            ],
            [
              98.518,
              19.716
            ],
            [
              98.467,
              19.693
            ],
            [
              98.467,
              19.692
            ],
            [
              98.47,
              19.667
            ],
            [
              98.517,
              19.626
            ],
            [
              98.538,
              19.585
            ],
            [
              98.563,
              19.55
            ],
            [
              98.564,
              19.515
            ],
            [
              98.584,
              19.507
            ],
            [
              98.591,
              19.458
            ],
            [
              98.588,
              19.432
            ],
            [
              98.596,
              19.406
            ],
            [
              98.574,
              19.391
            ],
            [
              98.602,
              19.308
            ],
            [
              98.592,
              19.267
            ],
            [
              98.591,
              19.267
            ],
            [
              98.592,
              19.267
            ],
            [
              98.591,
              19.267
            ],
            [
              98.59,
              19.259
            ],
            [
              98.596,
              19.228
            ],
            [
              98.574,
              19.217
            ],
            [
              98.601,
              19.183
            ],
            [
              98.608,
              19.175
            ],
            [
              98.62,
              19.169
            ],
            [
              98.624,
              19.157
            ],
            [
              98.629,
              19.157
            ],
            [
              98.634,
              19.155
            ],
            [
              98.641,
              19.127
            ],
            [
              98.641,
              19.124
            ],
            [
              98.642,
              19.122
            ],
            [
              98.652,
              19.096
            ],
            [
              98.622,
              19.058
            ],
            [
              98.566,
              19.046
            ],
            [
              98.537,
              19.026
            ],
            [
              98.516,
              19.033
            ],
            [
              98.449,
              19.047
            ],
            [
              98.422,
              19.028
            ],
            [
              98.416,
              19.036
            ],
            [
              98.385,
              19.061
            ],
            [
              98.371,
              19.085
            ],
            [
              98.366,
              19.088
            ],
            [
              98.364,
              19.088
            ],
            [
              98.349,
              19.132
            ],
            [
              98.34,
              19.142
            ],
            [
              98.341,
              19.151
            ],
            [
              98.242,
              19.154
            ],
            [
              98.251,
              19.109
            ],
            [
              98.24,
              19.098
            ],
            [
              98.184,
              19.029
            ],
            [
              98.164,
              18.981
            ],
            [
              98.167,
              18.941
            ],
            [
              98.165,
              18.939
            ],
            [
              98.157,
              18.933
            ],
            [
              98.146,
              18.916
            ],
            [
              98.122,
              18.903
            ],
            [
              98.089,
              18.855
            ],
            [
              98.081,
              18.82
            ],
            [
              98.093,
              18.777
            ],
            [
              98.119,
              18.765
            ],
            [
              98.118,
              18.756
            ],
            [
              98.099,
              18.742
            ],
            [
              98.109,
              18.662
            ],
            [
              98.105,
              18.649
            ],
            [
              98.118,
              18.634
            ],
            [
              98.161,
              18.629
            ],
            [
              98.21,
              18.608
            ],
            [
              98.235,
              18.577
            ],
            [
              98.232,
              18.557
            ],
            [
              98.17,
              18.525
            ],
            [
              98.14,
              18.509
            ],
            [
              98.119,
              18.497
            ],
            [
              98.105,
              18.457
            ],
            [
              98.082,
              18.444
            ],
            [
              98.079,
              18.412
            ],
            [
              98.072,
              18.358
            ],
            [
              98.093,
              18.351
            ],
            [
              98.121,
              18.312
            ],
            [
              98.138,
              18.274
            ],
            [
              98.137,
              18.259
            ],
            [
              98.161,
              18.222
            ],
            [
              98.195,
              18.252
            ],
            [
              98.212,
              18.243
            ],
            [
              98.221,
              18.206
            ],
            [
              98.221,
              18.205
            ],
            [
              98.221,
              18.206
            ],
            [
              98.221,
              18.205
            ],
            [
              98.258,
              18.18
            ],
            [
              98.318,
              18.164
            ],
            [
              98.336,
              18.139
            ],
            [
              98.373,
              18.138
            ],
            [
              98.366,
              18.082
            ],
            [
              98.367,
              18.078
            ],
            [
              98.362,
              18.056
            ],
            [
              98.368,
              18.044
            ],
            [
              98.375,
              18.036
            ],
            [
              98.376,
              18.032
            ],
            [
              98.372,
              18.027
            ],
            [
              98.358,
              18.028
            ],
            [
              98.327,
              18.009
            ],
            [
              98.315,
              17.996
            ],
            [
              98.3,
              17.944
            ],
            [
              98.31,
              17.916
            ],
            [
              98.297,
              17.891
            ],
            [
              98.27,
              17.887
            ],
            [
              98.254,
              17.88
            ],
            [
              98.252,
              17.879
            ],
            [
              98.246,
              17.879
            ],
            [
              98.238,
              17.833
            ],
            [
              98.239,
              17.833
            ],
            [
              98.238,
              17.833
            ],
            [
              98.239,
              17.833
            ],
            [
              98.217,
              17.797
            ],
            [
              98.22,
              17.789
            ],
            [
              98.199,
              17.775
            ],
            [
              98.23,
              17.719
            ],
            [
              98.269,
              17.706
            ],
            [
              98.282,
              17.679
            ],
            [
              98.252,
              17.67
            ],
            [
              98.244,
              17.629
            ],
            [
              98.251,
              17.576
            ],
            [
              98.284,
              17.576
            ],
            [
              98.292,
              17.575
            ],
            [
              98.314,
              17.527
            ],
            [
              98.328,
              17.488
            ],
            [
              98.323,
              17.42
            ],
            [
              98.306,
              17.411
            ],
            [
              98.309,
              17.387
            ],
            [
              98.317,
              17.368
            ],
            [
              98.332,
              17.33
            ],
            [
              98.323,
              17.309
            ],
            [
              98.358,
              17.274
            ],
            [
              98.42,
              17.211
            ],
            [
              98.439,
              17.198
            ],
            [
              98.457,
              17.19
            ],
            [
              98.479,
              17.164
            ],
            [
              98.533,
              17.133
            ],
            [
              98.546,
              17.115
            ],
            [
              98.583,
              17.108
            ],
            [
              98.59,
              17.1
            ],
            [
              98.631,
              17.072
            ],
            [
              98.671,
              17.066
            ],
            [
              98.714,
              17.045
            ],
            [
              98.742,
              17.017
            ],
            [
              98.768,
              16.972
            ],
            [
              98.814,
              16.941
            ],
            [
              98.835,
              16.911
            ],
            [
              98.829,
              16.866
            ],
            [
              98.844,
              16.845
            ],
            [
              98.868,
              16.837
            ],
            [
              98.882,
              16.807
            ],
            [
              98.884,
              16.802
            ],
            [
              98.911,
              16.79
            ],
            [
              98.926,
              16.768
            ],
            [
              98.931,
              16.768
            ],
            [
              98.97,
              16.723
            ],
            [
              98.999,
              16.699
            ],
            [
              98.999,
              16.698
            ],
            [
              99.018,
              16.628
            ],
            [
              99.037,
              16.594
            ],
            [
              99.026,
              16.564
            ],
            [
              99.025,
              16.498
            ],
            [
              98.987,
              16.496
            ],
            [
              98.99,
              16.468
            ],
            [
              98.991,
              16.468
            ],
            [
              98.99,
              16.468
            ],
            [
              98.991,
              16.468
            ],
            [
              99.006,
              16.451
            ],
            [
              99.006,
              16.45
            ],
            [
              99.006,
              16.451
            ],
            [
              99.006,
              16.45
            ],
            [
              99.022,
              16.432
            ],
            [
              99.024,
              16.382
            ],
            [
              99.038,
              16.382
            ],
            [
              99.052,
              16.334
            ],
            [
              99.042,
              16.293
            ],
            [
              99.048,
              16.26
            ],
            [
              99.068,
              16.234
            ],
            [
              99.072,
              16.229
            ],
            [
              99.08,
              16.218
            ],
            [
              99.068,
              16.165
            ],
            [
              99.052,
              16.156
            ],
            [
              99.106,
              16.102
            ],
            [
              99.108,
              16.086
            ],
            [
              99.125,
              16.095
            ],
            [
              99.172,
              16.057
            ],
            [
              99.202,
              16.048
            ],
            [
              99.251,
              15.966
            ],
            [
              99.259,
              15.984
            ],
            [
              99.313,
              15.99
            ],
            [
              99.314,
              15.971
            ],
            [
              99.347,
              15.95
            ],
            [
              99.359,
              15.945
            ],
            [
              99.384,
              15.946
            ],
            [
              99.399,
              15.958
            ],
            [
              99.408,
              15.969
            ],
            [
              99.414,
              15.979
            ],
            [
              99.43,
              15.981
            ],
            [
              99.466,
              16.015
            ],
            [
              99.489,
              16.04
            ],
            [
              99.518,
              16.109
            ],
            [
              99.553,
              16.117
            ],
            [
              99.627,
              16.11
            ],
            [
              99.661,
              16.085
            ],
            [
              99.738,
              16.062
            ],
            [
              99.776,
              16.028
            ],
            [
              99.803,
              16.025
            ],
            [
              99.823,
              15.998
            ],
            [
              99.876,
              15.972
            ],
            [
              99.945,
              15.91
            ],
            [
              99.998,
              15.912
            ],
            [
              100.052,
              15.871
            ],
            [
              100.051,
              15.804
            ],
            [
              100.088,
              15.768
            ],
            [
              100.08,
              15.756
            ],
            [
              100.142,
              15.701
            ],
            [
              100.15,
              15.738
            ],
            [
              100.121,
              15.776
            ],
            [
              100.119,
              15.776
            ],
            [
              100.113,
              15.809
            ],
            [
              100.118,
              15.927
            ],
            [
              100.078,
              15.944
            ],
            [
              100.012,
              15.995
            ],
            [
              99.97,
              16.041
            ],
            [
              99.918,
              16.078
            ],
            [
              99.899,
              16.124
            ],
            [
              99.803,
              16.163
            ],
            [
              99.768,
              16.203
            ],
            [
              99.728,
              16.22
            ],
            [
              99.693,
              16.302
            ],
            [
              99.646,
              16.373
            ],
            [
              99.651,
              16.407
            ],
            [
              99.603,
              16.45
            ],
            [
              99.55,
              16.474
            ],
            [
              99.51,
              16.541
            ],
            [
              99.507,
              16.599
            ],
            [
              99.491,
              16.64
            ],
            [
              99.5,
              16.67
            ],
            [
              99.493,
              16.701
            ],
            [
              99.493,
              16.705
            ],
            [
              99.507,
              16.736
            ],
            [
              99.485,
              16.762
            ],
            [
              99.496,
              16.787
            ],
            [
              99.525,
              16.831
            ],
            [
              99.488,
              16.863
            ],
            [
              99.457,
              16.873
            ],
            [
              99.429,
              16.876
            ],
            [
              99.389,
              16.904
            ],
            [
              99.354,
              16.945
            ],
            [
              99.351,
              16.964
            ],
            [
              99.346,
              16.984
            ],
            [
              99.34,
              16.994
            ],
            [
              99.324,
              17.012
            ],
            [
              99.323,
              17.086
            ],
            [
              99.318,
              17.154
            ],
            [
              99.315,
              17.193
            ],
            [
              99.318,
              17.215
            ],
            [
              99.319,
              17.215
            ],
            [
              99.318,
              17.215
            ],
            [
              99.319,
              17.215
            ],
            [
              99.321,
              17.247
            ],
            [
              99.298,
              17.287
            ],
            [
              99.284,
              17.281
            ],
            [
              99.261,
              17.215
            ],
            [
              99.214,
              17.156
            ],
            [
              99.199,
              17.147
            ],
            [
              99.199,
              17.144
            ],
            [
              99.199,
              17.14
            ],
            [
              99.169,
              17.066
            ],
            [
              99.097,
              17.079
            ],
            [
              99.086,
              17.084
            ],
            [
              99.08,
              17.1
            ],
            [
              99.096,
              17.164
            ],
            [
              99.097,
              17.2
            ],
            [
              99.074,
              17.213
            ],
            [
              99.037,
              17.27
            ],
            [
              99.003,
              17.277
            ],
            [
              98.974,
              17.304
            ],
            [
              98.962,
              17.346
            ],
            [
              98.973,
              17.362
            ],
            [
              98.942,
              17.404
            ],
            [
              98.954,
              17.435
            ],
            [
              98.954,
              17.44
            ],
            [
              98.945,
              17.456
            ],
            [
              98.944,
              17.456
            ],
            [
              98.945,
              17.456
            ],
            [
              98.944,
              17.456
            ],
            [
              98.93,
              17.486
            ],
            [
              98.925,
              17.526
            ],
            [
              98.907,
              17.547
            ],
            [
              98.905,
              17.559
            ],
            [
              98.888,
              17.59
            ],
            [
              98.889,
              17.63
            ],
            [
              98.905,
              17.648
            ],
            [
              98.999,
              17.636
            ],
            [
              99.009,
              17.623
            ],
            [
              99.026,
              17.615
            ],
            [
              99.059,
              17.627
            ],
            [
              99.065,
              17.674
            ],
            [
              99.087,
              17.706
            ],
            [
              99.124,
              17.768
            ],
            [
              99.109,
              17.816
            ],
            [
              99.136,
              17.82
            ],
            [
              99.174,
              17.815
            ],
            [
              99.17,
              17.817
            ],
            [
              99.168,
              17.83
            ],
            [
              99.184,
              17.86
            ],
            [
              99.163,
              17.886
            ],
            [
              99.133,
              17.914
            ],
            [
              99.107,
              17.922
            ],
            [
              99.111,
              17.929
            ],
            [
              99.095,
              17.954
            ],
            [
              99.1,
              17.999
            ],
            [
              99.071,
              18.076
            ],
            [
              99.065,
              18.138
            ],
            [
              99.052,
              18.166
            ],
            [
              99.018,
              18.253
            ],
            [
              99.068,
              18.272
            ],
            [
              99.116,
              18.272
            ],
            [
              99.114,
              18.289
            ],
            [
              99.123,
              18.301
            ],
            [
              99.131,
              18.313
            ],
            [
              99.169,
              18.347
            ],
            [
              99.167,
              18.373
            ],
            [
              99.19,
              18.392
            ],
            [
              99.202,
              18.426
            ],
            [
              99.234,
              18.445
            ],
            [
              99.257,
              18.493
            ],
            [
              99.309,
              18.497
            ],
            [
              99.32,
              18.512
            ],
            [
              99.333,
              18.577
            ],
            [
              99.354,
              18.614
            ],
            [
              99.328,
              18.618
            ],
            [
              99.33,
              18.647
            ],
            [
              99.327,
              18.685
            ],
            [
              99.341,
              18.716
            ],
            [
              99.348,
              18.732
            ],
            [
              99.371,
              18.753
            ],
            [
              99.353,
              18.848
            ],
            [
              99.387,
              18.874
            ],
            [
              99.388,
              18.874
            ],
            [
              99.387,
              18.874
            ],
            [
              99.388,
              18.874
            ],
            [
              99.375,
              18.959
            ],
            [
              99.381,
              18.989
            ],
            [
              99.402,
              19.0
            ]
          ]
        ]
      }
    }
  ]
}