{
  "type": "FeatureCollection",
  "features": [
    {
      "type": "Feature",
      "properties": {
        "basin_slug": "chi",
        "basin_name_th": "ลุ่มน้ำชี",
        "source": "ThaiWater (HII Official)",
        "min_lat": 15.151,
        "max_lat": 17.657,
        "min_lon": 101.259,
        "max_lon": 104.761
      },
      "geometry": {
        "type": "Polygon",
        "coordinates": [
          [
            [
              101.547,
              16.942
            ],
            [
              101.55,
              16.91
            ],
            [
              101.544,
              16.89
            ],
            [
              101.534,
              16.896
            ],
            [
              101.511,
              16.874
            ],
            [
              101.512,
              16.871
            ],
            [
              101.516,
              16.866
            ],
            [
              101.513,
              16.851
            ],
            [
              101.508,
              16.85
            ],
            [
              101.507,
              16.848
            ],
            [
              101.508,
              16.846
            ],
            [
              101.513,
              16.829
            ],
            [
              101.517,
              16.819
            ],
            [
              101.525,
              16.812
            ],
            [
              101.525,
              16.811
            ],
            [
              101.527,
              16.807
            ],
            [
              101.529,
              16.803
            ],
            [
              101.529,
              16.802
            ],
            [
              101.529,
              16.801
            ],
            [
              101.531,
              16.794
            ],
            [
              101.533,
              16.781
            ],
            [
              101.56,
              16.763
            ],
            [
              101.546,
              16.737
            ],
            [
              101.514,
              16.726
            ],
            [
              101.515,
              16.687
            ],
            [
              101.514,
              16.684
            ],
            [
              101.472,
              16.659
            ],
            [
              101.433,
              16.638
            ],
            [
              101.404,
              16.6
            ],
            [
              101.421,
              16.582
            ],
            [
              101.394,
              16.551
            ],
            [
              101.407,
              16.528
            ],
            [
              101.419,
              16.451
            ],
            [
              101.419,
              16.448
            ],
            [
              101.418,
              16.42
            ],
            [
              101.411,
              16.408
            ],
            [
              101.402,
              16.396
            ],
            [
              101.408,
              16.392
            ],
            [
              101.408,
              16.387
            ],
            [
              101.378,
              16.35
            ],
            [
              101.373,
              16.302
            ],
            [
              101.369,
              16.274
            ],
            [
              101.342,
              16.262
            ],
            [
              101.339,
              16.238
            ],
            [
              101.291,
              16.188
            ],
            [
              101.264,
              16.188
            ],
            [
              101.259,
              16.174
            ],
            [
              101.282,
              16.169
            ],
            [
              101.293,
              16.179
            ],
            [
              101.348,
              16.161
            ],
            [
              101.345,
              16.143
            ],
            [
              101.379,
              16.125
            ],
            [
              101.404,
              16.105
            ],
            [
              101.382,
              16.04
            ],
            [
              101.394,
              16.032
            ],
            [
              101.385,
              15.982
            ],
            [
              101.379,
              15.971
            ],
            [
              101.375,
              15.961
            ],
            [
              101.375,
              15.96
            ],
            [
              101.375,
              15.961
            ],
            [
              101.375,
              15.96
            ],
            [
              101.365,
              15.934
            ],
            [
              101.362,
              15.925
            ],
            [
              101.361,
              15.9
            ],
            [
              101.356,
              15.894
            ],
            [
              101.351,
              15.888
            ],
            [
              101.332,
              15.883
            ],
            [
              101.326,
              15.818
            ],
            [
              101.326,
              15.812
            ],
            [
              101.334,
              15.771
            ],
            [
              101.346,
              15.752
            ],
            [
              101.403,
              15.734
            ],
            [
              101.391,
              15.657
            ],
            [
              101.376,
              15.607
            ],
            [
              101.373,
              15.549
            ],
            [
              101.385,
              15.488
            ],
            [
              101.415,
              15.485
            ],
            [
              101.408,
              15.456
            ],
            [
              101.435,
              15.421
            ],
            [
              101.431,
              15.373
            ],
            [
              101.459,
              15.355
            ],
            [
              101.464,
              15.337
            ],
            [
              101.513,
              15.338
            ],
            [
              101.525,
              15.312
            ],
            [
              101.585,
              15.318
            ],
            [
              101.627,
              15.347
            ],
            [
              101.649,
              15.379
            ],
            [
              101.781,
              15.387
            ],
            [
              101.791,
              15.398
            ],
            [
              101.902,
              15.408
            ],
            [
              101.921,
              15.452
            ],
            [
              101.996,
              15.465
            ],
            [
              102.033,
              15.443
            ],
            [
              102.045,
              15.416
            ],
            [
              102.148,
              15.439
            ],
            [
              102.205,
              15.497
            ],
            [
              102.214,
              15.531
            ],
            [
              102.269,
              15.559
            ],
            [
              102.259,
              15.633
            ],
            [
              102.298,
              15.643
            ],
            [
              102.322,
              15.686
            ],
            [
              102.413,
              15.684
            ],
            [
              102.441,
              15.715
            ],
            [
              102.479,
              15.724
            ],
            [
              102.48,
              15.724
            ],
            [
              102.479,
              15.724
            ],
            [
              102.48,
              15.724
            ],
            [
              102.514,
              15.841
            ],
            [
              102.564,
              15.863
            ],
            [
              102.577,
              15.898
            ],
            [
              102.61,
              15.911
            ],
            [
              102.678,
              15.899
            ],
            [
              102.736,
              15.902
            ],
            [
              102.754,
              15.925
            ],
            [
              102.826,
              15.94
            ],
            [
              102.841,
              15.934
            ],
            [
              102.866,
              15.971
            ],
            [
              102.923,
              16.006
            ],
            [
              102.969,
              16.009
            ],
            [
              102.993,
              15.997
            ],
            [
              102.992,
              15.987
            ],
            [
              103.038,
              15.978
            ],
            [
              103.064,
              15.99
            ],
            [
              103.086,
              16.026
            ],
            [
              103.086,
              16.049
            ],
            [
              103.123,
              16.066
            ],
            [
              103.151,
              16.039
            ],
            [
              103.176,
              15.996
            ],
            [
              103.237,
              15.99
            ],
            [
              103.275,
              15.965
            ],
            [
              103.343,
              15.984
            ],
            [
              103.407,
              15.979
            ],
            [
              103.449,
              15.948
            ],
            [
              103.474,
              15.944
            ],
            [
              103.485,
              15.914
            ],
            [
              103.536,
              15.909
            ],
            [
              103.594,
              15.877
            ],
            [
              103.611,
              15.857
            ],
            [
              103.664,
              15.851
            ],
            [
              103.742,
              15.812
            ],
            [
              103.77,
              15.767
            ],
            [
              103.811,
              15.784
            ],
            [
              103.813,
              15.736
            ],
            [
              103.835,
              15.725
            ],
            [
              103.886,
              15.733
            ],
            [
              103.914,
              15.698
            ],
            [
              103.947,
              15.71
            ],
            [
              103.984,
              15.756
            ],
            [
              104.027,
              15.76
            ],
            [
              104.058,
              15.726
            ],
            [
              104.065,
              15.703
            ],
            [
              104.11,
              15.677
            ],
            [
              104.144,
              15.623
            ],
            [
              104.137,
              15.587
            ],
            [
              104.163,
              15.556
            ],
            [
              104.194,
              15.55
            ],
            [
              104.211,
              15.514
            ],
            [
              104.216,
              15.468
            ],
            [
              104.192,
              15.455
            ],
            [
              104.165,
              15.398
            ],
            [
              104.208,
              15.341
            ],
            [
              104.241,
              15.337
            ],
            [
              104.294,
              15.313
            ],
            [
              104.345,
              15.315
            ],
            [
              104.375,
              15.287
            ],
            [
              104.398,
              15.296
            ],
            [
              104.484,
              15.259
            ],
            [
              104.521,
              15.193
            ],
            [
              104.612,
              15.175
            ],
            [
              104.685,
              15.151
            ],
            [
              104.703,
              15.183
            ],
            [
              104.723,
              15.185
            ],
            [
              104.761,
              15.22
            ],
            [
              104.731,
              15.247
            ],
            [
              104.674,
              15.251
            ],
            [
              104.679,
              15.28
            ],
            [
              104.659,
              15.29
            ],
            [
              104.67,
              15.332
            ],
            [
              104.64,
              15.341
            ],
            [
              104.625,
              15.411
            ],
            [
              104.601,
              15.434
            ],
            [
              104.549,
              15.461
            ],
            [
              104.534,
              15.496
            ],
            [
              104.497,
              15.487
            ],
            [
              104.456,
              15.51
            ],
            [
              104.413,
              15.514
            ],
            [
              104.38,
              15.581
            ],
            [
              104.338,
              15.601
            ],
            [
              104.289,
              15.671
            ],
            [
              104.305,
              15.706
            ],
            [
              104.253,
              15.737
            ],
            [
              104.212,
              15.736
            ],
            [
              104.201,
              15.765
            ],
            [
              104.222,
              15.795
            ],
            [
              104.287,
              15.807
            ],
            [
              104.299,
              15.837
            ],
            [
              104.275,
              15.896
            ],
            [
              104.256,
              15.906
            ],
            [
              104.255,
              15.979
            ],
            [
              104.234,
              15.992
            ],
            [
              104.261,
              16.076
            ],
            [
              104.245,
              16.093
            ],
            [
              104.27,
              16.118
            ],
            [
              104.269,
              16.143
            ],
            [
              104.292,
              16.191
            ],
            [
              104.276,
              16.225
            ],
            [
              104.295,
              16.242
            ],
            [
              104.288,
              16.279
            ],
            [
              104.3,
              16.295
            ],
            [
              104.301,
              16.295
            ],
            [
              104.331,
              16.341
            ],
            [
              104.314,
              16.395
            ],
            [
              104.312,
              16.452
            ],
            [
              104.274,
              16.497
            ],
            [
              104.236,
              16.507
            ],
            [
              104.246,
              16.533
            ],
            [
              104.217,
              16.562
            ],
            [
              104.205,
              16.595
            ],
            [
              104.185,
              16.598
            ],
            [
              104.174,
              16.611
            ],
            [
              104.194,
              16.66
            ],
            [
              104.168,
              16.675
            ],
            [
              104.165,
              16.7
            ],
            [
              104.133,
              16.733
            ],
            [
              104.085,
              16.809
            ],
            [
              104.05,
              16.843
            ],
            [
              104.03,
              16.857
            ],
            [
              103.997,
              16.836
            ],
            [
              103.955,
              16.819
            ],
            [
              103.933,
              16.785
            ],
            [
              103.872,
              16.831
            ],
            [
              103.846,
              16.839
            ],
            [
              103.839,
              16.866
            ],
            [
              103.79,
              16.888
            ],
            [
              103.78,
              16.951
            ],
            [
              103.758,
              16.961
            ],
            [
              103.723,
              16.994
            ],
            [
              103.711,
              17.02
            ],
            [
              103.695,
              17.034
            ],
            [
              103.685,
              17.029
            ],
            [
              103.683,
              17.03
            ],
            [
              103.674,
              17.027
            ],
            [
              103.654,
              17.074
            ],
            [
              103.667,
              17.106
            ],
            [
              103.599,
              17.171
            ],
            [
              103.569,
              17.158
            ],
            [
              103.479,
              17.218
            ],
            [
              103.428,
              17.203
            ],
            [
              103.395,
              17.173
            ],
            [
              103.375,
              17.19
            ],
            [
              103.3,
              17.201
            ],
            [
              103.268,
              17.238
            ],
            [
              103.256,
              17.276
            ],
            [
              103.208,
              17.302
            ],
            [
              103.144,
              17.305
            ],
            [
              103.049,
              17.265
            ],
            [
              103.015,
              17.272
            ],
            [
              102.957,
              17.27
            ],
            [
              102.916,
              17.301
            ],
            [
              102.894,
              17.281
            ],
            [
              102.84,
              17.28
            ],
            [
              102.83,
              17.265
            ],
            [
              102.763,
              17.23
            ],
            [
              102.728,
              17.23
            ],
            [
              102.705,
              17.245
            ],
            [
              102.671,
              17.214
            ],
            [
              102.64,
              17.201
            ],
            [
              102.632,
              17.167
            ],
            [
              102.68,
              17.144
            ],
            [
              102.681,
              17.144
            ],
            [
              102.702,
              17.096
            ],
            [
              102.699,
              17.074
            ],
            [
              102.679,
              17.052
            ],
            [
              102.671,
              16.994
            ],
            [
              102.647,
              17.001
            ],
            [
              102.646,
              17.002
            ],
            [
              102.549,
              17.062
            ],
            [
              102.517,
              17.106
            ],
            [
              102.504,
              17.148
            ],
            [
              102.476,
              17.2
            ],
            [
              102.48,
              17.243
            ],
            [
              102.458,
              17.255
            ],
            [
              102.441,
              17.305
            ],
            [
              102.395,
              17.304
            ],
            [
              102.349,
              17.268
            ],
            [
              102.269,
              17.317
            ],
            [
              102.238,
              17.309
            ],
            [
              102.178,
              17.358
            ],
            [
              102.187,
              17.396
            ],
            [
              102.17,
              17.418
            ],
            [
              102.166,
              17.42
            ],
            [
              102.162,
              17.414
            ],
            [
              102.15,
              17.421
            ],
            [
              102.135,
              17.445
            ],
            [
              102.092,
              17.44
            ],
            [
              102.051,
              17.465
            ],
            [
              102.051,
              17.478
            ],
            [
              102.047,
              17.487
            ],
            [
              102.047,
              17.488
            ],
            [
              102.047,
              17.487
            ],
            [
              102.047,
              17.488
            ],
            [
              102.047,
              17.49
            ],
            [
              102.049,
              17.492
            ],
            [
              102.071,
              17.513
            ],
            [
              102.065,
              17.541
            ],
            [
              102.05,
              17.558
            ],
            [
              102.051,
              17.586
            ],
            [
              102.041,
              17.623
            ],
            [
              102.038,
              17.639
            ],
            [
              102.032,
              17.639
            ],
            [
              102.006,
              17.648
            ],
            [
              101.971,
              17.657
            ],
            [
              101.965,
              17.648
            ],
            [
              101.97,
              17.641
            ],
            [
              101.972,
              17.628
            ],
            [
              101.971,
              17.616
            ],
            [
              101.976,
              17.614
            ],
            [
              101.978,
              17.615
            ],
            [
              101.976,
              17.614
            ],
            [
              101.97,
              17.606
            ],
            [
              101.964,
              17.577
            ],
            [
              101.941,
              17.524
            ],
            [
              101.944,
              17.487
            ],
            [
              101.975,
              17.416
            ],
            [
              102.019,
              17.372
            ],
            [
              102.003,
              17.334
            ],
            [
              101.984,
              17.317
            ],
            [
              101.984,
              17.316
            ],
            [
              101.984,
              17.317
            ],
            [
              101.984,
              17.316
            ],
            [
              101.983,
              17.272
            ],
            [
              101.936,
              17.235
            ],
            [
              101.98,
              17.189
            ],
            [
              101.977,
              17.189
            ],
            [
              101.977,
              17.188
            ],
            [
              101.977,
              17.158
            ],
            [
              101.949,
              17.159
            ],
            [
              101.933,
              17.133
            ],
            [
              101.904,
              17.119
            ],
            [
              101.902,
              17.119
            ],
            [
              101.883,
              17.108
            ],
            [
              101.859,
              17.094
            ],
            [
              101.845,
              17.052
            ],
            [
              101.836,
              17.028
            ],
            [
              101.784,
              17.046
            ],
            [
              101.722,
              17.017
            ],
            [
              101.718,
              16.999
            ],
            [
              101.705,
              16.984
            ],
            [
              101.693,
              16.973
            ],
            [
              101.688,
              16.967
            ],
            [
              101.64,
              16.951
            ],
            [
              101.571,
              16.96
            ],
            [
              101.547,
              16.943
            ],
            [
              101.547,
              16.942
            ]
          ]
        ]
      }
    }
  ]
}