{
  "type": "FeatureCollection",
  "features": [
    {
      "type": "Feature",
      "properties": {
        "basin_slug": "nan",
        "basin_name_th": "ลุ่มน้ำน่าน",
        "source": "ThaiWater (HII Official)",
        "min_lat": 15.701,
        "max_lat": 19.635,
        "min_lon": 99.55,
        "max_lon": 101.355
      },
      "geometry": {
        "type": "Polygon",
        "coordinates": [
          [
            [
              100.597,
              19.507
            ],
            [
              100.565,
              19.436
            ],
            [
              100.54,
              19.416
            ],
            [
              100.569,
              19.341
            ],
            [
              100.558,
              19.322
            ],
            [
              100.586,
              19.315
            ],
            [
              100.591,
              19.323
            ],
            [
              100.591,
              19.326
            ],
            [
              100.616,
              19.323
            ],
            [
              100.611,
              19.288
            ],
            [
              100.6,
              19.252
            ],
            [
              100.617,
              19.227
            ],
            [
              100.618,
              19.182
            ],
            [
              100.64,
              19.141
            ],
            [
              100.641,
              19.133
            ],
            [
              100.68,
              19.093
            ],
            [
              100.655,
              19.058
            ],
            [
              100.634,
              19.062
            ],
            [
              100.599,
              19.024
            ],
            [
              100.533,
              19.041
            ],
            [
              100.528,
              19.014
            ],
            [
              100.543,
              18.962
            ],
            [
              100.519,
              18.928
            ],
            [
              100.527,
              18.899
            ],
            [
              100.529,
              18.874
            ],
            [
              100.528,
              18.874
            ],
            [
              100.529,
              18.874
            ],
            [
              100.532,
              18.842
            ],
            [
              100.509,
              18.814
            ],
            [
              100.493,
              18.735
            ],
            [
              100.452,
              18.746
            ],
            [
              100.391,
              18.74
            ],
            [
              100.364,
              18.708
            ],
            [
              100.354,
              18.677
            ],
            [
              100.356,
              18.673
            ],
            [
              100.36,
              18.655
            ],
            [
              100.392,
              18.634
            ],
            [
              100.376,
              18.579
            ],
            [
              100.396,
              18.527
            ],
            [
              100.387,
              18.513
            ],
            [
              100.399,
              18.486
            ],
            [
              100.454,
              18.495
            ],
            [
              100.46,
              18.491
            ],
            [
              100.477,
              18.491
            ],
            [
              100.519,
              18.476
            ],
            [
              100.519,
              18.477
            ],
            [
              100.519,
              18.476
            ],
            [
              100.519,
              18.477
            ],
            [
              100.543,
              18.486
            ],
            [
              100.55,
              18.452
            ],
            [
              100.551,
              18.419
            ],
            [
              100.518,
              18.393
            ],
            [
              100.506,
              18.362
            ],
            [
              100.483,
              18.343
            ],
            [
              100.493,
              18.283
            ],
            [
              100.454,
              18.212
            ],
            [
              100.46,
              18.194
            ],
            [
              100.441,
              18.153
            ],
            [
              100.414,
              18.152
            ],
            [
              100.392,
              18.119
            ],
            [
              100.417,
              18.03
            ],
            [
              100.393,
              18.021
            ],
            [
              100.356,
              17.985
            ],
            [
              100.308,
              17.974
            ],
            [
              100.297,
              17.967
            ],
            [
              100.226,
              17.948
            ],
            [
              100.194,
              17.905
            ],
            [
              100.139,
              17.863
            ],
            [
              100.07,
              17.84
            ],
            [
              100.053,
              17.839
            ],
            [
              100.047,
              17.847
            ],
            [
              100.03,
              17.841
            ],
            [
              99.997,
              17.832
            ],
            [
              99.989,
              17.807
            ],
            [
              99.963,
              17.798
            ],
            [
              99.949,
              17.762
            ],
            [
              99.93,
              17.752
            ],
            [
              99.963,
              17.712
            ],
            [
              99.974,
              17.674
            ],
            [
              99.972,
              17.623
            ],
            [
              99.935,
              17.59
            ],
            [
              99.925,
              17.588
            ],
            [
              99.909,
              17.594
            ],
            [
              99.903,
              17.596
            ],
            [
              99.887,
              17.607
            ],
            [
              99.866,
              17.588
            ],
            [
              99.881,
              17.506
            ],
            [
              99.856,
              17.49
            ],
            [
              99.86,
              17.454
            ],
            [
              99.882,
              17.439
            ],
            [
              99.941,
              17.509
            ],
            [
              99.981,
              17.487
            ],
            [
              100.002,
              17.456
            ],
            [
              99.99,
              17.401
            ],
            [
              100.008,
              17.383
            ],
            [
              100.007,
              17.341
            ],
            [
              100.026,
              17.265
            ],
            [
              100.028,
              17.223
            ],
            [
              100.06,
              17.201
            ],
            [
              100.065,
              17.172
            ],
            [
              100.101,
              17.124
            ],
            [
              100.129,
              17.113
            ],
            [
              100.168,
              17.073
            ],
            [
              100.161,
              17.05
            ],
            [
              100.197,
              16.982
            ],
            [
              100.196,
              16.954
            ],
            [
              100.214,
              16.893
            ],
            [
              100.238,
              16.867
            ],
            [
              100.248,
              16.83
            ],
            [
              100.195,
              16.777
            ],
            [
              100.262,
              16.698
            ],
            [
              100.232,
              16.655
            ],
            [
              100.249,
              16.625
            ],
            [
              100.235,
              16.575
            ],
            [
              100.268,
              16.495
            ],
            [
              100.32,
              16.445
            ],
            [
              100.292,
              16.424
            ],
            [
              100.32,
              16.363
            ],
            [
              100.319,
              16.301
            ],
            [
              100.294,
              16.289
            ],
            [
              100.292,
              16.264
            ],
            [
              100.315,
              16.244
            ],
            [
              100.295,
              16.205
            ],
            [
              100.291,
              16.161
            ],
            [
              100.328,
              16.113
            ],
            [
              100.345,
              16.072
            ],
            [
              100.295,
              16.054
            ],
            [
              100.278,
              16.024
            ],
            [
              100.274,
              15.978
            ],
            [
              100.252,
              15.944
            ],
            [
              100.281,
              15.924
            ],
            [
              100.264,
              15.889
            ],
            [
              100.243,
              15.908
            ],
            [
              100.263,
              15.933
            ],
            [
              100.249,
              15.943
            ],
            [
              100.258,
              15.964
            ],
            [
              100.252,
              15.992
            ],
            [
              100.263,
              16.018
            ],
            [
              100.216,
              16.05
            ],
            [
              100.209,
              16.077
            ],
            [
              100.16,
              16.105
            ],
            [
              100.105,
              16.147
            ],
            [
              100.092,
              16.17
            ],
            [
              100.063,
              16.177
            ],
            [
              100.036,
              16.213
            ],
            [
              99.943,
              16.24
            ],
            [
              99.895,
              16.325
            ],
            [
              99.854,
              16.371
            ],
            [
              99.832,
              16.433
            ],
            [
              99.787,
              16.449
            ],
            [
              99.738,
              16.483
            ],
            [
              99.713,
              16.488
            ],
            [
              99.67,
              16.523
            ],
            [
              99.66,
              16.492
            ],
            [
              99.55,
              16.474
            ],
            [
              99.603,
              16.45
            ],
            [
              99.651,
              16.407
            ],
            [
              99.646,
              16.373
            ],
            [
              99.693,
              16.302
            ],
            [
              99.728,
              16.22
            ],
            [
              99.768,
              16.203
            ],
            [
              99.803,
              16.163
            ],
            [
              99.899,
              16.124
            ],
            [
              99.918,
              16.078
            ],
            [
              99.97,
              16.041
            ],
            [
              100.012,
              15.995
            ],
            [
              100.078,
              15.944
            ],
            [
              100.118,
              15.927
            ],
            [
              100.113,
              15.809
            ],
            [
              100.119,
              15.776
            ],
            [
              100.121,
              15.776
            ],
            [
              100.15,
              15.738
            ],
            [
              100.142,
              15.701
            ],
            [
              100.2,
              15.735
            ],
            [
              100.209,
              15.725
            ],
            [
              100.258,
              15.756
            ],
            [
              100.258,
              15.862
            ],
            [
              100.31,
              15.896
            ],
            [
              100.358,
              15.893
            ],
            [
              100.373,
              15.945
            ],
            [
              100.403,
              15.97
            ],
            [
              100.44,
              15.974
            ],
            [
              100.508,
              15.955
            ],
            [
              100.584,
              15.992
            ],
            [
              100.608,
              16.028
            ],
            [
              100.661,
              16.036
            ],
            [
              100.679,
              16.029
            ],
            [
              100.76,
              16.029
            ],
            [
              100.802,
              16.068
            ],
            [
              100.858,
              16.085
            ],
            [
              100.887,
              16.066
            ],
            [
              100.926,
              16.076
            ],
            [
              100.907,
              16.106
            ],
            [
              100.907,
              16.107
            ],
            [
              100.907,
              16.106
            ],
            [
              100.907,
              16.107
            ],
            [
              100.926,
              16.133
            ],
            [
              100.975,
              16.139
            ],
            [
              100.99,
              16.204
            ],
            [
              100.983,
              16.248
            ],
            [
              100.961,
              16.284
            ],
            [
              100.967,
              16.319
            ],
            [
              100.994,
              16.353
            ],
            [
              100.99,
              16.397
            ],
            [
              100.991,
              16.399
            ],
            [
              101.009,
              16.414
            ],
            [
              101.008,
              16.463
            ],
            [
              101.006,
              16.476
            ],
            [
              100.982,
              16.531
            ],
            [
              101.026,
              16.558
            ],
            [
              101.027,
              16.558
            ],
            [
              101.026,
              16.558
            ],
            [
              101.027,
              16.558
            ],
            [
              101.036,
              16.573
            ],
            [
              101.036,
              16.574
            ],
            [
              101.027,
              16.599
            ],
            [
              101.026,
              16.608
            ],
            [
              101.023,
              16.619
            ],
            [
              101.017,
              16.634
            ],
            [
              101.015,
              16.65
            ],
            [
              101.053,
              16.681
            ],
            [
              101.058,
              16.687
            ],
            [
              101.058,
              16.693
            ],
            [
              101.06,
              16.709
            ],
            [
              101.059,
              16.727
            ],
            [
              101.058,
              16.735
            ],
            [
              101.054,
              16.742
            ],
            [
              101.055,
              16.76
            ],
            [
              101.054,
              16.765
            ],
            [
              101.053,
              16.775
            ],
            [
              101.034,
              16.803
            ],
            [
              101.057,
              16.821
            ],
            [
              101.061,
              16.861
            ],
            [
              101.059,
              16.872
            ],
            [
              101.085,
              16.894
            ],
            [
              101.064,
              16.929
            ],
            [
              101.03,
              17.009
            ],
            [
              101.051,
              17.025
            ],
            [
              101.052,
              17.029
            ],
            [
              101.058,
              17.03
            ],
            [
              101.052,
              17.078
            ],
            [
              101.063,
              17.103
            ],
            [
              101.065,
              17.113
            ],
            [
              101.067,
              17.113
            ],
            [
              101.079,
              17.149
            ],
            [
              101.088,
              17.166
            ],
            [
              101.1,
              17.177
            ],
            [
              101.099,
              17.181
            ],
            [
              101.101,
              17.186
            ],
            [
              101.108,
              17.189
            ],
            [
              101.109,
              17.232
            ],
            [
              101.108,
              17.235
            ],
            [
              101.084,
              17.28
            ],
            [
              101.077,
              17.277
            ],
            [
              101.07,
              17.279
            ],
            [
              101.052,
              17.285
            ],
            [
              101.043,
              17.291
            ],
            [
              101.008,
              17.333
            ],
            [
              100.955,
              17.336
            ],
            [
              100.945,
              17.341
            ],
            [
              100.937,
              17.336
            ],
            [
              100.925,
              17.338
            ],
            [
              100.915,
              17.341
            ],
            [
              100.921,
              17.408
            ],
            [
              100.917,
              17.444
            ],
            [
              100.916,
              17.45
            ],
            [
              100.915,
              17.452
            ],
            [
              100.875,
              17.45
            ],
            [
              100.836,
              17.466
            ],
            [
              100.844,
              17.493
            ],
            [
              100.867,
              17.52
            ],
            [
              100.868,
              17.522
            ],
            [
              100.861,
              17.546
            ],
            [
              100.863,
              17.555
            ],
            [
              100.877,
              17.583
            ],
            [
              100.911,
              17.617
            ],
            [
              100.941,
              17.64
            ],
            [
              100.958,
              17.655
            ],
            [
              100.96,
              17.661
            ],
            [
              100.977,
              17.686
            ],
            [
              100.978,
              17.686
            ],
            [
              100.977,
              17.686
            ],
            [
              100.978,
              17.686
            ],
            [
              101.0,
              17.699
            ],
            [
              101.006,
              17.733
            ],
            [
              100.984,
              17.751
            ],
            [
              101.006,
              17.787
            ],
            [
              100.999,
              17.822
            ],
            [
              101.029,
              17.829
            ],
            [
              101.034,
              17.86
            ],
            [
              101.019,
              17.891
            ],
            [
              101.049,
              17.914
            ],
            [
              101.117,
              17.95
            ],
            [
              101.12,
              17.996
            ],
            [
              101.173,
              18.076
            ],
            [
              101.161,
              18.123
            ],
            [
              101.172,
              18.163
            ],
            [
              101.193,
              18.213
            ],
            [
              101.183,
              18.223
            ],
            [
              101.179,
              18.224
            ],
            [
              101.15,
              18.256
            ],
            [
              101.148,
              18.295
            ],
            [
              101.18,
              18.342
            ],
            [
              101.109,
              18.371
            ],
            [
              101.052,
              18.426
            ],
            [
              101.067,
              18.461
            ],
            [
              101.094,
              18.48
            ],
            [
              101.102,
              18.519
            ],
            [
              101.138,
              18.527
            ],
            [
              101.155,
              18.555
            ],
            [
              101.18,
              18.558
            ],
            [
              101.182,
              18.612
            ],
            [
              101.226,
              18.624
            ],
            [
              101.272,
              18.688
            ],
            [
              101.224,
              18.734
            ],
            [
              101.258,
              18.808
            ],
            [
              101.247,
              18.892
            ],
            [
              101.297,
              18.946
            ],
            [
              101.294,
              18.983
            ],
            [
              101.336,
              19.004
            ],
            [
              101.355,
              19.045
            ],
            [
              101.34,
              19.07
            ],
            [
              101.256,
              19.125
            ],
            [
              101.246,
              19.183
            ],
            [
              101.26,
              19.231
            ],
            [
              101.227,
              19.31
            ],
            [
              101.241,
              19.328
            ],
            [
              101.204,
              19.351
            ],
            [
              101.196,
              19.399
            ],
            [
              101.215,
              19.433
            ],
            [
              101.211,
              19.473
            ],
            [
              101.266,
              19.47
            ],
            [
              101.27,
              19.509
            ],
            [
              101.285,
              19.528
            ],
            [
              101.274,
              19.588
            ],
            [
              101.244,
              19.603
            ],
            [
              101.206,
              19.606
            ],
            [
              101.198,
              19.577
            ],
            [
              101.168,
              19.586
            ],
            [
              101.121,
              19.573
            ],
            [
              101.024,
              19.63
            ],
            [
              100.966,
              19.624
            ],
            [
              100.896,
              19.635
            ],
            [
              100.86,
              19.576
            ],
            [
              100.817,
              19.525
            ],
            [
              100.77,
              19.487
            ],
            [
              100.759,
              19.511
            ],
            [
              100.673,
              19.549
            ],
            [
              100.611,
              19.55
            ],
            [
              100.597,
              19.507
            ]
          ]
        ]
      }
    }
  ]
}