{
  "type": "FeatureCollection",
  "features": [
    {
      "type": "Feature",
      "properties": {
        "basin_slug": "mun",
        "basin_name_th": "ลุ่มน้ำมูล",
        "source": "ThaiWater (HII Official)",
        "min_lat": 14.122,
        "max_lat": 16.364,
        "min_lon": 101.276,
        "max_lon": 105.608
      },
      "geometry": {
        "type": "Polygon",
        "coordinates": [
          [
            [
              101.276,
              14.512
            ],
            [
              101.278,
              14.509
            ],
            [
              101.288,
              14.467
            ],
            [
              101.298,
              14.456
            ],
            [
              101.313,
              14.436
            ],
            [
              101.355,
              14.442
            ],
            [
              101.371,
              14.425
            ],
            [
              101.372,
              14.408
            ],
            [
              101.38,
              14.394
            ],
            [
              101.374,
              14.394
            ],
            [
              101.392,
              14.382
            ],
            [
              101.435,
              14.389
            ],
            [
              101.447,
              14.424
            ],
            [
              101.436,
              14.441
            ],
            [
              101.485,
              14.46
            ],
            [
              101.528,
              14.426
            ],
            [
              101.546,
              14.436
            ],
            [
              101.597,
              14.439
            ],
            [
              101.638,
              14.408
            ],
            [
              101.742,
              14.308
            ],
            [
              101.765,
              14.347
            ],
            [
              101.788,
              14.359
            ],
            [
              101.795,
              14.358
            ],
            [
              101.823,
              14.35
            ],
            [
              101.843,
              14.364
            ],
            [
              101.868,
              14.379
            ],
            [
              101.868,
              14.387
            ],
            [
              101.884,
              14.397
            ],
            [
              101.909,
              14.354
            ],
            [
              101.957,
              14.372
            ],
            [
              101.96,
              14.366
            ],
            [
              101.976,
              14.352
            ],
            [
              101.95,
              14.31
            ],
            [
              101.934,
              14.294
            ],
            [
              101.932,
              14.28
            ],
            [
              101.933,
              14.28
            ],
            [
              101.932,
              14.28
            ],
            [
              101.933,
              14.28
            ],
            [
              101.934,
              14.271
            ],
            [
              101.948,
              14.266
            ],
            [
              101.969,
              14.226
            ],
            [
              102.011,
              14.203
            ],
            [
              102.035,
              14.198
            ],
            [
              102.073,
              14.163
            ],
            [
              102.129,
              14.143
            ],
            [
              102.168,
              14.143
            ],
            [
              102.167,
              14.174
            ],
            [
              102.19,
              14.197
            ],
            [
              102.235,
              14.145
            ],
            [
              102.25,
              14.14
            ],
            [
              102.272,
              14.129
            ],
            [
              102.288,
              14.135
            ],
            [
              102.31,
              14.122
            ],
            [
              102.349,
              14.127
            ],
            [
              102.419,
              14.161
            ],
            [
              102.47,
              14.132
            ],
            [
              102.482,
              14.141
            ],
            [
              102.551,
              14.138
            ],
            [
              102.593,
              14.17
            ],
            [
              102.64,
              14.149
            ],
            [
              102.652,
              14.162
            ],
            [
              102.691,
              14.144
            ],
            [
              102.764,
              14.139
            ],
            [
              102.786,
              14.162
            ],
            [
              102.834,
              14.168
            ],
            [
              102.871,
              14.147
            ],
            [
              102.881,
              14.174
            ],
            [
              102.93,
              14.176
            ],
            [
              102.956,
              14.209
            ],
            [
              102.999,
              14.214
            ],
            [
              103.022,
              14.229
            ],
            [
              103.08,
              14.296
            ],
            [
              103.117,
              14.3
            ],
            [
              103.166,
              14.335
            ],
            [
              103.228,
              14.326
            ],
            [
              103.264,
              14.351
            ],
            [
              103.32,
              14.356
            ],
            [
              103.379,
              14.352
            ],
            [
              103.436,
              14.391
            ],
            [
              103.45,
              14.368
            ],
            [
              103.492,
              14.385
            ],
            [
              103.499,
              14.4
            ],
            [
              103.561,
              14.424
            ],
            [
              103.586,
              14.425
            ],
            [
              103.623,
              14.397
            ],
            [
              103.654,
              14.411
            ],
            [
              103.657,
              14.438
            ],
            [
              103.706,
              14.433
            ],
            [
              103.699,
              14.39
            ],
            [
              103.71,
              14.377
            ],
            [
              103.757,
              14.377
            ],
            [
              103.778,
              14.361
            ],
            [
              103.803,
              14.368
            ],
            [
              103.83,
              14.353
            ],
            [
              103.858,
              14.367
            ],
            [
              103.881,
              14.341
            ],
            [
              103.944,
              14.33
            ],
            [
              103.982,
              14.354
            ],
            [
              104.017,
              14.341
            ],
            [
              104.095,
              14.351
            ],
            [
              104.108,
              14.377
            ],
            [
              104.14,
              14.353
            ],
            [
              104.245,
              14.375
            ],
            [
              104.277,
              14.408
            ],
            [
              104.338,
              14.367
            ],
            [
              104.421,
              14.37
            ],
            [
              104.434,
              14.358
            ],
            [
              104.476,
              14.36
            ],
            [
              104.5,
              14.376
            ],
            [
              104.539,
              14.354
            ],
            [
              104.579,
              14.374
            ],
            [
              104.642,
              14.422
            ],
            [
              104.68,
              14.391
            ],
            [
              104.699,
              14.427
            ],
            [
              104.752,
              14.403
            ],
            [
              104.757,
              14.416
            ],
            [
              104.808,
              14.437
            ],
            [
              104.841,
              14.403
            ],
            [
              104.871,
              14.418
            ],
            [
              104.991,
              14.38
            ],
            [
              105.002,
              14.365
            ],
            [
              104.986,
              14.316
            ],
            [
              105.016,
              14.277
            ],
            [
              105.021,
              14.244
            ],
            [
              105.051,
              14.214
            ],
            [
              105.108,
              14.213
            ],
            [
              105.146,
              14.26
            ],
            [
              105.171,
              14.304
            ],
            [
              105.166,
              14.328
            ],
            [
              105.193,
              14.347
            ],
            [
              105.218,
              14.334
            ],
            [
              105.252,
              14.362
            ],
            [
              105.304,
              14.371
            ],
            [
              105.323,
              14.394
            ],
            [
              105.358,
              14.386
            ],
            [
              105.441,
              14.428
            ],
            [
              105.523,
              14.551
            ],
            [
              105.533,
              14.594
            ],
            [
              105.527,
              14.68
            ],
            [
              105.512,
              14.757
            ],
            [
              105.511,
              14.797
            ],
            [
              105.556,
              14.843
            ],
            [
              105.547,
              14.871
            ],
            [
              105.579,
              14.885
            ],
            [
              105.557,
              14.924
            ],
            [
              105.557,
              14.957
            ],
            [
              105.589,
              14.954
            ],
            [
              105.608,
              14.992
            ],
            [
              105.571,
              14.998
            ],
            [
              105.546,
              15.037
            ],
            [
              105.544,
              15.069
            ],
            [
              105.482,
              15.099
            ],
            [
              105.468,
              15.125
            ],
            [
              105.485,
              15.151
            ],
            [
              105.476,
              15.18
            ],
            [
              105.532,
              15.244
            ],
            [
              105.523,
              15.286
            ],
            [
              105.505,
              15.316
            ],
            [
              105.504,
              15.318
            ],
            [
              105.458,
              15.316
            ],
            [
              105.422,
              15.34
            ],
            [
              105.415,
              15.353
            ],
            [
              105.422,
              15.408
            ],
            [
              105.411,
              15.446
            ],
            [
              105.383,
              15.475
            ],
            [
              105.413,
              15.532
            ],
            [
              105.413,
              15.534
            ],
            [
              105.388,
              15.571
            ],
            [
              105.385,
              15.596
            ],
            [
              105.391,
              15.635
            ],
            [
              105.384,
              15.637
            ],
            [
              105.385,
              15.645
            ],
            [
              105.328,
              15.65
            ],
            [
              105.31,
              15.663
            ],
            [
              105.263,
              15.685
            ],
            [
              105.233,
              15.723
            ],
            [
              105.23,
              15.728
            ],
            [
              105.199,
              15.771
            ],
            [
              105.169,
              15.777
            ],
            [
              105.145,
              15.821
            ],
            [
              105.126,
              15.832
            ],
            [
              105.12,
              15.841
            ],
            [
              105.072,
              15.846
            ],
            [
              105.039,
              15.9
            ],
            [
              105.013,
              15.906
            ],
            [
              104.986,
              15.942
            ],
            [
              104.964,
              15.925
            ],
            [
              104.919,
              15.937
            ],
            [
              104.857,
              15.937
            ],
            [
              104.821,
              15.922
            ],
            [
              104.809,
              15.921
            ],
            [
              104.806,
              16.007
            ],
            [
              104.773,
              16.065
            ],
            [
              104.774,
              16.065
            ],
            [
              104.773,
              16.065
            ],
            [
              104.774,
              16.065
            ],
            [
              104.773,
              16.068
            ],
            [
              104.735,
              16.086
            ],
            [
              104.736,
              16.09
            ],
            [
              104.717,
              16.095
            ],
            [
              104.715,
              16.106
            ],
            [
              104.715,
              16.107
            ],
            [
              104.715,
              16.106
            ],
            [
              104.715,
              16.107
            ],
            [
              104.696,
              16.131
            ],
            [
              104.757,
              16.16
            ],
            [
              104.755,
              16.2
            ],
            [
              104.709,
              16.21
            ],
            [
              104.666,
              16.244
            ],
            [
              104.633,
              16.209
            ],
            [
              104.581,
              16.239
            ],
            [
              104.548,
              16.307
            ],
            [
              104.525,
              16.316
            ],
            [
              104.504,
              16.335
            ],
            [
              104.46,
              16.364
            ],
            [
              104.45,
              16.354
            ],
            [
              104.403,
              16.356
            ],
            [
              104.35,
              16.325
            ],
            [
              104.336,
              16.282
            ],
            [
              104.301,
              16.295
            ],
            [
              104.3,
              16.295
            ],
            [
              104.301,
              16.295
            ],
            [
              104.3,
              16.295
            ],
            [
              104.288,
              16.279
            ],
            [
              104.295,
              16.242
            ],
            [
              104.276,
              16.225
            ],
            [
              104.292,
              16.191
            ],
            [
              104.269,
              16.143
            ],
            [
              104.27,
              16.118
            ],
            [
              104.245,
              16.093
            ],
            [
              104.261,
              16.076
            ],
            [
              104.234,
              15.992
            ],
            [
              104.255,
              15.979
            ],
            [
              104.256,
              15.906
            ],
            [
              104.275,
              15.896
            ],
            [
              104.299,
              15.837
            ],
            [
              104.287,
              15.807
            ],
            [
              104.222,
              15.795
            ],
            [
              104.201,
              15.765
            ],
            [
              104.212,
              15.736
            ],
            [
              104.253,
              15.737
            ],
            [
              104.305,
              15.706
            ],
            [
              104.289,
              15.671
            ],
            [
              104.338,
              15.601
            ],
            [
              104.38,
              15.581
            ],
            [
              104.413,
              15.514
            ],
            [
              104.456,
              15.51
            ],
            [
              104.497,
              15.487
            ],
            [
              104.534,
              15.496
            ],
            [
              104.549,
              15.461
            ],
            [
              104.601,
              15.434
            ],
            [
              104.625,
              15.411
            ],
            [
              104.64,
              15.341
            ],
            [
              104.67,
              15.332
            ],
            [
              104.659,
              15.29
            ],
            [
              104.679,
              15.28
            ],
            [
              104.674,
              15.251
            ],
            [
              104.731,
              15.247
            ],
            [
              104.761,
              15.22
            ],
            [
              104.723,
              15.185
            ],
            [
              104.703,
              15.183
            ],
            [
              104.685,
              15.151
            ],
            [
              104.612,
              15.175
            ],
            [
              104.521,
              15.193
            ],
            [
              104.484,
              15.259
            ],
            [
              104.398,
              15.296
            ],
            [
              104.375,
              15.287
            ],
            [
              104.345,
              15.315
            ],
            [
              104.294,
              15.313
            ],
            [
              104.241,
              15.337
            ],
            [
              104.208,
              15.341
            ],
            [
              104.165,
              15.398
            ],
            [
              104.192,
              15.455
            ],
            [
              104.216,
              15.468
            ],
            [
              104.211,
              15.514
            ],
            [
              104.194,
              15.55
            ],
            [
              104.163,
              15.556
            ],
            [
              104.137,
              15.587
            ],
            [
              104.144,
              15.623
            ],
            [
              104.11,
              15.677
            ],
            [
              104.065,
              15.703
            ],
            [
              104.058,
              15.726
            ],
            [
              104.027,
              15.76
            ],
            [
              103.984,
              15.756
            ],
            [
              103.947,
              15.71
            ],
            [
              103.914,
              15.698
            ],
            [
              103.886,
              15.733
            ],
            [
              103.835,
              15.725
            ],
            [
              103.813,
              15.736
            ],
            [
              103.811,
              15.784
            ],
            [
              103.77,
              15.767
            ],
            [
              103.742,
              15.812
            ],
            [
              103.664,
              15.851
            ],
            [
              103.611,
              15.857
            ],
            [
              103.594,
              15.877
            ],
            [
              103.536,
              15.909
            ],
            [
              103.485,
              15.914
            ],
            [
              103.474,
              15.944
            ],
            [
              103.449,
              15.948
            ],
            [
              103.407,
              15.979
            ],
            [
              103.343,
              15.984
            ],
            [
              103.275,
              15.965
            ],
            [
              103.237,
              15.99
            ],
            [
              103.176,
              15.996
            ],
            [
              103.151,
              16.039
            ],
            [
              103.123,
              16.066
            ],
            [
              103.086,
              16.049
            ],
            [
              103.086,
              16.026
            ],
            [
              103.064,
              15.99
            ],
            [
              103.038,
              15.978
            ],
            [
              102.992,
              15.987
            ],
            [
              102.993,
              15.997
            ],
            [
              102.969,
              16.009
            ],
            [
              102.923,
              16.006
            ],
            [
              102.866,
              15.971
            ],
            [
              102.841,
              15.934
            ],
            [
              102.826,
              15.94
            ],
            [
              102.754,
              15.925
            ],
            [
              102.736,
              15.902
            ],
            [
              102.678,
              15.899
            ],
            [
              102.61,
              15.911
            ],
            [
              102.577,
              15.898
            ],
            [
              102.564,
              15.863
            ],
            [
              102.514,
              15.841
            ],
            [
              102.48,
              15.724
            ],
            [
              102.479,
              15.724
            ],
            [
              102.48,
              15.724
            ],
            [
              102.479,
              15.724
            ],
            [
              102.441,
              15.715
            ],
            [
              102.413,
              15.684
            ],
            [
              102.322,
              15.686
            ],
            [
              102.298,
              15.643
            ],
            [
              102.259,
              15.633
            ],
            [
              102.269,
              15.559
            ],
            [
              102.214,
              15.531
            ],
            [
              102.205,
              15.497
            ],
            [
              102.148,
              15.439
            ],
            [
              102.045,
              15.416
            ],
            [
              102.033,
              15.443
            ],
            [
              101.996,
              15.465
            ],
            [
              101.921,
              15.452
            ],
            [
              101.902,
              15.408
            ],
            [
              101.791,
              15.398
            ],
            [
              101.781,
              15.387
            ],
            [
              101.649,
              15.379
            ],
            [
              101.627,
              15.347
            ],
            [
              101.585,
              15.318
            ],
            [
              101.525,
              15.312
            ],
            [
              101.513,
              15.338
            ],
            [
              101.464,
              15.337
            ],
            [
              101.448,
              15.295
            ],
            [
              101.452,
              15.254
            ],
            [
              101.428,
              15.211
            ],
            [
              101.463,
              15.122
            ],
            [
              101.439,
              15.072
            ],
            [
              101.476,
              15.076
            ],
            [
              101.494,
              15.063
            ],
            [
              101.485,
              15.034
            ],
            [
              101.493,
              15.013
            ],
            [
              101.445,
              14.983
            ],
            [
              101.444,
              14.962
            ],
            [
              101.463,
              14.884
            ],
            [
              101.492,
              14.843
            ],
            [
              101.475,
              14.809
            ],
            [
              101.386,
              14.783
            ],
            [
              101.357,
              14.767
            ],
            [
              101.336,
              14.714
            ],
            [
              101.346,
              14.685
            ],
            [
              101.351,
              14.646
            ],
            [
              101.366,
              14.629
            ],
            [
              101.35,
              14.579
            ],
            [
              101.321,
              14.578
            ],
            [
              101.305,
              14.56
            ],
            [
              101.28,
              14.542
            ],
            [
              101.276,
              14.512
            ]
          ]
        ]
      }
    }
  ]
}