{
  "type": "FeatureCollection",
  "features": [
    {
      "type": "Feature",
      "id": "catchment_5256",
      "properties": {
        "station_id": "5256",
        "station_name": "ท้ายปตร.มะขามเฒ่า-อู่ทอง",
        "catchment_area_km2": 2461.66,
        "contributing_cells": 2592632
      },
      "geometry": {
        "type": "Polygon",
        "coordinates": [
          [
            [
              100.1477,
              15.131324
            ],
            [
              99.691033,
              15.147435
            ],
            [
              99.503256,
              15.239657
            ],
            [
              99.369922,
              15.31688
            ],
            [
              99.405756,
              15.385213
            ],
            [
              99.4902,
              15.426324
            ],
            [
              100.036311,
              15.534657
            ],
            [
              100.107978,
              15.51438
            ],
            [
              100.135756,
              15.47938
            ],
            [
              100.1477,
              15.131324
            ]
          ]
        ]
      }
    },
    {
      "type": "Feature",
      "id": "catchment_5268",
      "properties": {
        "station_id": "5268",
        "station_name": "ท้ายปตร.ท่าโบสถ์",
        "catchment_area_km2": 134.74,
        "contributing_cells": 141905
      },
      "geometry": {
        "type": "Polygon",
        "coordinates": [
          [
            [
              100.034367,
              14.988269
            ],
            [
              100.018256,
              14.988824
            ],
            [
              100.012978,
              15.053269
            ],
            [
              100.023533,
              15.10438
            ],
            [
              100.063256,
              15.202157
            ],
            [
              100.0652,
              15.20438
            ],
            [
              100.074922,
              15.214102
            ],
            [
              100.089644,
              15.213269
            ],
            [
              100.111311,
              15.197157
            ],
            [
              100.0802,
              15.002435
            ],
            [
              100.053533,
              14.991602
            ],
            [
              100.034367,
              14.988269
            ]
          ]
        ]
      }
    },
    {
      "type": "Feature",
      "id": "catchment_3718",
      "properties": {
        "station_id": "3718",
        "station_name": "ที่ว่าการอ.นครชัยศรี",
        "catchment_area_km2": 2961.9,
        "contributing_cells": 3119481
      },
      "geometry": {
        "type": "Polygon",
        "coordinates": [
          [
            [
              100.159367,
              13.259657
            ],
            [
              100.037978,
              13.274935
            ],
            [
              99.569644,
              13.388824
            ],
            [
              99.513256,
              13.463824
            ],
            [
              99.492978,
              13.514657
            ],
            [
              99.484367,
              13.546602
            ],
            [
              99.584922,
              13.94188
            ],
            [
              99.681311,
              13.929935
            ],
            [
              100.187144,
              13.802435
            ],
            [
              100.294922,
              13.42188
            ],
            [
              100.292144,
              13.343546
            ],
            [
              100.277978,
              13.300213
            ],
            [
              100.269367,
              13.296046
            ],
            [
              100.159367,
              13.259657
            ]
          ]
        ]
      }
    },
    {
      "type": "Feature",
      "id": "catchment_1822",
      "properties": {
        "station_id": "1822",
        "station_name": "สะพานนครชัยศรี",
        "catchment_area_km2": 2961.77,
        "contributing_cells": 3119351
      },
      "geometry": {
        "type": "Polygon",
        "coordinates": [
          [
            [
              100.1002,
              13.260491
            ],
            [
              99.561589,
              13.391602
            ],
            [
              99.490478,
              13.488824
            ],
            [
              99.586311,
              13.948824
            ],
            [
              99.681589,
              13.932435
            ],
            [
              100.196589,
              13.792713
            ],
            [
              100.303256,
              13.367991
            ],
            [
              100.269089,
              13.268824
            ],
            [
              100.1002,
              13.260491
            ]
          ]
        ]
      }
    },
    {
      "type": "Feature",
      "id": "catchment_1819",
      "properties": {
        "station_id": "1819",
        "station_name": "บางเลน",
        "catchment_area_km2": 1078.1,
        "contributing_cells": 1135457
      },
      "geometry": {
        "type": "Polygon",
        "coordinates": [
          [
            [
              100.4827,
              13.25938
            ],
            [
              100.319089,
              13.286324
            ],
            [
              100.2402,
              13.510769
            ],
            [
              100.183256,
              13.915213
            ],
            [
              100.179089,
              14.017713
            ],
            [
              100.209922,
              14.005491
            ],
            [
              100.234089,
              13.988546
            ],
            [
              100.282422,
              13.947435
            ],
            [
              100.514089,
              13.340769
            ],
            [
              100.515478,
              13.259657
            ],
            [
              100.4827,
              13.25938
            ]
          ]
        ]
      }
    },
    {
      "type": "Feature",
      "id": "catchment_5894",
      "properties": {
        "station_id": "5894",
        "station_name": "วัดบางไผ่นารถ",
        "catchment_area_km2": 26574.5,
        "contributing_cells": 27988363
      },
      "geometry": {
        "type": "Polygon",
        "coordinates": [
          [
            [
              100.504644,
              13.262713
            ],
            [
              99.456867,
              13.280213
            ],
            [
              99.332144,
              13.63938
            ],
            [
              99.322144,
              13.700213
            ],
            [
              99.311589,
              14.243269
            ],
            [
              99.423533,
              15.304102
            ],
            [
              99.5702,
              15.377435
            ],
            [
              99.933811,
              15.465769
            ],
            [
              100.066033,
              15.453824
            ],
            [
              100.301033,
              14.826046
            ],
            [
              100.338533,
              14.723824
            ],
            [
              100.504644,
              13.262713
            ]
          ]
        ]
      }
    },
    {
      "type": "Feature",
      "id": "catchment_1823",
      "properties": {
        "station_id": "1823",
        "station_name": "ศาลาดิน",
        "catchment_area_km2": 1.67,
        "contributing_cells": 1758
      },
      "geometry": {
        "type": "Polygon",
        "coordinates": [
          [
            [
              100.275756,
              13.807435
            ],
            [
              100.2727,
              13.807713
            ],
            [
              100.271867,
              13.80938
            ],
            [
              100.272422,
              13.81188
            ],
            [
              100.276033,
              13.821602
            ],
            [
              100.276589,
              13.822713
            ],
            [
              100.278256,
              13.825491
            ],
            [
              100.2802,
              13.824935
            ],
            [
              100.281867,
              13.821602
            ],
            [
              100.2827,
              13.819657
            ],
            [
              100.2827,
              13.818546
            ],
            [
              100.2802,
              13.807713
            ],
            [
              100.275756,
              13.807435
            ]
          ]
        ]
      }
    },
    {
      "type": "Feature",
      "id": "catchment_5818",
      "properties": {
        "station_id": "5818",
        "station_name": "ร.ร.บ้านสามพราน",
        "catchment_area_km2": 38.14,
        "contributing_cells": 40167
      },
      "geometry": {
        "type": "Polygon",
        "coordinates": [
          [
            [
              100.248533,
              13.58938
            ],
            [
              100.2352,
              13.617435
            ],
            [
              100.209922,
              13.735213
            ],
            [
              100.228533,
              13.732157
            ],
            [
              100.234922,
              13.726046
            ],
            [
              100.254367,
              13.695213
            ],
            [
              100.260478,
              13.620769
            ],
            [
              100.258533,
              13.595213
            ],
            [
              100.248533,
              13.58938
            ]
          ]
        ]
      }
    },
    {
      "type": "Feature",
      "id": "catchment_1825",
      "properties": {
        "station_id": "1825",
        "station_name": "คลองมหาชัย วัดพันท้ายนรสิงห์",
        "catchment_area_km2": 4.01,
        "contributing_cells": 4225
      },
      "geometry": {
        "type": "Polygon",
        "coordinates": [
          [
            [
              100.363533,
              13.557713
            ],
            [
              100.361033,
              13.574657
            ],
            [
              100.361867,
              13.578546
            ],
            [
              100.363533,
              13.580491
            ],
            [
              100.367144,
              13.581046
            ],
            [
              100.368533,
              13.580491
            ],
            [
              100.371033,
              13.578824
            ],
            [
              100.373256,
              13.576602
            ],
            [
              100.380478,
              13.562157
            ],
            [
              100.379367,
              13.560213
            ],
            [
              100.378256,
              13.55938
            ],
            [
              100.368533,
              13.557991
            ],
            [
              100.363533,
              13.557713
            ]
          ]
        ]
      }
    },
    {
      "type": "Feature",
      "id": "catchment_1827",
      "properties": {
        "station_id": "1827",
        "station_name": "ปากแม่น้ำท่าจีน",
        "catchment_area_km2": 5.25,
        "contributing_cells": 5531
      },
      "geometry": {
        "type": "Polygon",
        "coordinates": [
          [
            [
              100.296311,
              13.498824
            ],
            [
              100.2852,
              13.505769
            ],
            [
              100.274367,
              13.518546
            ],
            [
              100.276867,
              13.522157
            ],
            [
              100.291311,
              13.524657
            ],
            [
              100.293533,
              13.523269
            ],
            [
              100.301589,
              13.512435
            ],
            [
              100.301311,
              13.50938
            ],
            [
              100.300756,
              13.504657
            ],
            [
              100.299644,
              13.501324
            ],
            [
              100.299089,
              13.499935
            ],
            [
              100.296311,
              13.498824
            ]
          ]
        ]
      }
    },
    {
      "type": "Feature",
      "id": "catchment_1824",
      "properties": {
        "station_id": "1824",
        "station_name": "เมืองสมุทรสาคร",
        "catchment_area_km2": 2875.66,
        "contributing_cells": 3028658
      },
      "geometry": {
        "type": "Polygon",
        "coordinates": [
          [
            [
              99.986033,
              13.27938
            ],
            [
              99.583256,
              13.404657
            ],
            [
              99.4777,
              13.489657
            ],
            [
              99.584644,
              13.923269
            ],
            [
              99.655756,
              13.924102
            ],
            [
              99.710756,
              13.912991
            ],
            [
              99.796867,
              13.88688
            ],
            [
              100.229644,
              13.587435
            ],
            [
              100.2977,
              13.407157
            ],
            [
              100.3027,
              13.307991
            ],
            [
              100.236867,
              13.294935
            ],
            [
              99.986033,
              13.27938
            ]
          ]
        ]
      }
    },
    {
      "type": "Feature",
      "id": "catchment_1810",
      "properties": {
        "station_id": "1810",
        "station_name": "ด่านช้าง",
        "catchment_area_km2": 1257.01,
        "contributing_cells": 1323891
      },
      "geometry": {
        "type": "Polygon",
        "coordinates": [
          [
            [
              99.555478,
              14.807713
            ],
            [
              99.527144,
              14.809935
            ],
            [
              99.482144,
              14.857435
            ],
            [
              99.374089,
              15.051324
            ],
            [
              99.351311,
              15.173546
            ],
            [
              99.357144,
              15.23438
            ],
            [
              99.381033,
              15.258824
            ],
            [
              99.426867,
              15.267713
            ],
            [
              99.451033,
              15.26438
            ],
            [
              99.477144,
              15.260769
            ],
            [
              99.552422,
              15.209657
            ],
            [
              99.645756,
              15.067713
            ],
            [
              99.664644,
              15.024935
            ],
            [
              99.671867,
              14.955769
            ],
            [
              99.674922,
              14.885491
            ],
            [
              99.665756,
              14.834657
            ],
            [
              99.555478,
              14.807713
            ]
          ]
        ]
      }
    },
    {
      "type": "Feature",
      "id": "catchment_7993",
      "properties": {
        "station_id": "7993",
        "station_name": "ทุ่งโพธิ์พระยา",
        "catchment_area_km2": 0.79,
        "contributing_cells": 833
      },
      "geometry": {
        "type": "Polygon",
        "coordinates": [
          [
            [
              100.017978,
              14.314102
            ],
            [
              100.015756,
              14.31688
            ],
            [
              100.015756,
              14.317713
            ],
            [
              100.019922,
              14.32938
            ],
            [
              100.020756,
              14.329657
            ],
            [
              100.021867,
              14.327991
            ],
            [
              100.023256,
              14.325769
            ],
            [
              100.023811,
              14.323269
            ],
            [
              100.022978,
              14.321046
            ],
            [
              100.020756,
              14.316324
            ],
            [
              100.0202,
              14.315769
            ],
            [
              100.019089,
              14.314935
            ],
            [
              100.017978,
              14.314102
            ]
          ]
        ]
      }
    },
    {
      "type": "Feature",
      "id": "catchment_5817",
      "properties": {
        "station_id": "5817",
        "station_name": "บ้านบางการ้อง",
        "catchment_area_km2": 26556.22,
        "contributing_cells": 27969107
      },
      "geometry": {
        "type": "Polygon",
        "coordinates": [
          [
            [
              99.375478,
              13.300213
            ],
            [
              99.3077,
              13.670491
            ],
            [
              99.286033,
              14.153269
            ],
            [
              99.3577,
              14.68688
            ],
            [
              99.519089,
              15.419657
            ],
            [
              100.1377,
              15.427991
            ],
            [
              100.316311,
              14.590769
            ],
            [
              100.3702,
              13.513269
            ],
            [
              100.206867,
              13.346046
            ],
            [
              100.094644,
              13.309935
            ],
            [
              99.375478,
              13.300213
            ]
          ]
        ]
      }
    },
    {
      "type": "Feature",
      "id": "catchment_7989",
      "properties": {
        "station_id": "7989",
        "station_name": "ปตร.ปลายคลองบางซอ (ทุ่งเจ้าเจ็ด)",
        "catchment_area_km2": 31.84,
        "contributing_cells": 33531
      },
      "geometry": {
        "type": "Polygon",
        "coordinates": [
          [
            [
              100.142422,
              14.176602
            ],
            [
              100.128533,
              14.184102
            ],
            [
              100.118256,
              14.209935
            ],
            [
              100.119922,
              14.217713
            ],
            [
              100.124367,
              14.232157
            ],
            [
              100.135756,
              14.252435
            ],
            [
              100.158533,
              14.276046
            ],
            [
              100.1627,
              14.276602
            ],
            [
              100.165756,
              14.271602
            ],
            [
              100.169367,
              14.247157
            ],
            [
              100.142422,
              14.176602
            ]
          ]
        ]
      }
    },
    {
      "type": "Feature",
      "id": "catchment_1813",
      "properties": {
        "station_id": "1813",
        "station_name": "วัดท่าเจดีย์ (TTC06)",
        "catchment_area_km2": 26556.22,
        "contributing_cells": 27969110
      },
      "geometry": {
        "type": "Polygon",
        "coordinates": [
          [
            [
              99.375756,
              13.301046
            ],
            [
              99.3077,
              13.672157
            ],
            [
              99.2852,
              14.15438
            ],
            [
              99.357422,
              14.68438
            ],
            [
              99.518256,
              15.419657
            ],
            [
              100.132978,
              15.434102
            ],
            [
              100.315478,
              14.590769
            ],
            [
              100.3702,
              13.514102
            ],
            [
              100.210756,
              13.343269
            ],
            [
              100.094644,
              13.310769
            ],
            [
              99.375756,
              13.301046
            ]
          ]
        ]
      }
    },
    {
      "type": "Feature",
      "id": "catchment_1812",
      "properties": {
        "station_id": "1812",
        "station_name": "สองพี่น้อง",
        "catchment_area_km2": 7636.03,
        "contributing_cells": 8042291
      },
      "geometry": {
        "type": "Polygon",
        "coordinates": [
          [
            [
              100.326867,
              13.262435
            ],
            [
              100.021311,
              13.275213
            ],
            [
              99.508811,
              13.473269
            ],
            [
              99.458533,
              13.504657
            ],
            [
              99.586311,
              13.911324
            ],
            [
              99.834367,
              14.265213
            ],
            [
              100.049644,
              14.219657
            ],
            [
              100.110756,
              14.165491
            ],
            [
              100.250478,
              13.960213
            ],
            [
              100.489367,
              13.353824
            ],
            [
              100.479644,
              13.316046
            ],
            [
              100.326867,
              13.262435
            ]
          ]
        ]
      }
    },
    {
      "type": "Feature",
      "id": "catchment_5270",
      "properties": {
        "station_id": "5270",
        "station_name": "ท้ายปตร.ชลมาร์คพิจารณ์",
        "catchment_area_km2": 24150.69,
        "contributing_cells": 25435595
      },
      "geometry": {
        "type": "Polygon",
        "coordinates": [
          [
            [
              100.282422,
              13.302713
            ],
            [
              99.961867,
              13.319935
            ],
            [
              99.375756,
              13.370769
            ],
            [
              99.317144,
              13.667713
            ],
            [
              99.319644,
              14.527991
            ],
            [
              99.358533,
              15.164102
            ],
            [
              99.396033,
              15.282435
            ],
            [
              100.095756,
              15.481324
            ],
            [
              100.244922,
              14.876602
            ],
            [
              100.490756,
              13.36438
            ],
            [
              100.282422,
              13.302713
            ]
          ]
        ]
      }
    },
    {
      "type": "Feature",
      "id": "catchment_1814",
      "properties": {
        "station_id": "1814",
        "station_name": "สามชุก",
        "catchment_area_km2": 24151.31,
        "contributing_cells": 25436251
      },
      "geometry": {
        "type": "Polygon",
        "coordinates": [
          [
            [
              100.075756,
              13.307991
            ],
            [
              99.959644,
              13.319935
            ],
            [
              99.419922,
              13.382713
            ],
            [
              99.354922,
              13.39938
            ],
            [
              99.316311,
              13.607713
            ],
            [
              99.332978,
              14.684657
            ],
            [
              99.3502,
              15.097713
            ],
            [
              99.394089,
              15.26438
            ],
            [
              99.433256,
              15.34188
            ],
            [
              99.972978,
              15.504657
            ],
            [
              100.061033,
              15.392435
            ],
            [
              100.334367,
              14.824935
            ],
            [
              100.4852,
              13.391324
            ],
            [
              100.478533,
              13.341324
            ],
            [
              100.075756,
              13.307991
            ]
          ]
        ]
      }
    },
    {
      "type": "Feature",
      "id": "catchment_5269",
      "properties": {
        "station_id": "5269",
        "station_name": "เหนือปตร.ชลมาร์คพิจารณ์",
        "catchment_area_km2": 18.26,
        "contributing_cells": 19236
      },
      "geometry": {
        "type": "Polygon",
        "coordinates": [
          [
            [
              100.104089,
              14.733269
            ],
            [
              100.089367,
              14.772435
            ],
            [
              100.087978,
              14.782157
            ],
            [
              100.089922,
              14.78688
            ],
            [
              100.095478,
              14.786046
            ],
            [
              100.111867,
              14.782157
            ],
            [
              100.1327,
              14.75188
            ],
            [
              100.126033,
              14.745213
            ],
            [
              100.109922,
              14.735769
            ],
            [
              100.104089,
              14.733269
            ]
          ]
        ]
      }
    },
    {
      "type": "Feature",
      "id": "catchment_5272",
      "properties": {
        "station_id": "5272",
        "station_name": "ท้ายปตร.โพธิ์พระยา",
        "catchment_area_km2": 0.72,
        "contributing_cells": 754
      },
      "geometry": {
        "type": "Polygon",
        "coordinates": [
          [
            [
              100.124644,
              14.529102
            ],
            [
              100.122144,
              14.531602
            ],
            [
              100.121033,
              14.533269
            ],
            [
              100.121033,
              14.533824
            ],
            [
              100.121311,
              14.534657
            ],
            [
              100.123811,
              14.53688
            ],
            [
              100.126033,
              14.537713
            ],
            [
              100.127144,
              14.537435
            ],
            [
              100.130478,
              14.532435
            ],
            [
              100.130756,
              14.531602
            ],
            [
              100.1302,
              14.531046
            ],
            [
              100.129367,
              14.530213
            ],
            [
              100.126311,
              14.529102
            ],
            [
              100.124644,
              14.529102
            ]
          ]
        ]
      }
    },
    {
      "type": "Feature",
      "id": "catchment_5816",
      "properties": {
        "station_id": "5816",
        "station_name": "บ้านวัดพระรูป",
        "catchment_area_km2": 8.86,
        "contributing_cells": 9332
      },
      "geometry": {
        "type": "Polygon",
        "coordinates": [
          [
            [
              100.119644,
              14.468824
            ],
            [
              100.114922,
              14.469102
            ],
            [
              100.107978,
              14.480213
            ],
            [
              100.1127,
              14.522713
            ],
            [
              100.117978,
              14.531046
            ],
            [
              100.122144,
              14.534935
            ],
            [
              100.124644,
              14.536324
            ],
            [
              100.128811,
              14.533824
            ],
            [
              100.131311,
              14.52438
            ],
            [
              100.131589,
              14.497991
            ],
            [
              100.1227,
              14.470769
            ],
            [
              100.119644,
              14.468824
            ]
          ]
        ]
      }
    },
    {
      "type": "Feature",
      "id": "catchment_1809",
      "properties": {
        "station_id": "1809",
        "station_name": "เมืองสุพรรณบุรี",
        "catchment_area_km2": 8.86,
        "contributing_cells": 9332
      },
      "geometry": {
        "type": "Polygon",
        "coordinates": [
          [
            [
              100.119644,
              14.468824
            ],
            [
              100.114922,
              14.469102
            ],
            [
              100.107978,
              14.480213
            ],
            [
              100.1127,
              14.522713
            ],
            [
              100.117978,
              14.531046
            ],
            [
              100.122144,
              14.534935
            ],
            [
              100.124644,
              14.536324
            ],
            [
              100.128811,
              14.533824
            ],
            [
              100.131311,
              14.52438
            ],
            [
              100.131589,
              14.497991
            ],
            [
              100.1227,
              14.470769
            ],
            [
              100.119644,
              14.468824
            ]
          ]
        ]
      }
    },
    {
      "type": "Feature",
      "id": "catchment_5271",
      "properties": {
        "station_id": "5271",
        "station_name": "เหนือปตร.โพธิ์พระยา",
        "catchment_area_km2": 0.73,
        "contributing_cells": 774
      },
      "geometry": {
        "type": "Polygon",
        "coordinates": [
          [
            [
              100.124367,
              14.529102
            ],
            [
              100.120756,
              14.532435
            ],
            [
              100.1202,
              14.532991
            ],
            [
              100.121589,
              14.534657
            ],
            [
              100.123811,
              14.536602
            ],
            [
              100.124644,
              14.537157
            ],
            [
              100.126311,
              14.537991
            ],
            [
              100.130478,
              14.532157
            ],
            [
              100.130478,
              14.531324
            ],
            [
              100.129644,
              14.530491
            ],
            [
              100.128256,
              14.529935
            ],
            [
              100.1252,
              14.529102
            ],
            [
              100.124367,
              14.529102
            ]
          ]
        ]
      }
    }
  ]
}