{
  "type": "FeatureCollection",
  "features": [
    {
      "type": "Feature",
      "properties": {
        "basin_slug": "tha-chin",
        "basin_name_th": "ลุ่มน้ำท่าจีน",
        "source": "ThaiWater (HII Official)",
        "min_lat": 13.362,
        "max_lat": 15.441,
        "min_lon": 99.343,
        "max_lon": 100.388
      },
      "geometry": {
        "type": "Polygon",
        "coordinates": [
          [
            [
              100.386,
              13.492
            ],
            [
              100.388,
              13.592
            ],
            [
              100.369,
              13.642
            ],
            [
              100.344,
              13.654
            ],
            [
              100.33,
              13.712
            ],
            [
              100.327,
              13.801
            ],
            [
              100.276,
              13.909
            ],
            [
              100.256,
              13.924
            ],
            [
              100.271,
              13.963
            ],
            [
              100.259,
              13.988
            ],
            [
              100.259,
              14.042
            ],
            [
              100.277,
              14.084
            ],
            [
              100.291,
              14.169
            ],
            [
              100.257,
              14.173
            ],
            [
              100.264,
              14.223
            ],
            [
              100.251,
              14.252
            ],
            [
              100.269,
              14.293
            ],
            [
              100.254,
              14.322
            ],
            [
              100.265,
              14.381
            ],
            [
              100.283,
              14.409
            ],
            [
              100.266,
              14.458
            ],
            [
              100.279,
              14.501
            ],
            [
              100.258,
              14.569
            ],
            [
              100.285,
              14.608
            ],
            [
              100.293,
              14.639
            ],
            [
              100.259,
              14.682
            ],
            [
              100.273,
              14.707
            ],
            [
              100.269,
              14.759
            ],
            [
              100.24,
              14.776
            ],
            [
              100.213,
              14.816
            ],
            [
              100.227,
              14.885
            ],
            [
              100.217,
              14.912
            ],
            [
              100.187,
              14.908
            ],
            [
              100.145,
              15.005
            ],
            [
              100.153,
              15.061
            ],
            [
              100.137,
              15.107
            ],
            [
              100.149,
              15.123
            ],
            [
              100.105,
              15.192
            ],
            [
              100.049,
              15.236
            ],
            [
              100.055,
              15.286
            ],
            [
              100.044,
              15.305
            ],
            [
              99.963,
              15.323
            ],
            [
              99.886,
              15.315
            ],
            [
              99.861,
              15.306
            ],
            [
              99.835,
              15.329
            ],
            [
              99.797,
              15.322
            ],
            [
              99.768,
              15.337
            ],
            [
              99.758,
              15.361
            ],
            [
              99.686,
              15.417
            ],
            [
              99.633,
              15.399
            ],
            [
              99.598,
              15.412
            ],
            [
              99.582,
              15.441
            ],
            [
              99.496,
              15.44
            ],
            [
              99.443,
              15.395
            ],
            [
              99.385,
              15.397
            ],
            [
              99.365,
              15.367
            ],
            [
              99.374,
              15.345
            ],
            [
              99.371,
              15.256
            ],
            [
              99.353,
              15.231
            ],
            [
              99.358,
              15.198
            ],
            [
              99.345,
              15.18
            ],
            [
              99.349,
              15.161
            ],
            [
              99.349,
              15.162
            ],
            [
              99.349,
              15.161
            ],
            [
              99.349,
              15.162
            ],
            [
              99.37,
              15.144
            ],
            [
              99.343,
              15.088
            ],
            [
              99.367,
              15.049
            ],
            [
              99.409,
              15.046
            ],
            [
              99.426,
              15.01
            ],
            [
              99.444,
              14.983
            ],
            [
              99.455,
              14.939
            ],
            [
              99.462,
              14.875
            ],
            [
              99.472,
              14.863
            ],
            [
              99.504,
              14.83
            ],
            [
              99.519,
              14.797
            ],
            [
              99.542,
              14.762
            ],
            [
              99.549,
              14.722
            ],
            [
              99.543,
              14.716
            ],
            [
              99.549,
              14.684
            ],
            [
              99.578,
              14.631
            ],
            [
              99.581,
              14.59
            ],
            [
              99.598,
              14.569
            ],
            [
              99.595,
              14.561
            ],
            [
              99.574,
              14.47
            ],
            [
              99.543,
              14.381
            ],
            [
              99.548,
              14.344
            ],
            [
              99.573,
              14.311
            ],
            [
              99.559,
              14.291
            ],
            [
              99.587,
              14.258
            ],
            [
              99.587,
              14.237
            ],
            [
              99.624,
              14.227
            ],
            [
              99.648,
              14.169
            ],
            [
              99.649,
              14.146
            ],
            [
              99.674,
              14.113
            ],
            [
              99.659,
              14.079
            ],
            [
              99.635,
              14.062
            ],
            [
              99.629,
              14.006
            ],
            [
              99.641,
              13.979
            ],
            [
              99.807,
              13.958
            ],
            [
              99.841,
              13.932
            ],
            [
              99.872,
              13.922
            ],
            [
              99.905,
              13.889
            ],
            [
              99.964,
              13.892
            ],
            [
              99.996,
              13.877
            ],
            [
              100.036,
              13.832
            ],
            [
              100.097,
              13.814
            ],
            [
              100.076,
              13.712
            ],
            [
              100.088,
              13.68
            ],
            [
              100.099,
              13.603
            ],
            [
              100.119,
              13.56
            ],
            [
              100.193,
              13.533
            ],
            [
              100.131,
              13.508
            ],
            [
              100.117,
              13.475
            ],
            [
              100.009,
              13.402
            ],
            [
              99.996,
              13.375
            ],
            [
              100.023,
              13.362
            ],
            [
              100.032,
              13.369
            ],
            [
              100.032,
              13.37
            ],
            [
              100.032,
              13.369
            ],
            [
              100.032,
              13.37
            ],
            [
              100.038,
              13.386
            ],
            [
              100.048,
              13.409
            ],
            [
              100.102,
              13.433
            ],
            [
              100.154,
              13.449
            ],
            [
              100.176,
              13.455
            ],
            [
              100.177,
              13.455
            ],
            [
              100.176,
              13.455
            ],
            [
              100.177,
              13.455
            ],
            [
              100.223,
              13.467
            ],
            [
              100.223,
              13.469
            ],
            [
              100.229,
              13.47
            ],
            [
              100.23,
              13.47
            ],
            [
              100.266,
              13.484
            ],
            [
              100.266,
              13.485
            ],
            [
              100.266,
              13.484
            ],
            [
              100.266,
              13.485
            ],
            [
              100.304,
              13.495
            ],
            [
              100.312,
              13.491
            ],
            [
              100.313,
              13.491
            ],
            [
              100.312,
              13.491
            ],
            [
              100.313,
              13.491
            ],
            [
              100.358,
              13.488
            ],
            [
              100.379,
              13.489
            ],
            [
              100.386,
              13.491
            ],
            [
              100.386,
              13.492
            ],
            [
              100.386,
              13.491
            ],
            [
              100.386,
              13.492
            ]
          ]
        ]
      }
    }
  ]
}