{
  "type": "FeatureCollection",
  "features": [
    {
      "type": "Feature",
      "properties": {
        "basin_slug": "khong-north",
        "basin_name_th": "ลุ่มน้ำโขงเหนือ",
        "source": "ThaiWater (HII Official)",
        "min_lat": 18.896,
        "max_lat": 20.457,
        "min_lon": 98.91,
        "max_lon": 100.597
      },
      "geometry": {
        "type": "Polygon",
        "coordinates": [
          [
            [
              99.402,
              19.0
            ],
            [
              99.444,
              19.018
            ],
            [
              99.476,
              19.052
            ],
            [
              99.503,
              19.079
            ],
            [
              99.53,
              19.077
            ],
            [
              99.539,
              19.103
            ],
            [
              99.557,
              19.129
            ],
            [
              99.553,
              19.146
            ],
            [
              99.539,
              19.163
            ],
            [
              99.548,
              19.247
            ],
            [
              99.561,
              19.268
            ],
            [
              99.562,
              19.274
            ],
            [
              99.57,
              19.289
            ],
            [
              99.577,
              19.325
            ],
            [
              99.575,
              19.391
            ],
            [
              99.563,
              19.404
            ],
            [
              99.586,
              19.48
            ],
            [
              99.612,
              19.509
            ],
            [
              99.642,
              19.508
            ],
            [
              99.651,
              19.478
            ],
            [
              99.651,
              19.469
            ],
            [
              99.682,
              19.459
            ],
            [
              99.689,
              19.394
            ],
            [
              99.707,
              19.346
            ],
            [
              99.701,
              19.3
            ],
            [
              99.705,
              19.243
            ],
            [
              99.73,
              19.169
            ],
            [
              99.757,
              19.122
            ],
            [
              99.764,
              19.092
            ],
            [
              99.774,
              19.076
            ],
            [
              99.773,
              19.064
            ],
            [
              99.774,
              19.064
            ],
            [
              99.82,
              19.059
            ],
            [
              99.836,
              19.004
            ],
            [
              99.862,
              18.999
            ],
            [
              99.89,
              18.988
            ],
            [
              99.904,
              18.986
            ],
            [
              99.94,
              18.96
            ],
            [
              99.941,
              18.96
            ],
            [
              99.94,
              18.96
            ],
            [
              99.971,
              18.923
            ],
            [
              100.016,
              18.896
            ],
            [
              100.017,
              18.896
            ],
            [
              100.016,
              18.896
            ],
            [
              100.017,
              18.896
            ],
            [
              100.034,
              18.9
            ],
            [
              100.058,
              18.929
            ],
            [
              100.073,
              18.934
            ],
            [
              100.078,
              18.935
            ],
            [
              100.12,
              18.936
            ],
            [
              100.123,
              18.959
            ],
            [
              100.113,
              18.999
            ],
            [
              100.106,
              19.017
            ],
            [
              100.118,
              19.064
            ],
            [
              100.107,
              19.072
            ],
            [
              100.113,
              19.142
            ],
            [
              100.132,
              19.172
            ],
            [
              100.142,
              19.201
            ],
            [
              100.219,
              19.246
            ],
            [
              100.229,
              19.266
            ],
            [
              100.247,
              19.259
            ],
            [
              100.26,
              19.288
            ],
            [
              100.228,
              19.336
            ],
            [
              100.242,
              19.349
            ],
            [
              100.277,
              19.333
            ],
            [
              100.298,
              19.34
            ],
            [
              100.326,
              19.368
            ],
            [
              100.348,
              19.358
            ],
            [
              100.367,
              19.389
            ],
            [
              100.39,
              19.387
            ],
            [
              100.387,
              19.394
            ],
            [
              100.399,
              19.396
            ],
            [
              100.408,
              19.398
            ],
            [
              100.415,
              19.4
            ],
            [
              100.469,
              19.4
            ],
            [
              100.54,
              19.416
            ],
            [
              100.565,
              19.436
            ],
            [
              100.597,
              19.507
            ],
            [
              100.574,
              19.499
            ],
            [
              100.538,
              19.524
            ],
            [
              100.521,
              19.52
            ],
            [
              100.481,
              19.56
            ],
            [
              100.49,
              19.573
            ],
            [
              100.482,
              19.61
            ],
            [
              100.443,
              19.635
            ],
            [
              100.431,
              19.685
            ],
            [
              100.446,
              19.707
            ],
            [
              100.404,
              19.741
            ],
            [
              100.417,
              19.783
            ],
            [
              100.441,
              19.809
            ],
            [
              100.442,
              19.836
            ],
            [
              100.462,
              19.858
            ],
            [
              100.501,
              19.869
            ],
            [
              100.52,
              19.904
            ],
            [
              100.516,
              19.941
            ],
            [
              100.552,
              20.031
            ],
            [
              100.569,
              20.098
            ],
            [
              100.577,
              20.168
            ],
            [
              100.552,
              20.175
            ],
            [
              100.53,
              20.145
            ],
            [
              100.506,
              20.152
            ],
            [
              100.456,
              20.228
            ],
            [
              100.418,
              20.251
            ],
            [
              100.383,
              20.313
            ],
            [
              100.376,
              20.35
            ],
            [
              100.331,
              20.399
            ],
            [
              100.267,
              20.4
            ],
            [
              100.224,
              20.35
            ],
            [
              100.226,
              20.324
            ],
            [
              100.167,
              20.298
            ],
            [
              100.18,
              20.261
            ],
            [
              100.166,
              20.241
            ],
            [
              100.115,
              20.249
            ],
            [
              100.091,
              20.27
            ],
            [
              100.099,
              20.311
            ],
            [
              100.077,
              20.374
            ],
            [
              100.036,
              20.401
            ],
            [
              100.032,
              20.4
            ],
            [
              100.03,
              20.402
            ],
            [
              99.99,
              20.426
            ],
            [
              99.992,
              20.427
            ],
            [
              99.99,
              20.426
            ],
            [
              99.985,
              20.437
            ],
            [
              99.967,
              20.457
            ],
            [
              99.894,
              20.446
            ],
            [
              99.864,
              20.433
            ],
            [
              99.84,
              20.402
            ],
            [
              99.841,
              20.382
            ],
            [
              99.811,
              20.336
            ],
            [
              99.776,
              20.335
            ],
            [
              99.732,
              20.35
            ],
            [
              99.717,
              20.328
            ],
            [
              99.685,
              20.318
            ],
            [
              99.648,
              20.342
            ],
            [
              99.609,
              20.333
            ],
            [
              99.558,
              20.357
            ],
            [
              99.52,
              20.361
            ],
            [
              99.478,
              20.392
            ],
            [
              99.458,
              20.367
            ],
            [
              99.497,
              20.34
            ],
            [
              99.506,
              20.296
            ],
            [
              99.521,
              20.25
            ],
            [
              99.555,
              20.188
            ],
            [
              99.513,
              20.153
            ],
            [
              99.499,
              20.117
            ],
            [
              99.44,
              20.091
            ],
            [
              99.378,
              20.089
            ],
            [
              99.344,
              20.106
            ],
            [
              99.279,
              20.116
            ],
            [
              99.247,
              20.112
            ],
            [
              99.22,
              20.127
            ],
            [
              99.159,
              20.133
            ],
            [
              99.119,
              20.101
            ],
            [
              99.069,
              20.092
            ],
            [
              99.068,
              20.07
            ],
            [
              99.044,
              20.039
            ],
            [
              99.046,
              20.009
            ],
            [
              99.032,
              19.972
            ],
            [
              99.045,
              19.948
            ],
            [
              99.027,
              19.91
            ],
            [
              99.034,
              19.856
            ],
            [
              99.016,
              19.795
            ],
            [
              98.954,
              19.769
            ],
            [
              98.926,
              19.768
            ],
            [
              98.91,
              19.712
            ],
            [
              98.916,
              19.71
            ],
            [
              98.912,
              19.693
            ],
            [
              98.955,
              19.673
            ],
            [
              98.97,
              19.688
            ],
            [
              98.976,
              19.681
            ],
            [
              99.015,
              19.685
            ],
            [
              99.016,
              19.677
            ],
            [
              99.029,
              19.675
            ],
            [
              99.032,
              19.683
            ],
            [
              99.033,
              19.688
            ],
            [
              99.041,
              19.682
            ],
            [
              99.078,
              19.657
            ],
            [
              99.078,
              19.656
            ],
            [
              99.078,
              19.654
            ],
            [
              99.079,
              19.649
            ],
            [
              99.09,
              19.633
            ],
            [
              99.09,
              19.632
            ],
            [
              99.121,
              19.585
            ],
            [
              99.143,
              19.575
            ],
            [
              99.155,
              19.581
            ],
            [
              99.168,
              19.575
            ],
            [
              99.174,
              19.561
            ],
            [
              99.188,
              19.543
            ],
            [
              99.202,
              19.535
            ],
            [
              99.231,
              19.549
            ],
            [
              99.265,
              19.569
            ],
            [
              99.291,
              19.546
            ],
            [
              99.305,
              19.534
            ],
            [
              99.308,
              19.52
            ],
            [
              99.305,
              19.489
            ],
            [
              99.314,
              19.446
            ],
            [
              99.315,
              19.418
            ],
            [
              99.315,
              19.417
            ],
            [
              99.315,
              19.418
            ],
            [
              99.315,
              19.417
            ],
            [
              99.331,
              19.369
            ],
            [
              99.323,
              19.358
            ],
            [
              99.323,
              19.335
            ],
            [
              99.328,
              19.319
            ],
            [
              99.338,
              19.298
            ],
            [
              99.337,
              19.294
            ],
            [
              99.342,
              19.268
            ],
            [
              99.305,
              19.191
            ],
            [
              99.319,
              19.166
            ],
            [
              99.324,
              19.106
            ],
            [
              99.365,
              19.08
            ],
            [
              99.382,
              19.05
            ],
            [
              99.402,
              19.0
            ]
          ]
        ]
      }
    }
  ]
}