{
  "type": "FeatureCollection",
  "features": [
    {
      "type": "Feature",
      "id": "catchment_1211",
      "properties": {
        "station_id": "1211",
        "station_name": "นายายอาม",
        "catchment_area_km2": 1656.89,
        "contributing_cells": 1745045
      },
      "geometry": {
        "type": "Polygon",
        "coordinates": [
          [
            [
              101.955431,
              12.720976
            ],
            [
              101.88432,
              12.79792
            ],
            [
              101.730987,
              13.04542
            ],
            [
              101.688487,
              13.117364
            ],
            [
              101.849876,
              13.246253
            ],
            [
              101.987931,
              13.305698
            ],
            [
              102.023487,
              13.289864
            ],
            [
              102.15182,
              13.059587
            ],
            [
              102.037653,
              12.781809
            ],
            [
              102.006542,
              12.724309
            ],
            [
              101.955431,
              12.720976
            ]
          ]
        ]
      }
    },
    {
      "type": "Feature",
      "id": "catchment_3705",
      "properties": {
        "station_id": "3705",
        "station_name": "บ้านฉมัน",
        "catchment_area_km2": 230.64,
        "contributing_cells": 242906
      },
      "geometry": {
        "type": "Polygon",
        "coordinates": [
          [
            [
              102.317931,
              12.739864
            ],
            [
              102.205153,
              12.743753
            ],
            [
              102.15182,
              12.868198
            ],
            [
              102.150709,
              12.892642
            ],
            [
              102.157931,
              12.91792
            ],
            [
              102.174042,
              12.93042
            ],
            [
              102.184598,
              12.929031
            ],
            [
              102.210431,
              12.919864
            ],
            [
              102.244876,
              12.902087
            ],
            [
              102.317931,
              12.815142
            ],
            [
              102.317931,
              12.739864
            ]
          ]
        ]
      }
    },
    {
      "type": "Feature",
      "id": "catchment_3706",
      "properties": {
        "station_id": "3706",
        "station_name": "บ้านปึก",
        "catchment_area_km2": 592.86,
        "contributing_cells": 624404
      },
      "geometry": {
        "type": "Polygon",
        "coordinates": [
          [
            [
              102.050153,
              12.740698
            ],
            [
              102.03182,
              12.751253
            ],
            [
              101.980431,
              12.919031
            ],
            [
              101.969042,
              12.973476
            ],
            [
              102.029042,
              13.027642
            ],
            [
              102.112653,
              13.05042
            ],
            [
              102.164876,
              13.03542
            ],
            [
              102.17682,
              12.991253
            ],
            [
              102.174042,
              12.809309
            ],
            [
              102.13932,
              12.762642
            ],
            [
              102.104598,
              12.742642
            ],
            [
              102.050153,
              12.740698
            ]
          ]
        ]
      }
    },
    {
      "type": "Feature",
      "id": "catchment_3707",
      "properties": {
        "station_id": "3707",
        "station_name": "บ้านโป่งโรงเซ็น",
        "catchment_area_km2": 73.76,
        "contributing_cells": 77684
      },
      "geometry": {
        "type": "Polygon",
        "coordinates": [
          [
            [
              102.322653,
              12.74042
            ],
            [
              102.312098,
              12.741253
            ],
            [
              102.26432,
              12.766531
            ],
            [
              102.248209,
              12.789864
            ],
            [
              102.250431,
              12.815698
            ],
            [
              102.255987,
              12.868753
            ],
            [
              102.270709,
              12.865142
            ],
            [
              102.306264,
              12.829309
            ],
            [
              102.317931,
              12.813753
            ],
            [
              102.324042,
              12.802364
            ],
            [
              102.322653,
              12.74042
            ]
          ]
        ]
      }
    },
    {
      "type": "Feature",
      "id": "catchment_8629",
      "properties": {
        "station_id": "8629",
        "station_name": "สะพานคลองจันทเขลม",
        "catchment_area_km2": 58.0,
        "contributing_cells": 61082
      },
      "geometry": {
        "type": "Polygon",
        "coordinates": [
          [
            [
              102.117098,
              12.995698
            ],
            [
              102.047098,
              13.002087
            ],
            [
              102.042376,
              13.038753
            ],
            [
              102.105709,
              13.049031
            ],
            [
              102.11682,
              13.04792
            ],
            [
              102.142098,
              13.040976
            ],
            [
              102.167376,
              13.032642
            ],
            [
              102.164042,
              13.015142
            ],
            [
              102.126264,
              12.99792
            ],
            [
              102.117098,
              12.995698
            ]
          ]
        ]
      }
    },
    {
      "type": "Feature",
      "id": "catchment_3704",
      "properties": {
        "station_id": "3704",
        "station_name": "สะพานวัดจันทนาราม",
        "catchment_area_km2": 1280.35,
        "contributing_cells": 1348467
      },
      "geometry": {
        "type": "Polygon",
        "coordinates": [
          [
            [
              102.132931,
              12.560142
            ],
            [
              102.025987,
              12.760698
            ],
            [
              101.971264,
              12.922087
            ],
            [
              102.022376,
              13.029864
            ],
            [
              102.13932,
              13.034587
            ],
            [
              102.164598,
              13.035142
            ],
            [
              102.307098,
              12.795698
            ],
            [
              102.305153,
              12.749309
            ],
            [
              102.260987,
              12.66792
            ],
            [
              102.188487,
              12.569309
            ],
            [
              102.132931,
              12.560142
            ]
          ]
        ]
      }
    },
    {
      "type": "Feature",
      "id": "catchment_1200",
      "properties": {
        "station_id": "1200",
        "station_name": "เมืองจันทบุรี",
        "catchment_area_km2": 1280.35,
        "contributing_cells": 1348467
      },
      "geometry": {
        "type": "Polygon",
        "coordinates": [
          [
            [
              102.132931,
              12.560142
            ],
            [
              102.025987,
              12.760698
            ],
            [
              101.971264,
              12.922087
            ],
            [
              102.022376,
              13.029864
            ],
            [
              102.13932,
              13.034587
            ],
            [
              102.164598,
              13.035142
            ],
            [
              102.307098,
              12.795698
            ],
            [
              102.305153,
              12.749309
            ],
            [
              102.260987,
              12.66792
            ],
            [
              102.188487,
              12.569309
            ],
            [
              102.132931,
              12.560142
            ]
          ]
        ]
      }
    },
    {
      "type": "Feature",
      "id": "catchment_3714",
      "properties": {
        "station_id": "3714",
        "station_name": "บ้านขุนซ่อง",
        "catchment_area_km2": 323.2,
        "contributing_cells": 340392
      },
      "geometry": {
        "type": "Polygon",
        "coordinates": [
          [
            [
              101.942098,
              13.073198
            ],
            [
              101.880431,
              13.153753
            ],
            [
              101.897931,
              13.261809
            ],
            [
              101.982376,
              13.33042
            ],
            [
              102.024598,
              13.287364
            ],
            [
              102.030709,
              13.274309
            ],
            [
              102.02932,
              13.187364
            ],
            [
              102.023209,
              13.162364
            ],
            [
              102.020153,
              13.152364
            ],
            [
              102.001264,
              13.126531
            ],
            [
              101.942098,
              13.073198
            ]
          ]
        ]
      }
    },
    {
      "type": "Feature",
      "id": "catchment_1568260",
      "properties": {
        "station_id": "1568260",
        "station_name": "บ้านวังอีแอ่น",
        "catchment_area_km2": 253.22,
        "contributing_cells": 266695
      },
      "geometry": {
        "type": "Polygon",
        "coordinates": [
          [
            [
              101.815987,
              13.068198
            ],
            [
              101.695431,
              13.11042
            ],
            [
              101.691264,
              13.123476
            ],
            [
              101.703764,
              13.149309
            ],
            [
              101.728209,
              13.180976
            ],
            [
              101.825987,
              13.23292
            ],
            [
              101.870987,
              13.240976
            ],
            [
              101.884598,
              13.188476
            ],
            [
              101.88432,
              13.174031
            ],
            [
              101.876264,
              13.102642
            ],
            [
              101.815987,
              13.068198
            ]
          ]
        ]
      }
    },
    {
      "type": "Feature",
      "id": "catchment_8630",
      "properties": {
        "station_id": "8630",
        "station_name": "สะพานคลองวังโตนด",
        "catchment_area_km2": 279.32,
        "contributing_cells": 294177
      },
      "geometry": {
        "type": "Polygon",
        "coordinates": [
          [
            [
              101.952376,
              13.11542
            ],
            [
              101.889876,
              13.164864
            ],
            [
              101.879876,
              13.228198
            ],
            [
              101.900153,
              13.261253
            ],
            [
              101.975153,
              13.332642
            ],
            [
              101.98682,
              13.32292
            ],
            [
              101.997376,
              13.311809
            ],
            [
              102.028487,
              13.279031
            ],
            [
              102.032653,
              13.217087
            ],
            [
              102.021542,
              13.184309
            ],
            [
              102.008764,
              13.170142
            ],
            [
              101.952376,
              13.11542
            ]
          ]
        ]
      }
    },
    {
      "type": "Feature",
      "id": "catchment_1208",
      "properties": {
        "station_id": "1208",
        "station_name": "แก่งหางแมว",
        "catchment_area_km2": 730.4,
        "contributing_cells": 769263
      },
      "geometry": {
        "type": "Polygon",
        "coordinates": [
          [
            [
              101.956264,
              12.983476
            ],
            [
              101.89932,
              12.98542
            ],
            [
              101.870153,
              13.008476
            ],
            [
              101.879042,
              13.227364
            ],
            [
              101.971264,
              13.324864
            ],
            [
              101.978487,
              13.318198
            ],
            [
              102.148209,
              13.082642
            ],
            [
              102.132098,
              13.048476
            ],
            [
              101.994876,
              12.997087
            ],
            [
              101.956264,
              12.983476
            ]
          ]
        ]
      }
    },
    {
      "type": "Feature",
      "id": "catchment_7298",
      "properties": {
        "station_id": "7298",
        "station_name": "ตำบลท่าหลวง",
        "catchment_area_km2": 934.86,
        "contributing_cells": 984597
      },
      "geometry": {
        "type": "Polygon",
        "coordinates": [
          [
            [
              102.152931,
              12.656253
            ],
            [
              102.038209,
              12.758198
            ],
            [
              101.979042,
              12.910142
            ],
            [
              101.973209,
              12.931809
            ],
            [
              101.997653,
              12.985142
            ],
            [
              102.025153,
              13.019031
            ],
            [
              102.104876,
              13.051531
            ],
            [
              102.162376,
              13.03542
            ],
            [
              102.307098,
              12.804864
            ],
            [
              102.309876,
              12.787087
            ],
            [
              102.152931,
              12.656253
            ]
          ]
        ]
      }
    },
    {
      "type": "Feature",
      "id": "catchment_8294",
      "properties": {
        "station_id": "8294",
        "station_name": "สถานีวิจัยประมงศรีราชา",
        "catchment_area_km2": 0.83,
        "contributing_cells": 873
      },
      "geometry": {
        "type": "Polygon",
        "coordinates": [
          [
            [
              100.919598,
              13.181809
            ],
            [
              100.888209,
              13.212364
            ],
            [
              100.88432,
              13.216253
            ],
            [
              100.883764,
              13.216809
            ],
            [
              100.885709,
              13.216531
            ],
            [
              100.891264,
              13.211531
            ],
            [
              100.920153,
              13.183753
            ],
            [
              100.919598,
              13.181809
            ]
          ]
        ]
      }
    },
    {
      "type": "Feature",
      "id": "catchment_10127",
      "properties": {
        "station_id": "10127",
        "station_name": "คลองโสน",
        "catchment_area_km2": 153.82,
        "contributing_cells": 162004
      },
      "geometry": {
        "type": "Polygon",
        "coordinates": [
          [
            [
              102.681542,
              12.490976
            ],
            [
              102.548764,
              12.497642
            ],
            [
              102.538209,
              12.500976
            ],
            [
              102.525987,
              12.508476
            ],
            [
              102.510709,
              12.520976
            ],
            [
              102.55432,
              12.570142
            ],
            [
              102.570153,
              12.580976
            ],
            [
              102.619876,
              12.580698
            ],
            [
              102.653764,
              12.57792
            ],
            [
              102.674042,
              12.557364
            ],
            [
              102.702376,
              12.519031
            ],
            [
              102.681542,
              12.490976
            ]
          ]
        ]
      }
    },
    {
      "type": "Feature",
      "id": "catchment_1568257",
      "properties": {
        "station_id": "1568257",
        "station_name": "บ้านคอแล",
        "catchment_area_km2": 61.11,
        "contributing_cells": 64362
      },
      "geometry": {
        "type": "Polygon",
        "coordinates": [
          [
            [
              102.474598,
              12.616531
            ],
            [
              102.458209,
              12.654031
            ],
            [
              102.452931,
              12.696531
            ],
            [
              102.453487,
              12.704309
            ],
            [
              102.45682,
              12.722087
            ],
            [
              102.489876,
              12.741253
            ],
            [
              102.498487,
              12.733476
            ],
            [
              102.503764,
              12.724587
            ],
            [
              102.513487,
              12.66042
            ],
            [
              102.51182,
              12.65792
            ],
            [
              102.474598,
              12.616531
            ]
          ]
        ]
      }
    },
    {
      "type": "Feature",
      "id": "catchment_1568259",
      "properties": {
        "station_id": "1568259",
        "station_name": "บ้านบ่อไร่",
        "catchment_area_km2": 88.88,
        "contributing_cells": 93609
      },
      "geometry": {
        "type": "Polygon",
        "coordinates": [
          [
            [
              102.531264,
              12.571809
            ],
            [
              102.514042,
              12.634587
            ],
            [
              102.51682,
              12.65042
            ],
            [
              102.545987,
              12.654587
            ],
            [
              102.573487,
              12.652087
            ],
            [
              102.643209,
              12.611809
            ],
            [
              102.64182,
              12.589587
            ],
            [
              102.630431,
              12.57292
            ],
            [
              102.531264,
              12.571809
            ]
          ]
        ]
      }
    },
    {
      "type": "Feature",
      "id": "catchment_8631",
      "properties": {
        "station_id": "8631",
        "station_name": "สะพานคลองสะตอ",
        "catchment_area_km2": 43.22,
        "contributing_cells": 45522
      },
      "geometry": {
        "type": "Polygon",
        "coordinates": [
          [
            [
              102.413764,
              12.705142
            ],
            [
              102.404042,
              12.727364
            ],
            [
              102.394876,
              12.755976
            ],
            [
              102.406542,
              12.765142
            ],
            [
              102.412931,
              12.766253
            ],
            [
              102.432931,
              12.764309
            ],
            [
              102.469598,
              12.757087
            ],
            [
              102.491542,
              12.751809
            ],
            [
              102.496264,
              12.744587
            ],
            [
              102.482653,
              12.736253
            ],
            [
              102.421542,
              12.707642
            ],
            [
              102.413764,
              12.705142
            ]
          ]
        ]
      }
    },
    {
      "type": "Feature",
      "id": "catchment_1568261",
      "properties": {
        "station_id": "1568261",
        "station_name": "บ้านคลองพร้าว",
        "catchment_area_km2": 12.29,
        "contributing_cells": 12943
      },
      "geometry": {
        "type": "Polygon",
        "coordinates": [
          [
            [
              102.331542,
              12.01792
            ],
            [
              102.322376,
              12.019031
            ],
            [
              102.303764,
              12.033753
            ],
            [
              102.298764,
              12.051253
            ],
            [
              102.310153,
              12.051531
            ],
            [
              102.318487,
              12.050976
            ],
            [
              102.328487,
              12.049309
            ],
            [
              102.335431,
              12.042642
            ],
            [
              102.337931,
              12.039864
            ],
            [
              102.340709,
              12.027642
            ],
            [
              102.335709,
              12.019587
            ],
            [
              102.333764,
              12.018753
            ],
            [
              102.331542,
              12.01792
            ]
          ]
        ]
      }
    },
    {
      "type": "Feature",
      "id": "catchment_10126",
      "properties": {
        "station_id": "10126",
        "station_name": "คลองประณีต บ.ตลุง",
        "catchment_area_km2": 30.38,
        "contributing_cells": 31992
      },
      "geometry": {
        "type": "Polygon",
        "coordinates": [
          [
            [
              102.402376,
              12.484031
            ],
            [
              102.399876,
              12.485142
            ],
            [
              102.378209,
              12.499587
            ],
            [
              102.374876,
              12.507087
            ],
            [
              102.370987,
              12.524587
            ],
            [
              102.389876,
              12.534031
            ],
            [
              102.400987,
              12.538753
            ],
            [
              102.41182,
              12.542087
            ],
            [
              102.419598,
              12.533476
            ],
            [
              102.436542,
              12.50292
            ],
            [
              102.430431,
              12.495142
            ],
            [
              102.402376,
              12.484031
            ]
          ]
        ]
      }
    },
    {
      "type": "Feature",
      "id": "catchment_3610",
      "properties": {
        "station_id": "3610",
        "station_name": "บ้านศรีบัวทอง",
        "catchment_area_km2": 796.09,
        "contributing_cells": 838447
      },
      "geometry": {
        "type": "Polygon",
        "coordinates": [
          [
            [
              102.47682,
              12.475142
            ],
            [
              102.342098,
              12.597642
            ],
            [
              102.330709,
              12.660142
            ],
            [
              102.326264,
              12.772087
            ],
            [
              102.324876,
              12.809031
            ],
            [
              102.347098,
              12.804031
            ],
            [
              102.467376,
              12.755142
            ],
            [
              102.48682,
              12.741531
            ],
            [
              102.654598,
              12.559309
            ],
            [
              102.669598,
              12.529587
            ],
            [
              102.659876,
              12.515142
            ],
            [
              102.47682,
              12.475142
            ]
          ]
        ]
      }
    },
    {
      "type": "Feature",
      "id": "catchment_1568256",
      "properties": {
        "station_id": "1568256",
        "station_name": "บ้านหนองบัว",
        "catchment_area_km2": 322.79,
        "contributing_cells": 339968
      },
      "geometry": {
        "type": "Polygon",
        "coordinates": [
          [
            [
              102.447376,
              12.540698
            ],
            [
              102.400153,
              12.55792
            ],
            [
              102.366264,
              12.574864
            ],
            [
              102.341264,
              12.604309
            ],
            [
              102.336264,
              12.620976
            ],
            [
              102.320987,
              12.773753
            ],
            [
              102.324042,
              12.806809
            ],
            [
              102.336542,
              12.80542
            ],
            [
              102.352098,
              12.800976
            ],
            [
              102.477098,
              12.750976
            ],
            [
              102.486264,
              12.745698
            ],
            [
              102.447376,
              12.540698
            ]
          ]
        ]
      }
    },
    {
      "type": "Feature",
      "id": "catchment_3703",
      "properties": {
        "station_id": "3703",
        "station_name": "บ้านเขาสมิง",
        "catchment_area_km2": 35.38,
        "contributing_cells": 37262
      },
      "geometry": {
        "type": "Polygon",
        "coordinates": [
          [
            [
              102.40182,
              12.272364
            ],
            [
              102.378209,
              12.290976
            ],
            [
              102.39932,
              12.350976
            ],
            [
              102.410431,
              12.368476
            ],
            [
              102.414876,
              12.366531
            ],
            [
              102.444876,
              12.350142
            ],
            [
              102.423764,
              12.307087
            ],
            [
              102.40182,
              12.272364
            ]
          ]
        ]
      }
    },
    {
      "type": "Feature",
      "id": "catchment_1568258",
      "properties": {
        "station_id": "1568258",
        "station_name": "บ้านคลองขวาง",
        "catchment_area_km2": 22.68,
        "contributing_cells": 23888
      },
      "geometry": {
        "type": "Polygon",
        "coordinates": [
          [
            [
              102.65432,
              12.345976
            ],
            [
              102.640431,
              12.363476
            ],
            [
              102.637376,
              12.369031
            ],
            [
              102.638487,
              12.376531
            ],
            [
              102.639598,
              12.377364
            ],
            [
              102.65182,
              12.382364
            ],
            [
              102.662376,
              12.385142
            ],
            [
              102.692653,
              12.379309
            ],
            [
              102.700709,
              12.375976
            ],
            [
              102.700987,
              12.367642
            ],
            [
              102.698209,
              12.360698
            ],
            [
              102.693209,
              12.353198
            ],
            [
              102.65432,
              12.345976
            ]
          ]
        ]
      }
    },
    {
      "type": "Feature",
      "id": "catchment_10128",
      "properties": {
        "station_id": "10128",
        "station_name": "คลองเขาระกำ",
        "catchment_area_km2": 1.97,
        "contributing_cells": 2075
      },
      "geometry": {
        "type": "Polygon",
        "coordinates": [
          [
            [
              102.474876,
              12.237642
            ],
            [
              102.460987,
              12.242087
            ],
            [
              102.459876,
              12.244309
            ],
            [
              102.459042,
              12.246531
            ],
            [
              102.458209,
              12.249587
            ],
            [
              102.463209,
              12.254309
            ],
            [
              102.46932,
              12.251253
            ],
            [
              102.473764,
              12.244309
            ],
            [
              102.475153,
              12.24042
            ],
            [
              102.474876,
              12.237642
            ]
          ]
        ]
      }
    },
    {
      "type": "Feature",
      "id": "catchment_1214",
      "properties": {
        "station_id": "1214",
        "station_name": "บางพระ",
        "catchment_area_km2": 23.41,
        "contributing_cells": 24654
      },
      "geometry": {
        "type": "Polygon",
        "coordinates": [
          [
            [
              102.511264,
              12.182642
            ],
            [
              102.507931,
              12.186253
            ],
            [
              102.490153,
              12.206531
            ],
            [
              102.459598,
              12.246809
            ],
            [
              102.461542,
              12.251253
            ],
            [
              102.467931,
              12.251531
            ],
            [
              102.480987,
              12.251531
            ],
            [
              102.504598,
              12.247087
            ],
            [
              102.510987,
              12.239587
            ],
            [
              102.525709,
              12.201809
            ],
            [
              102.525709,
              12.200976
            ],
            [
              102.511264,
              12.182642
            ]
          ]
        ]
      }
    },
    {
      "type": "Feature",
      "id": "catchment_1218",
      "properties": {
        "station_id": "1218",
        "station_name": "ห้วยแร้ง",
        "catchment_area_km2": 419.49,
        "contributing_cells": 441804
      },
      "geometry": {
        "type": "Polygon",
        "coordinates": [
          [
            [
              102.722931,
              12.351531
            ],
            [
              102.543487,
              12.36792
            ],
            [
              102.478209,
              12.411531
            ],
            [
              102.490709,
              12.451809
            ],
            [
              102.517653,
              12.479031
            ],
            [
              102.564042,
              12.490976
            ],
            [
              102.630709,
              12.507642
            ],
            [
              102.709876,
              12.493198
            ],
            [
              102.76932,
              12.42292
            ],
            [
              102.773209,
              12.416531
            ],
            [
              102.776542,
              12.409309
            ],
            [
              102.722931,
              12.351531
            ]
          ]
        ]
      }
    },
    {
      "type": "Feature",
      "id": "catchment_1217",
      "properties": {
        "station_id": "1217",
        "station_name": "เมืองตราด",
        "catchment_area_km2": 1025.07,
        "contributing_cells": 1079605
      },
      "geometry": {
        "type": "Polygon",
        "coordinates": [
          [
            [
              102.411264,
              12.296809
            ],
            [
              102.355709,
              12.610976
            ],
            [
              102.323764,
              12.80792
            ],
            [
              102.483209,
              12.738753
            ],
            [
              102.596542,
              12.614309
            ],
            [
              102.63432,
              12.571253
            ],
            [
              102.669598,
              12.505976
            ],
            [
              102.50182,
              12.323753
            ],
            [
              102.411264,
              12.296809
            ]
          ]
        ]
      }
    },
    {
      "type": "Feature",
      "id": "catchment_5808",
      "properties": {
        "station_id": "5808",
        "station_name": "บ้านค่าย",
        "catchment_area_km2": 2.68,
        "contributing_cells": 2824
      },
      "geometry": {
        "type": "Polygon",
        "coordinates": [
          [
            [
              101.295431,
              12.759587
            ],
            [
              101.291264,
              12.76542
            ],
            [
              101.291542,
              12.772364
            ],
            [
              101.294042,
              12.783753
            ],
            [
              101.294598,
              12.784309
            ],
            [
              101.299598,
              12.785142
            ],
            [
              101.300987,
              12.782087
            ],
            [
              101.30182,
              12.776809
            ],
            [
              101.303209,
              12.762364
            ],
            [
              101.300153,
              12.761253
            ],
            [
              101.295431,
              12.759587
            ]
          ]
        ]
      }
    },
    {
      "type": "Feature",
      "id": "catchment_1198",
      "properties": {
        "station_id": "1198",
        "station_name": "หนองบัว",
        "catchment_area_km2": 1111.8,
        "contributing_cells": 1170951
      },
      "geometry": {
        "type": "Polygon",
        "coordinates": [
          [
            [
              101.08432,
              12.836809
            ],
            [
              101.044598,
              12.857642
            ],
            [
              101.024042,
              12.873198
            ],
            [
              101.036264,
              12.986809
            ],
            [
              101.127931,
              13.179031
            ],
            [
              101.315987,
              13.114864
            ],
            [
              101.369598,
              13.040976
            ],
            [
              101.408209,
              12.980698
            ],
            [
              101.394042,
              12.893476
            ],
            [
              101.300431,
              12.84792
            ],
            [
              101.08432,
              12.836809
            ]
          ]
        ]
      }
    },
    {
      "type": "Feature",
      "id": "catchment_3710",
      "properties": {
        "station_id": "3710",
        "station_name": "บ้านซำฆ้อ",
        "catchment_area_km2": 106.91,
        "contributing_cells": 112593
      },
      "geometry": {
        "type": "Polygon",
        "coordinates": [
          [
            [
              101.67432,
              12.952642
            ],
            [
              101.657098,
              12.959864
            ],
            [
              101.651542,
              12.98292
            ],
            [
              101.650431,
              12.987642
            ],
            [
              101.64432,
              13.044031
            ],
            [
              101.679876,
              13.091809
            ],
            [
              101.691264,
              13.086253
            ],
            [
              101.699598,
              13.079309
            ],
            [
              101.748764,
              13.026253
            ],
            [
              101.750431,
              13.01292
            ],
            [
              101.747653,
              12.998198
            ],
            [
              101.743487,
              12.993476
            ],
            [
              101.67432,
              12.952642
            ]
          ]
        ]
      }
    },
    {
      "type": "Feature",
      "id": "catchment_5807",
      "properties": {
        "station_id": "5807",
        "station_name": "บ้านเขาโบสถ์",
        "catchment_area_km2": 155.05,
        "contributing_cells": 163303
      },
      "geometry": {
        "type": "Polygon",
        "coordinates": [
          [
            [
              101.232931,
              12.732364
            ],
            [
              101.224598,
              12.733476
            ],
            [
              101.192098,
              12.751809
            ],
            [
              101.16932,
              12.766253
            ],
            [
              101.117098,
              12.807642
            ],
            [
              101.096264,
              12.835142
            ],
            [
              101.09932,
              12.845142
            ],
            [
              101.109876,
              12.85292
            ],
            [
              101.131542,
              12.861253
            ],
            [
              101.178209,
              12.86542
            ],
            [
              101.203764,
              12.851809
            ],
            [
              101.242098,
              12.813198
            ],
            [
              101.245709,
              12.796253
            ],
            [
              101.232931,
              12.732364
            ]
          ]
        ]
      }
    },
    {
      "type": "Feature",
      "id": "catchment_1196",
      "properties": {
        "station_id": "1196",
        "station_name": "ชุมชนประแส",
        "catchment_area_km2": 20.51,
        "contributing_cells": 21605
      },
      "geometry": {
        "type": "Polygon",
        "coordinates": [
          [
            [
              101.702653,
              12.717642
            ],
            [
              101.698764,
              12.757087
            ],
            [
              101.728487,
              12.786253
            ],
            [
              101.743764,
              12.789864
            ],
            [
              101.746264,
              12.785698
            ],
            [
              101.748764,
              12.78042
            ],
            [
              101.722931,
              12.731253
            ],
            [
              101.715709,
              12.720976
            ],
            [
              101.708487,
              12.718476
            ],
            [
              101.702653,
              12.717642
            ]
          ]
        ]
      }
    },
    {
      "type": "Feature",
      "id": "catchment_3711",
      "properties": {
        "station_id": "3711",
        "station_name": "บ้านเขาวังไทร",
        "catchment_area_km2": 1377.24,
        "contributing_cells": 1450516
      },
      "geometry": {
        "type": "Polygon",
        "coordinates": [
          [
            [
              101.617098,
              12.857364
            ],
            [
              101.425431,
              12.869309
            ],
            [
              101.399876,
              12.876253
            ],
            [
              101.383764,
              12.93542
            ],
            [
              101.333209,
              13.162642
            ],
            [
              101.373764,
              13.194309
            ],
            [
              101.508209,
              13.27292
            ],
            [
              101.588209,
              13.291809
            ],
            [
              101.622931,
              13.291809
            ],
            [
              101.637376,
              13.28542
            ],
            [
              101.700709,
              13.180142
            ],
            [
              101.696542,
              13.152642
            ],
            [
              101.617098,
              12.857364
            ]
          ]
        ]
      }
    },
    {
      "type": "Feature",
      "id": "catchment_1195",
      "properties": {
        "station_id": "1195",
        "station_name": "เมืองแกลง",
        "catchment_area_km2": 1573.78,
        "contributing_cells": 1657516
      },
      "geometry": {
        "type": "Polygon",
        "coordinates": [
          [
            [
              101.650987,
              12.801531
            ],
            [
              101.611542,
              12.810142
            ],
            [
              101.414876,
              12.860142
            ],
            [
              101.327098,
              13.150976
            ],
            [
              101.33682,
              13.169031
            ],
            [
              101.568209,
              13.316531
            ],
            [
              101.612653,
              13.306531
            ],
            [
              101.678209,
              13.238198
            ],
            [
              101.700431,
              13.190142
            ],
            [
              101.699876,
              12.882364
            ],
            [
              101.650987,
              12.801531
            ]
          ]
        ]
      }
    }
  ]
}