{
  "type": "FeatureCollection",
  "features": [
    {
      "type": "Feature",
      "properties": {
        "basin_slug": "east-coast",
        "basin_name_th": "ลุ่มน้ำชายฝั่งทะเลตะวันออก",
        "source": "ThaiWater (HII Official)",
        "min_lat": 11.562,
        "max_lat": 13.471,
        "min_lon": 100.834,
        "max_lon": 102.911
      },
      "geometry": {
        "type": "MultiPolygon",
        "coordinates": [
          [
            [
              [
                100.979,
                13.47
              ],
              [
                100.968,
                13.43
              ],
              [
                100.984,
                13.397
              ],
              [
                100.977,
                13.358
              ],
              [
                100.926,
                13.342
              ],
              [
                100.898,
                13.302
              ],
              [
                100.927,
                13.257
              ],
              [
                100.93,
                13.191
              ],
              [
                100.911,
                13.156
              ],
              [
                100.879,
                13.109
              ],
              [
                100.872,
                13.076
              ],
              [
                100.885,
                13.06
              ],
              [
                100.905,
                13.056
              ],
              [
                100.906,
                13.052
              ],
              [
                100.891,
                13.047
              ],
              [
                100.915,
                13.045
              ],
              [
                100.928,
                13.008
              ],
              [
                100.907,
                12.976
              ],
              [
                100.894,
                12.974
              ],
              [
                100.893,
                12.974
              ],
              [
                100.889,
                12.973
              ],
              [
                100.884,
                12.94
              ],
              [
                100.856,
                12.909
              ],
              [
                100.881,
                12.883
              ],
              [
                100.912,
                12.814
              ],
              [
                100.888,
                12.763
              ],
              [
                100.878,
                12.761
              ],
              [
                100.86,
                12.767
              ],
              [
                100.834,
                12.734
              ],
              [
                100.838,
                12.699
              ],
              [
                100.861,
                12.653
              ],
              [
                100.886,
                12.654
              ],
              [
                100.908,
                12.661
              ],
              [
                100.916,
                12.623
              ],
              [
                100.964,
                12.595
              ],
              [
                100.966,
                12.633
              ],
              [
                100.98,
                12.651
              ],
              [
                101.038,
                12.664
              ],
              [
                101.045,
                12.666
              ],
              [
                101.066,
                12.675
              ],
              [
                101.133,
                12.675
              ],
              [
                101.144,
                12.654
              ],
              [
                101.147,
                12.65
              ],
              [
                101.144,
                12.654
              ],
              [
                101.151,
                12.668
              ],
              [
                101.149,
                12.668
              ],
              [
                101.151,
                12.668
              ],
              [
                101.158,
                12.671
              ],
              [
                101.216,
                12.668
              ],
              [
                101.216,
                12.667
              ],
              [
                101.216,
                12.668
              ],
              [
                101.216,
                12.667
              ],
              [
                101.285,
                12.655
              ],
              [
                101.38,
                12.614
              ],
              [
                101.41,
                12.596
              ],
              [
                101.43,
                12.621
              ],
              [
                101.431,
                12.621
              ],
              [
                101.434,
                12.624
              ],
              [
                101.436,
                12.626
              ],
              [
                101.437,
                12.626
              ],
              [
                101.436,
                12.626
              ],
              [
                101.437,
                12.626
              ],
              [
                101.497,
                12.628
              ],
              [
                101.503,
                12.632
              ],
              [
                101.565,
                12.632
              ],
              [
                101.576,
                12.652
              ],
              [
                101.646,
                12.643
              ],
              [
                101.647,
                12.645
              ],
              [
                101.654,
                12.656
              ],
              [
                101.665,
                12.673
              ],
              [
                101.666,
                12.673
              ],
              [
                101.665,
                12.673
              ],
              [
                101.666,
                12.673
              ],
              [
                101.668,
                12.678
              ],
              [
                101.707,
                12.698
              ],
              [
                101.725,
                12.705
              ],
              [
                101.743,
                12.707
              ],
              [
                101.746,
                12.707
              ],
              [
                101.811,
                12.68
              ],
              [
                101.857,
                12.646
              ],
              [
                101.87,
                12.608
              ],
              [
                101.884,
                12.587
              ],
              [
                101.885,
                12.586
              ],
              [
                101.884,
                12.587
              ],
              [
                101.926,
                12.545
              ],
              [
                101.929,
                12.536
              ],
              [
                101.948,
                12.539
              ],
              [
                101.947,
                12.539
              ],
              [
                101.948,
                12.539
              ],
              [
                101.947,
                12.539
              ],
              [
                101.944,
                12.568
              ],
              [
                101.934,
                12.581
              ],
              [
                101.931,
                12.593
              ],
              [
                101.963,
                12.58
              ],
              [
                101.95,
                12.543
              ],
              [
                101.988,
                12.54
              ],
              [
                102.021,
                12.522
              ],
              [
                102.036,
                12.489
              ],
              [
                102.041,
                12.488
              ],
              [
                102.046,
                12.487
              ],
              [
                102.058,
                12.476
              ],
              [
                102.087,
                12.467
              ],
              [
                102.124,
                12.418
              ],
              [
                102.153,
                12.401
              ],
              [
                102.214,
                12.333
              ],
              [
                102.256,
                12.304
              ],
              [
                102.261,
                12.287
              ],
              [
                102.285,
                12.242
              ],
              [
                102.282,
                12.222
              ],
              [
                102.281,
                12.215
              ],
              [
                102.278,
                12.205
              ],
              [
                102.277,
                12.205
              ],
              [
                102.278,
                12.205
              ],
              [
                102.321,
                12.183
              ],
              [
                102.366,
                12.193
              ],
              [
                102.396,
                12.169
              ],
              [
                102.466,
                12.165
              ],
              [
                102.49,
                12.134
              ],
              [
                102.527,
                12.118
              ],
              [
                102.551,
                12.084
              ],
              [
                102.557,
                12.055
              ],
              [
                102.587,
                12.049
              ],
              [
                102.587,
                12.064
              ],
              [
                102.559,
                12.095
              ],
              [
                102.561,
                12.126
              ],
              [
                102.56,
                12.14
              ],
              [
                102.561,
                12.142
              ],
              [
                102.559,
                12.15
              ],
              [
                102.572,
                12.166
              ],
              [
                102.573,
                12.166
              ],
              [
                102.561,
                12.182
              ],
              [
                102.561,
                12.187
              ],
              [
                102.559,
                12.206
              ],
              [
                102.561,
                12.206
              ],
              [
                102.568,
                12.206
              ],
              [
                102.572,
                12.205
              ],
              [
                102.573,
                12.205
              ],
              [
                102.599,
                12.204
              ],
              [
                102.647,
                12.166
              ],
              [
                102.645,
                12.158
              ],
              [
                102.637,
                12.14
              ],
              [
                102.744,
                12.052
              ],
              [
                102.744,
                12.051
              ],
              [
                102.766,
                12.022
              ],
              [
                102.767,
                11.979
              ],
              [
                102.784,
                11.948
              ],
              [
                102.776,
                11.908
              ],
              [
                102.836,
                11.831
              ],
              [
                102.889,
                11.758
              ],
              [
                102.9,
                11.735
              ],
              [
                102.899,
                11.733
              ],
              [
                102.9,
                11.732
              ],
              [
                102.911,
                11.744
              ],
              [
                102.886,
                11.8
              ],
              [
                102.868,
                11.805
              ],
              [
                102.821,
                11.887
              ],
              [
                102.809,
                11.945
              ],
              [
                102.784,
                11.977
              ],
              [
                102.772,
                12.07
              ],
              [
                102.737,
                12.107
              ],
              [
                102.705,
                12.172
              ],
              [
                102.718,
                12.221
              ],
              [
                102.714,
                12.262
              ],
              [
                102.726,
                12.3
              ],
              [
                102.725,
                12.358
              ],
              [
                102.743,
                12.388
              ],
              [
                102.784,
                12.401
              ],
              [
                102.787,
                12.42
              ],
              [
                102.764,
                12.457
              ],
              [
                102.709,
                12.512
              ],
              [
                102.645,
                12.612
              ],
              [
                102.617,
                12.615
              ],
              [
                102.566,
                12.658
              ],
              [
                102.533,
                12.653
              ],
              [
                102.51,
                12.67
              ],
              [
                102.5,
                12.739
              ],
              [
                102.5,
                12.74
              ],
              [
                102.458,
                12.763
              ],
              [
                102.409,
                12.769
              ],
              [
                102.385,
                12.761
              ],
              [
                102.355,
                12.811
              ],
              [
                102.323,
                12.808
              ],
              [
                102.314,
                12.817
              ],
              [
                102.279,
                12.854
              ],
              [
                102.255,
                12.891
              ],
              [
                102.202,
                12.926
              ],
              [
                102.174,
                12.976
              ],
              [
                102.186,
                12.996
              ],
              [
                102.178,
                13.004
              ],
              [
                102.166,
                13.038
              ],
              [
                102.167,
                13.038
              ],
              [
                102.166,
                13.038
              ],
              [
                102.161,
                13.045
              ],
              [
                102.154,
                13.085
              ],
              [
                102.128,
                13.105
              ],
              [
                102.115,
                13.129
              ],
              [
                102.07,
                13.135
              ],
              [
                102.064,
                13.141
              ],
              [
                102.038,
                13.161
              ],
              [
                102.037,
                13.188
              ],
              [
                102.034,
                13.196
              ],
              [
                102.032,
                13.203
              ],
              [
                102.033,
                13.208
              ],
              [
                102.028,
                13.267
              ],
              [
                101.991,
                13.333
              ],
              [
                101.956,
                13.299
              ],
              [
                101.906,
                13.287
              ],
              [
                101.904,
                13.269
              ],
              [
                101.876,
                13.223
              ],
              [
                101.873,
                13.241
              ],
              [
                101.825,
                13.233
              ],
              [
                101.772,
                13.183
              ],
              [
                101.714,
                13.206
              ],
              [
                101.688,
                13.232
              ],
              [
                101.687,
                13.244
              ],
              [
                101.638,
                13.292
              ],
              [
                101.636,
                13.29
              ],
              [
                101.606,
                13.308
              ],
              [
                101.599,
                13.305
              ],
              [
                101.595,
                13.312
              ],
              [
                101.592,
                13.314
              ],
              [
                101.578,
                13.328
              ],
              [
                101.564,
                13.325
              ],
              [
                101.563,
                13.324
              ],
              [
                101.566,
                13.307
              ],
              [
                101.563,
                13.304
              ],
              [
                101.562,
                13.3
              ],
              [
                101.507,
                13.284
              ],
              [
                101.505,
                13.235
              ],
              [
                101.502,
                13.199
              ],
              [
                101.488,
                13.193
              ],
              [
                101.446,
                13.155
              ],
              [
                101.416,
                13.166
              ],
              [
                101.412,
                13.177
              ],
              [
                101.392,
                13.199
              ],
              [
                101.381,
                13.214
              ],
              [
                101.346,
                13.191
              ],
              [
                101.322,
                13.143
              ],
              [
                101.3,
                13.12
              ],
              [
                101.234,
                13.107
              ],
              [
                101.207,
                13.129
              ],
              [
                101.205,
                13.132
              ],
              [
                101.19,
                13.148
              ],
              [
                101.148,
                13.142
              ],
              [
                101.128,
                13.181
              ],
              [
                101.089,
                13.184
              ],
              [
                101.074,
                13.218
              ],
              [
                101.061,
                13.232
              ],
              [
                101.062,
                13.243
              ],
              [
                101.059,
                13.261
              ],
              [
                101.024,
                13.286
              ],
              [
                101.041,
                13.319
              ],
              [
                101.034,
                13.354
              ],
              [
                101.002,
                13.405
              ],
              [
                100.993,
                13.471
              ],
              [
                100.979,
                13.47
              ]
            ]
          ],
          [
            [
              [
                102.368,
                12.082
              ],
              [
                102.323,
                12.136
              ],
              [
                102.285,
                12.142
              ],
              [
                102.251,
                12.154
              ],
              [
                102.25,
                12.136
              ],
              [
                102.252,
                12.131
              ],
              [
                102.276,
                12.093
              ],
              [
                102.279,
                12.065
              ],
              [
                102.293,
                12.043
              ],
              [
                102.288,
                12.012
              ],
              [
                102.314,
                11.969
              ],
              [
                102.33,
                11.975
              ],
              [
                102.361,
                11.965
              ],
              [
                102.361,
                11.967
              ],
              [
                102.361,
                11.965
              ],
              [
                102.375,
                11.983
              ],
              [
                102.413,
                11.968
              ],
              [
                102.42,
                11.966
              ],
              [
                102.44,
                11.971
              ],
              [
                102.427,
                11.997
              ],
              [
                102.384,
                12.06
              ],
              [
                102.368,
                12.082
              ]
            ]
          ],
          [
            [
              [
                102.568,
                11.578
              ],
              [
                102.594,
                11.562
              ],
              [
                102.592,
                11.615
              ],
              [
                102.603,
                11.625
              ],
              [
                102.605,
                11.688
              ],
              [
                102.589,
                11.704
              ],
              [
                102.567,
                11.7
              ],
              [
                102.565,
                11.744
              ],
              [
                102.535,
                11.726
              ],
              [
                102.536,
                11.697
              ],
              [
                102.533,
                11.698
              ],
              [
                102.533,
                11.674
              ],
              [
                102.543,
                11.621
              ],
              [
                102.557,
                11.592
              ],
              [
                102.568,
                11.578
              ]
            ]
          ],
          [
            [
              [
                102.473,
                11.832
              ],
              [
                102.451,
                11.822
              ],
              [
                102.446,
                11.808
              ],
              [
                102.452,
                11.814
              ],
              [
                102.477,
                11.833
              ],
              [
                102.473,
                11.832
              ]
            ]
          ],
          [
            [
              [
                101.45,
                12.582
              ],
              [
                101.446,
                12.525
              ],
              [
                101.447,
                12.525
              ],
              [
                101.446,
                12.525
              ],
              [
                101.45,
                12.54
              ],
              [
                101.453,
                12.555
              ],
              [
                101.469,
                12.567
              ],
              [
                101.45,
                12.582
              ]
            ]
          ],
          [
            [
              [
                102.346,
                11.901
              ],
              [
                102.343,
                11.906
              ],
              [
                102.344,
                11.901
              ],
              [
                102.346,
                11.901
              ]
            ]
          ],
          [
            [
              [
                102.386,
                11.778
              ],
              [
                102.391,
                11.787
              ],
              [
                102.383,
                11.797
              ],
              [
                102.384,
                11.787
              ],
              [
                102.384,
                11.784
              ],
              [
                102.386,
                11.779
              ],
              [
                102.386,
                11.778
              ],
              [
                102.386,
                11.779
              ],
              [
                102.386,
                11.778
              ]
            ]
          ],
          [
            [
              [
                101.698,
                12.567
              ],
              [
                101.699,
                12.567
              ],
              [
                101.701,
                12.571
              ],
              [
                101.698,
                12.569
              ],
              [
                101.698,
                12.567
              ],
              [
                101.699,
                12.567
              ],
              [
                101.698,
                12.567
              ]
            ]
          ],
          [
            [
              [
                102.559,
                12.206
              ],
              [
                102.572,
                12.204
              ],
              [
                102.573,
                12.205
              ],
              [
                102.572,
                12.205
              ],
              [
                102.568,
                12.206
              ],
              [
                102.561,
                12.206
              ],
              [
                102.559,
                12.206
              ]
            ]
          ],
          [
            [
              [
                102.424,
                12.051
              ],
              [
                102.426,
                12.048
              ],
              [
                102.427,
                12.048
              ],
              [
                102.426,
                12.048
              ],
              [
                102.427,
                12.048
              ],
              [
                102.424,
                12.051
              ]
            ]
          ],
          [
            [
              [
                101.17,
                12.647
              ],
              [
                101.171,
                12.646
              ],
              [
                101.171,
                12.647
              ],
              [
                101.17,
                12.647
              ]
            ]
          ],
          [
            [
              [
                102.276,
                12.204
              ],
              [
                102.277,
                12.205
              ],
              [
                102.276,
                12.205
              ],
              [
                102.275,
                12.205
              ],
              [
                102.276,
                12.205
              ],
              [
                102.276,
                12.204
              ]
            ]
          ],
          [
            [
              [
                102.275,
                12.205
              ],
              [
                102.276,
                12.204
              ],
              [
                102.276,
                12.205
              ],
              [
                102.275,
                12.205
              ]
            ]
          ]
        ]
      }
    }
  ]
}