{
  "type": "FeatureCollection",
  "features": [
    {
      "type": "Feature",
      "properties": {
        "basin_slug": "sakaekrang",
        "basin_name_th": "ลุ่มน้ำสะแกกรัง",
        "source": "ThaiWater (HII Official)",
        "min_lat": 15.286,
        "max_lat": 16.095,
        "min_lon": 99.083,
        "max_lon": 100.114
      },
      "geometry": {
        "type": "Polygon",
        "coordinates": [
          [
            [
              99.43,
              15.981
            ],
            [
              99.414,
              15.979
            ],
            [
              99.408,
              15.969
            ],
            [
              99.399,
              15.958
            ],
            [
              99.384,
              15.946
            ],
            [
              99.359,
              15.945
            ],
            [
              99.347,
              15.95
            ],
            [
              99.314,
              15.971
            ],
            [
              99.313,
              15.99
            ],
            [
              99.259,
              15.984
            ],
            [
              99.251,
              15.966
            ],
            [
              99.202,
              16.048
            ],
            [
              99.172,
              16.057
            ],
            [
              99.125,
              16.095
            ],
            [
              99.108,
              16.086
            ],
            [
              99.115,
              16.061
            ],
            [
              99.083,
              16.022
            ],
            [
              99.083,
              16.013
            ],
            [
              99.088,
              15.98
            ],
            [
              99.086,
              15.952
            ],
            [
              99.087,
              15.947
            ],
            [
              99.088,
              15.898
            ],
            [
              99.097,
              15.871
            ],
            [
              99.097,
              15.831
            ],
            [
              99.137,
              15.797
            ],
            [
              99.194,
              15.779
            ],
            [
              99.212,
              15.732
            ],
            [
              99.211,
              15.729
            ],
            [
              99.224,
              15.704
            ],
            [
              99.224,
              15.653
            ],
            [
              99.253,
              15.632
            ],
            [
              99.243,
              15.51
            ],
            [
              99.256,
              15.487
            ],
            [
              99.32,
              15.492
            ],
            [
              99.35,
              15.44
            ],
            [
              99.343,
              15.386
            ],
            [
              99.365,
              15.367
            ],
            [
              99.385,
              15.397
            ],
            [
              99.443,
              15.395
            ],
            [
              99.496,
              15.44
            ],
            [
              99.582,
              15.441
            ],
            [
              99.598,
              15.412
            ],
            [
              99.633,
              15.399
            ],
            [
              99.686,
              15.417
            ],
            [
              99.758,
              15.361
            ],
            [
              99.768,
              15.337
            ],
            [
              99.797,
              15.322
            ],
            [
              99.835,
              15.329
            ],
            [
              99.861,
              15.306
            ],
            [
              99.886,
              15.315
            ],
            [
              99.963,
              15.323
            ],
            [
              100.044,
              15.305
            ],
            [
              100.055,
              15.286
            ],
            [
              100.08,
              15.304
            ],
            [
              100.099,
              15.338
            ],
            [
              100.074,
              15.382
            ],
            [
              100.11,
              15.452
            ],
            [
              100.114,
              15.508
            ],
            [
              100.086,
              15.541
            ],
            [
              100.047,
              15.547
            ],
            [
              99.976,
              15.525
            ],
            [
              99.94,
              15.533
            ],
            [
              99.942,
              15.625
            ],
            [
              99.927,
              15.685
            ],
            [
              99.942,
              15.735
            ],
            [
              99.932,
              15.747
            ],
            [
              99.878,
              15.753
            ],
            [
              99.854,
              15.746
            ],
            [
              99.809,
              15.756
            ],
            [
              99.742,
              15.757
            ],
            [
              99.642,
              15.849
            ],
            [
              99.656,
              15.889
            ],
            [
              99.621,
              15.938
            ],
            [
              99.558,
              15.976
            ],
            [
              99.494,
              15.985
            ],
            [
              99.437,
              15.967
            ],
            [
              99.433,
              15.974
            ],
            [
              99.43,
              15.981
            ]
          ]
        ]
      }
    }
  ]
}