{
  "type": "FeatureCollection",
  "features": [
    {
      "type": "Feature",
      "id": "catchment_1697",
      "properties": {
        "station_id": "1697",
        "station_name": "สะพานต้นน้ำ (เกาะแก้ว-ตลิ่งสูง)",
        "catchment_area_km2": 26.33,
        "contributing_cells": 27729
      },
      "geometry": {
        "type": "Polygon",
        "coordinates": [
          [
            [
              99.411872,
              15.91707
            ],
            [
              99.39715,
              15.919848
            ],
            [
              99.36965,
              15.935403
            ],
            [
              99.36715,
              15.93957
            ],
            [
              99.368817,
              15.944014
            ],
            [
              99.370761,
              15.945959
            ],
            [
              99.411317,
              15.97707
            ],
            [
              99.422428,
              15.979014
            ],
            [
              99.429928,
              15.978459
            ],
            [
              99.437983,
              15.958737
            ],
            [
              99.418817,
              15.920681
            ],
            [
              99.411872,
              15.91707
            ]
          ]
        ]
      }
    },
    {
      "type": "Feature",
      "id": "catchment_1696",
      "properties": {
        "station_id": "1696",
        "station_name": "สะพานแม่วงก์",
        "catchment_area_km2": 746.03,
        "contributing_cells": 785724
      },
      "geometry": {
        "type": "Polygon",
        "coordinates": [
          [
            [
              99.200761,
              15.770126
            ],
            [
              99.178817,
              15.811514
            ],
            [
              99.163261,
              15.84457
            ],
            [
              99.158817,
              15.984014
            ],
            [
              99.196317,
              16.016792
            ],
            [
              99.208539,
              16.015959
            ],
            [
              99.402983,
              15.947903
            ],
            [
              99.429094,
              15.937903
            ],
            [
              99.477983,
              15.907348
            ],
            [
              99.43715,
              15.780126
            ],
            [
              99.200761,
              15.770126
            ]
          ]
        ]
      }
    },
    {
      "type": "Feature",
      "id": "catchment_1665",
      "properties": {
        "station_id": "1665",
        "station_name": "คลองกลาง",
        "catchment_area_km2": 121.77,
        "contributing_cells": 128248
      },
      "geometry": {
        "type": "Polygon",
        "coordinates": [
          [
            [
              99.653817,
              15.781792
            ],
            [
              99.518539,
              15.782626
            ],
            [
              99.502983,
              15.786792
            ],
            [
              99.494094,
              15.78957
            ],
            [
              99.48465,
              15.810403
            ],
            [
              99.478539,
              15.825959
            ],
            [
              99.466317,
              15.85707
            ],
            [
              99.500206,
              15.87207
            ],
            [
              99.618539,
              15.824014
            ],
            [
              99.653817,
              15.781792
            ]
          ]
        ]
      }
    },
    {
      "type": "Feature",
      "id": "catchment_3853",
      "properties": {
        "station_id": "3853",
        "station_name": "บ้านศาลเจ้าไก่ต่อ",
        "catchment_area_km2": 951.72,
        "contributing_cells": 1002355
      },
      "geometry": {
        "type": "Polygon",
        "coordinates": [
          [
            [
              99.204372,
              15.76707
            ],
            [
              99.169094,
              15.797903
            ],
            [
              99.159928,
              15.840126
            ],
            [
              99.160483,
              15.867903
            ],
            [
              99.167428,
              15.993737
            ],
            [
              99.17715,
              16.037626
            ],
            [
              99.49965,
              15.984292
            ],
            [
              99.544094,
              15.975959
            ],
            [
              99.556317,
              15.971514
            ],
            [
              99.625206,
              15.91707
            ],
            [
              99.67965,
              15.785681
            ],
            [
              99.204372,
              15.76707
            ]
          ]
        ]
      }
    },
    {
      "type": "Feature",
      "id": "catchment_3872",
      "properties": {
        "station_id": "3872",
        "station_name": "บ้านปางมะค่า",
        "catchment_area_km2": 2.76,
        "contributing_cells": 2907
      },
      "geometry": {
        "type": "Polygon",
        "coordinates": [
          [
            [
              99.502428,
              15.933737
            ],
            [
              99.498261,
              15.936792
            ],
            [
              99.493539,
              15.942903
            ],
            [
              99.492983,
              15.944014
            ],
            [
              99.492983,
              15.947348
            ],
            [
              99.493261,
              15.947903
            ],
            [
              99.496039,
              15.94957
            ],
            [
              99.499372,
              15.951237
            ],
            [
              99.508539,
              15.951792
            ],
            [
              99.50965,
              15.951237
            ],
            [
              99.510483,
              15.950403
            ],
            [
              99.50965,
              15.941237
            ],
            [
              99.504372,
              15.934292
            ],
            [
              99.502428,
              15.933737
            ]
          ]
        ]
      }
    },
    {
      "type": "Feature",
      "id": "catchment_1670",
      "properties": {
        "station_id": "1670",
        "station_name": "สะพานแม่เล่ย์",
        "catchment_area_km2": 60.64,
        "contributing_cells": 63864
      },
      "geometry": {
        "type": "Polygon",
        "coordinates": [
          [
            [
              99.396594,
              15.777903
            ],
            [
              99.37715,
              15.779014
            ],
            [
              99.334928,
              15.781514
            ],
            [
              99.322428,
              15.787626
            ],
            [
              99.311317,
              15.796237
            ],
            [
              99.322983,
              15.822626
            ],
            [
              99.419372,
              15.845959
            ],
            [
              99.42215,
              15.833459
            ],
            [
              99.399094,
              15.780681
            ],
            [
              99.396594,
              15.777903
            ]
          ]
        ]
      }
    },
    {
      "type": "Feature",
      "id": "catchment_7986",
      "properties": {
        "station_id": "7986",
        "station_name": "ท้ายเขื่อนวังร่มเกล้า",
        "catchment_area_km2": 4068.14,
        "contributing_cells": 4284579
      },
      "geometry": {
        "type": "Polygon",
        "coordinates": [
          [
            [
              99.427706,
              15.398737
            ],
            [
              99.291039,
              15.498459
            ],
            [
              99.179928,
              15.825403
            ],
            [
              99.174094,
              15.956514
            ],
            [
              99.224372,
              15.960126
            ],
            [
              99.542428,
              15.978737
            ],
            [
              99.93965,
              15.575126
            ],
            [
              99.967428,
              15.501514
            ],
            [
              99.941594,
              15.443181
            ],
            [
              99.427706,
              15.398737
            ]
          ]
        ]
      }
    },
    {
      "type": "Feature",
      "id": "catchment_3823",
      "properties": {
        "station_id": "3823",
        "station_name": "บ้านบุ่งอ้ายเจี้ยม",
        "catchment_area_km2": 552.38,
        "contributing_cells": 581767
      },
      "geometry": {
        "type": "Polygon",
        "coordinates": [
          [
            [
              99.377428,
              15.382903
            ],
            [
              99.365206,
              15.384292
            ],
            [
              99.346317,
              15.387626
            ],
            [
              99.245761,
              15.50207
            ],
            [
              99.209094,
              15.765403
            ],
            [
              99.334928,
              15.68707
            ],
            [
              99.33965,
              15.683181
            ],
            [
              99.484928,
              15.517903
            ],
            [
              99.377428,
              15.382903
            ]
          ]
        ]
      }
    },
    {
      "type": "Feature",
      "id": "catchment_3819",
      "properties": {
        "station_id": "3819",
        "station_name": "บ้านดอนใหญ่",
        "catchment_area_km2": 4095.51,
        "contributing_cells": 4313403
      },
      "geometry": {
        "type": "Polygon",
        "coordinates": [
          [
            [
              99.348261,
              15.402348
            ],
            [
              99.267428,
              15.514848
            ],
            [
              99.204928,
              15.765959
            ],
            [
              99.182983,
              15.92707
            ],
            [
              99.218817,
              16.012903
            ],
            [
              99.520483,
              15.977903
            ],
            [
              99.57715,
              15.951792
            ],
            [
              99.921872,
              15.609014
            ],
            [
              100.032428,
              15.451237
            ],
            [
              99.85715,
              15.422903
            ],
            [
              99.348261,
              15.402348
            ]
          ]
        ]
      }
    },
    {
      "type": "Feature",
      "id": "catchment_3812",
      "properties": {
        "station_id": "3812",
        "station_name": "บ้านหาดทนง",
        "catchment_area_km2": 6240.6,
        "contributing_cells": 6572623
      },
      "geometry": {
        "type": "Polygon",
        "coordinates": [
          [
            [
              100.057706,
              15.40957
            ],
            [
              99.440761,
              15.426792
            ],
            [
              99.200761,
              15.76957
            ],
            [
              99.166317,
              15.912348
            ],
            [
              99.205483,
              15.958737
            ],
            [
              99.735761,
              16.055403
            ],
            [
              99.895761,
              15.95457
            ],
            [
              100.073261,
              15.821237
            ],
            [
              100.10215,
              15.596514
            ],
            [
              100.057706,
              15.40957
            ]
          ]
        ]
      }
    }
  ]
}