{
  "type": "FeatureCollection",
  "features": [
    {
      "type": "Feature",
      "id": "catchment_5697",
      "properties": {
        "station_id": "5697",
        "station_name": "บ้านหนองไข่น้ำ",
        "catchment_area_km2": 5.31,
        "contributing_cells": 5596
      },
      "geometry": {
        "type": "Polygon",
        "coordinates": [
          [
            [
              101.424271,
              14.794326
            ],
            [
              101.421493,
              14.795437
            ],
            [
              101.421216,
              14.796826
            ],
            [
              101.420938,
              14.799881
            ],
            [
              101.422049,
              14.800992
            ],
            [
              101.448993,
              14.824326
            ],
            [
              101.454271,
              14.825992
            ],
            [
              101.454271,
              14.820159
            ],
            [
              101.450382,
              14.812103
            ],
            [
              101.448716,
              14.810159
            ],
            [
              101.438993,
              14.80127
            ],
            [
              101.433716,
              14.798214
            ],
            [
              101.42816,
              14.795437
            ],
            [
              101.424271,
              14.794326
            ]
          ]
        ]
      }
    },
    {
      "type": "Feature",
      "id": "catchment_5705",
      "properties": {
        "station_id": "5705",
        "station_name": "บ้านซับกระสังข์",
        "catchment_area_km2": 0.8,
        "contributing_cells": 839
      },
      "geometry": {
        "type": "Polygon",
        "coordinates": [
          [
            [
              101.445382,
              15.032937
            ],
            [
              101.443993,
              15.034326
            ],
            [
              101.44316,
              15.037659
            ],
            [
              101.442882,
              15.039881
            ],
            [
              101.442882,
              15.04127
            ],
            [
              101.443438,
              15.046548
            ],
            [
              101.444827,
              15.048214
            ],
            [
              101.44566,
              15.049048
            ],
            [
              101.449549,
              15.050714
            ],
            [
              101.447049,
              15.035437
            ],
            [
              101.446216,
              15.033214
            ],
            [
              101.445382,
              15.032937
            ]
          ]
        ]
      }
    },
    {
      "type": "Feature",
      "id": "catchment_1143",
      "properties": {
        "station_id": "1143",
        "station_name": "ท่าเรือ",
        "catchment_area_km2": 19885.36,
        "contributing_cells": 20943334
      },
      "geometry": {
        "type": "Polygon",
        "coordinates": [
          [
            [
              101.084549,
              14.453214
            ],
            [
              100.718438,
              14.560714
            ],
            [
              100.630382,
              14.610714
            ],
            [
              100.53316,
              14.814326
            ],
            [
              100.525104,
              14.842659
            ],
            [
              100.508993,
              15.09127
            ],
            [
              100.534271,
              15.36627
            ],
            [
              101.195938,
              17.219603
            ],
            [
              101.411771,
              17.161548
            ],
            [
              101.542604,
              16.940437
            ],
            [
              101.408438,
              14.964326
            ],
            [
              101.328716,
              14.781548
            ],
            [
              101.084549,
              14.453214
            ]
          ]
        ]
      }
    },
    {
      "type": "Feature",
      "id": "catchment_5258",
      "properties": {
        "station_id": "5258",
        "station_name": "ท้ายปตร.พระนารายน์",
        "catchment_area_km2": 263.69,
        "contributing_cells": 277718
      },
      "geometry": {
        "type": "Polygon",
        "coordinates": [
          [
            [
              100.791771,
              14.407381
            ],
            [
              100.652327,
              14.454326
            ],
            [
              100.635104,
              14.470159
            ],
            [
              100.627327,
              14.477659
            ],
            [
              100.723993,
              14.554048
            ],
            [
              100.762049,
              14.557103
            ],
            [
              100.792327,
              14.556826
            ],
            [
              100.887049,
              14.542659
            ],
            [
              100.859827,
              14.49127
            ],
            [
              100.791771,
              14.407381
            ]
          ]
        ]
      }
    },
    {
      "type": "Feature",
      "id": "catchment_3666",
      "properties": {
        "station_id": "3666",
        "station_name": "ท้ายเขื่อนพระรามหก",
        "catchment_area_km2": 19885.36,
        "contributing_cells": 20943334
      },
      "geometry": {
        "type": "Polygon",
        "coordinates": [
          [
            [
              101.084549,
              14.453214
            ],
            [
              100.718438,
              14.560714
            ],
            [
              100.630382,
              14.610714
            ],
            [
              100.53316,
              14.814326
            ],
            [
              100.525104,
              14.842659
            ],
            [
              100.508993,
              15.09127
            ],
            [
              100.534271,
              15.36627
            ],
            [
              101.195938,
              17.219603
            ],
            [
              101.411771,
              17.161548
            ],
            [
              101.542604,
              16.940437
            ],
            [
              101.408438,
              14.964326
            ],
            [
              101.328716,
              14.781548
            ],
            [
              101.084549,
              14.453214
            ]
          ]
        ]
      }
    },
    {
      "type": "Feature",
      "id": "catchment_5257",
      "properties": {
        "station_id": "5257",
        "station_name": "เหนือปตร.พระนารายน์",
        "catchment_area_km2": 19880.73,
        "contributing_cells": 20938459
      },
      "geometry": {
        "type": "Polygon",
        "coordinates": [
          [
            [
              101.056493,
              14.429326
            ],
            [
              100.645382,
              14.534603
            ],
            [
              100.53816,
              14.582937
            ],
            [
              100.454271,
              15.368214
            ],
            [
              101.208993,
              17.20877
            ],
            [
              101.395938,
              17.159881
            ],
            [
              101.428716,
              17.127103
            ],
            [
              101.451493,
              15.312381
            ],
            [
              101.353716,
              14.77377
            ],
            [
              101.056493,
              14.429326
            ]
          ]
        ]
      }
    },
    {
      "type": "Feature",
      "id": "catchment_1145",
      "properties": {
        "station_id": "1145",
        "station_name": "นครหลวง",
        "catchment_area_km2": 19902.03,
        "contributing_cells": 20960885
      },
      "geometry": {
        "type": "Polygon",
        "coordinates": [
          [
            [
              100.582327,
              14.399326
            ],
            [
              100.496771,
              15.120714
            ],
            [
              100.536493,
              15.24377
            ],
            [
              101.210104,
              17.208492
            ],
            [
              101.346493,
              17.207103
            ],
            [
              101.487882,
              16.942937
            ],
            [
              101.455382,
              15.009881
            ],
            [
              101.448716,
              14.915992
            ],
            [
              101.377604,
              14.813492
            ],
            [
              101.053716,
              14.484881
            ],
            [
              100.582327,
              14.399326
            ]
          ]
        ]
      }
    },
    {
      "type": "Feature",
      "id": "catchment_5248",
      "properties": {
        "station_id": "5248",
        "station_name": "ปตร.หันตรา",
        "catchment_area_km2": 19913.81,
        "contributing_cells": 20973292
      },
      "geometry": {
        "type": "Polygon",
        "coordinates": [
          [
            [
              100.580382,
              14.375437
            ],
            [
              100.51816,
              14.835159
            ],
            [
              100.512327,
              14.902659
            ],
            [
              101.073716,
              16.769603
            ],
            [
              101.212049,
              17.200159
            ],
            [
              101.428716,
              17.142103
            ],
            [
              101.446493,
              17.083492
            ],
            [
              101.507604,
              16.879326
            ],
            [
              101.44816,
              15.314326
            ],
            [
              101.411771,
              14.860992
            ],
            [
              101.347049,
              14.648214
            ],
            [
              100.580382,
              14.375437
            ]
          ]
        ]
      }
    },
    {
      "type": "Feature",
      "id": "catchment_3795",
      "properties": {
        "station_id": "3795",
        "station_name": "บ้านท่ารวก",
        "catchment_area_km2": 1301.09,
        "contributing_cells": 1370308
      },
      "geometry": {
        "type": "Polygon",
        "coordinates": [
          [
            [
              101.367882,
              14.803492
            ],
            [
              101.357882,
              14.807937
            ],
            [
              101.27316,
              15.224603
            ],
            [
              101.334827,
              15.751826
            ],
            [
              101.369549,
              15.729603
            ],
            [
              101.428716,
              15.432103
            ],
            [
              101.464549,
              15.14627
            ],
            [
              101.474549,
              14.850437
            ],
            [
              101.401216,
              14.810437
            ],
            [
              101.367882,
              14.803492
            ]
          ]
        ]
      }
    },
    {
      "type": "Feature",
      "id": "catchment_5800",
      "properties": {
        "station_id": "5800",
        "station_name": "บ้านพูลทรัพย์",
        "catchment_area_km2": 9738.09,
        "contributing_cells": 10256187
      },
      "geometry": {
        "type": "Polygon",
        "coordinates": [
          [
            [
              101.055382,
              15.32377
            ],
            [
              100.97566,
              15.352103
            ],
            [
              100.931771,
              15.470159
            ],
            [
              100.918993,
              15.655159
            ],
            [
              101.02816,
              16.607103
            ],
            [
              101.139271,
              17.214881
            ],
            [
              101.209549,
              17.208492
            ],
            [
              101.300104,
              17.192103
            ],
            [
              101.43816,
              17.148492
            ],
            [
              101.485938,
              16.884603
            ],
            [
              101.298438,
              15.390437
            ],
            [
              101.211493,
              15.325992
            ],
            [
              101.055382,
              15.32377
            ]
          ]
        ]
      }
    },
    {
      "type": "Feature",
      "id": "catchment_5490",
      "properties": {
        "station_id": "5490",
        "station_name": "บ้านห้วยหิน",
        "catchment_area_km2": 9.55,
        "contributing_cells": 10055
      },
      "geometry": {
        "type": "Polygon",
        "coordinates": [
          [
            [
              100.952327,
              15.070159
            ],
            [
              100.94566,
              15.071826
            ],
            [
              100.937604,
              15.075159
            ],
            [
              100.928716,
              15.079881
            ],
            [
              100.924549,
              15.093492
            ],
            [
              100.925104,
              15.095159
            ],
            [
              100.927049,
              15.097103
            ],
            [
              100.934827,
              15.100992
            ],
            [
              100.942882,
              15.100159
            ],
            [
              100.957327,
              15.084881
            ],
            [
              100.958438,
              15.083214
            ],
            [
              100.958716,
              15.08127
            ],
            [
              100.958716,
              15.079048
            ],
            [
              100.958438,
              15.077659
            ],
            [
              100.954827,
              15.070159
            ],
            [
              100.952327,
              15.070159
            ]
          ]
        ]
      }
    },
    {
      "type": "Feature",
      "id": "catchment_257196",
      "properties": {
        "station_id": "257196",
        "station_name": "สะพานคลองลำสนธิ",
        "catchment_area_km2": 9882.12,
        "contributing_cells": 10407881
      },
      "geometry": {
        "type": "Polygon",
        "coordinates": [
          [
            [
              101.194271,
              15.248214
            ],
            [
              100.967882,
              15.328214
            ],
            [
              100.935104,
              15.527381
            ],
            [
              100.924827,
              15.678214
            ],
            [
              100.942049,
              15.950714
            ],
            [
              101.009549,
              16.375159
            ],
            [
              101.160104,
              17.15377
            ],
            [
              101.210104,
              17.196826
            ],
            [
              101.427604,
              17.14127
            ],
            [
              101.456493,
              17.035714
            ],
            [
              101.469271,
              16.734326
            ],
            [
              101.399549,
              16.078492
            ],
            [
              101.276493,
              15.353214
            ],
            [
              101.194271,
              15.248214
            ]
          ]
        ]
      }
    },
    {
      "type": "Feature",
      "id": "catchment_3754",
      "properties": {
        "station_id": "3754",
        "station_name": "ท้ายเขื่อนป่าสักชลสิทธิ์",
        "catchment_area_km2": 13319.49,
        "contributing_cells": 14028137
      },
      "geometry": {
        "type": "Polygon",
        "coordinates": [
          [
            [
              101.365104,
              14.810992
            ],
            [
              101.08566,
              14.834326
            ],
            [
              100.91066,
              14.974048
            ],
            [
              100.929549,
              15.450159
            ],
            [
              100.951771,
              15.854881
            ],
            [
              100.976771,
              16.269881
            ],
            [
              100.992882,
              16.376548
            ],
            [
              101.208716,
              17.209603
            ],
            [
              101.359549,
              17.169881
            ],
            [
              101.532049,
              16.96377
            ],
            [
              101.48066,
              15.005159
            ],
            [
              101.425104,
              14.810992
            ],
            [
              101.365104,
              14.810992
            ]
          ]
        ]
      }
    },
    {
      "type": "Feature",
      "id": "catchment_257197",
      "properties": {
        "station_id": "257197",
        "station_name": "สะพานคลองสนธิ",
        "catchment_area_km2": 160.08,
        "contributing_cells": 168593
      },
      "geometry": {
        "type": "Polygon",
        "coordinates": [
          [
            [
              101.306771,
              15.50377
            ],
            [
              101.296771,
              15.537937
            ],
            [
              101.335938,
              15.751548
            ],
            [
              101.382049,
              15.733214
            ],
            [
              101.396493,
              15.715992
            ],
            [
              101.396771,
              15.706548
            ],
            [
              101.391216,
              15.663214
            ],
            [
              101.372604,
              15.528214
            ],
            [
              101.344271,
              15.509048
            ],
            [
              101.306771,
              15.50377
            ]
          ]
        ]
      }
    },
    {
      "type": "Feature",
      "id": "catchment_5225",
      "properties": {
        "station_id": "5225",
        "station_name": "อ่างเก็บน้ำห้วยส้ม",
        "catchment_area_km2": 67.71,
        "contributing_cells": 71317
      },
      "geometry": {
        "type": "Polygon",
        "coordinates": [
          [
            [
              100.838993,
              14.809048
            ],
            [
              100.773716,
              14.892937
            ],
            [
              100.783716,
              14.904603
            ],
            [
              100.788438,
              14.909048
            ],
            [
              100.832049,
              14.908492
            ],
            [
              100.862049,
              14.889603
            ],
            [
              100.863716,
              14.868492
            ],
            [
              100.863993,
              14.860992
            ],
            [
              100.853438,
              14.824881
            ],
            [
              100.850938,
              14.817937
            ],
            [
              100.849271,
              14.814881
            ],
            [
              100.838993,
              14.809048
            ]
          ]
        ]
      }
    },
    {
      "type": "Feature",
      "id": "catchment_246001",
      "properties": {
        "station_id": "246001",
        "station_name": "สะพานคลองส่งน้ำชลประทาน บ้านสร่างโศก",
        "catchment_area_km2": 2848.1,
        "contributing_cells": 2999633
      },
      "geometry": {
        "type": "Polygon",
        "coordinates": [
          [
            [
              100.742327,
              14.652937
            ],
            [
              100.669271,
              14.740159
            ],
            [
              100.635382,
              14.809048
            ],
            [
              100.622882,
              14.837659
            ],
            [
              100.509827,
              15.155992
            ],
            [
              100.452882,
              15.34877
            ],
            [
              100.531771,
              15.382103
            ],
            [
              100.865938,
              15.382381
            ],
            [
              100.94566,
              15.252103
            ],
            [
              100.841493,
              14.723214
            ],
            [
              100.742327,
              14.652937
            ]
          ]
        ]
      }
    },
    {
      "type": "Feature",
      "id": "catchment_5308",
      "properties": {
        "station_id": "5308",
        "station_name": "บ้านหมาก",
        "catchment_area_km2": 304.86,
        "contributing_cells": 321081
      },
      "geometry": {
        "type": "Polygon",
        "coordinates": [
          [
            [
              101.233716,
              14.486826
            ],
            [
              101.211216,
              14.496548
            ],
            [
              101.170104,
              14.526826
            ],
            [
              101.157604,
              14.602659
            ],
            [
              101.181771,
              14.667103
            ],
            [
              101.189271,
              14.681826
            ],
            [
              101.198993,
              14.691826
            ],
            [
              101.244271,
              14.66877
            ],
            [
              101.305382,
              14.63377
            ],
            [
              101.356493,
              14.600992
            ],
            [
              101.351771,
              14.594603
            ],
            [
              101.248438,
              14.493492
            ],
            [
              101.233716,
              14.486826
            ]
          ]
        ]
      }
    },
    {
      "type": "Feature",
      "id": "catchment_3665",
      "properties": {
        "station_id": "3665",
        "station_name": "สถานีแพดับเพลิง",
        "catchment_area_km2": 15250.68,
        "contributing_cells": 16062067
      },
      "geometry": {
        "type": "Polygon",
        "coordinates": [
          [
            [
              100.923716,
              14.555992
            ],
            [
              100.88066,
              15.584048
            ],
            [
              100.911493,
              15.943214
            ],
            [
              101.005104,
              16.542103
            ],
            [
              101.065382,
              16.775992
            ],
            [
              101.209271,
              17.209048
            ],
            [
              101.388716,
              17.219603
            ],
            [
              101.457049,
              16.99377
            ],
            [
              101.458438,
              16.95627
            ],
            [
              101.460104,
              16.754326
            ],
            [
              101.43816,
              14.99377
            ],
            [
              101.422882,
              14.964603
            ],
            [
              101.102049,
              14.588214
            ],
            [
              100.923716,
              14.555992
            ]
          ]
        ]
      }
    },
    {
      "type": "Feature",
      "id": "catchment_246002",
      "properties": {
        "station_id": "246002",
        "station_name": "สะพานแมน้ำปาสัก บ้านนาโฉง",
        "catchment_area_km2": 15614.17,
        "contributing_cells": 16444903
      },
      "geometry": {
        "type": "Polygon",
        "coordinates": [
          [
            [
              101.056216,
              14.412937
            ],
            [
              100.888993,
              14.548214
            ],
            [
              100.88066,
              14.940992
            ],
            [
              100.924549,
              15.912381
            ],
            [
              101.018438,
              16.467381
            ],
            [
              101.150938,
              17.156548
            ],
            [
              101.208716,
              17.21127
            ],
            [
              101.364827,
              17.234048
            ],
            [
              101.475938,
              17.016548
            ],
            [
              101.501771,
              16.837937
            ],
            [
              101.508716,
              16.752937
            ],
            [
              101.465104,
              15.128492
            ],
            [
              101.399549,
              14.979603
            ],
            [
              101.216493,
              14.584603
            ],
            [
              101.204271,
              14.566826
            ],
            [
              101.056216,
              14.412937
            ]
          ]
        ]
      }
    },
    {
      "type": "Feature",
      "id": "catchment_3674",
      "properties": {
        "station_id": "3674",
        "station_name": "บ้านป่า",
        "catchment_area_km2": 14713.31,
        "contributing_cells": 15496112
      },
      "geometry": {
        "type": "Polygon",
        "coordinates": [
          [
            [
              101.219271,
              14.568492
            ],
            [
              101.01316,
              14.627937
            ],
            [
              100.91816,
              14.85877
            ],
            [
              100.912327,
              15.621548
            ],
            [
              100.937327,
              15.94377
            ],
            [
              101.006771,
              16.537937
            ],
            [
              101.057882,
              16.799881
            ],
            [
              101.209827,
              17.210714
            ],
            [
              101.35566,
              17.238214
            ],
            [
              101.497882,
              16.980714
            ],
            [
              101.500104,
              16.811548
            ],
            [
              101.448716,
              15.314603
            ],
            [
              101.434549,
              15.08877
            ],
            [
              101.358716,
              14.830437
            ],
            [
              101.298993,
              14.679048
            ],
            [
              101.219271,
              14.568492
            ]
          ]
        ]
      }
    },
    {
      "type": "Feature",
      "id": "catchment_5604",
      "properties": {
        "station_id": "5604",
        "station_name": "บ้านเขาเกตุ",
        "catchment_area_km2": 64.57,
        "contributing_cells": 68008
      },
      "geometry": {
        "type": "Polygon",
        "coordinates": [
          [
            [
              101.090938,
              14.543214
            ],
            [
              101.063993,
              14.553492
            ],
            [
              101.053716,
              14.567659
            ],
            [
              101.059827,
              14.583214
            ],
            [
              101.13566,
              14.622659
            ],
            [
              101.184271,
              14.58627
            ],
            [
              101.167327,
              14.552103
            ],
            [
              101.090938,
              14.543214
            ]
          ]
        ]
      }
    },
    {
      "type": "Feature",
      "id": "catchment_2097",
      "properties": {
        "station_id": "2097",
        "station_name": "บ้านโป่งก้อนเส้า",
        "catchment_area_km2": 1.2,
        "contributing_cells": 1261
      },
      "geometry": {
        "type": "Polygon",
        "coordinates": [
          [
            [
              101.122049,
              14.489881
            ],
            [
              101.120382,
              14.490714
            ],
            [
              101.118716,
              14.497937
            ],
            [
              101.120104,
              14.500437
            ],
            [
              101.12066,
              14.50127
            ],
            [
              101.122049,
              14.501826
            ],
            [
              101.123993,
              14.50127
            ],
            [
              101.130104,
              14.496548
            ],
            [
              101.130382,
              14.49627
            ],
            [
              101.13066,
              14.495992
            ],
            [
              101.130104,
              14.494326
            ],
            [
              101.125382,
              14.491548
            ],
            [
              101.122049,
              14.489881
            ]
          ]
        ]
      }
    },
    {
      "type": "Feature",
      "id": "catchment_3841",
      "properties": {
        "station_id": "3841",
        "station_name": "บ้านบ่อวัง",
        "catchment_area_km2": 8052.27,
        "contributing_cells": 8480676
      },
      "geometry": {
        "type": "Polygon",
        "coordinates": [
          [
            [
              101.087049,
              15.577937
            ],
            [
              100.973993,
              15.727103
            ],
            [
              100.962327,
              15.88877
            ],
            [
              100.960382,
              16.075714
            ],
            [
              101.01316,
              16.533492
            ],
            [
              101.061216,
              16.858492
            ],
            [
              101.146216,
              17.168492
            ],
            [
              101.210104,
              17.195159
            ],
            [
              101.289549,
              17.209048
            ],
            [
              101.50816,
              17.042381
            ],
            [
              101.527604,
              16.958214
            ],
            [
              101.527327,
              16.919326
            ],
            [
              101.278993,
              15.717381
            ],
            [
              101.24066,
              15.621548
            ],
            [
              101.087049,
              15.577937
            ]
          ]
        ]
      }
    },
    {
      "type": "Feature",
      "id": "catchment_10113",
      "properties": {
        "station_id": "10113",
        "station_name": "บ้านท่าไม้ทอง",
        "catchment_area_km2": 9272.99,
        "contributing_cells": 9766343
      },
      "geometry": {
        "type": "Polygon",
        "coordinates": [
          [
            [
              101.002604,
              15.310437
            ],
            [
              100.892327,
              15.412659
            ],
            [
              100.996771,
              16.264326
            ],
            [
              101.150938,
              17.194048
            ],
            [
              101.208993,
              17.209326
            ],
            [
              101.419827,
              17.157103
            ],
            [
              101.48566,
              17.034603
            ],
            [
              101.547604,
              16.90627
            ],
            [
              101.339827,
              15.682937
            ],
            [
              101.31066,
              15.566548
            ],
            [
              101.097604,
              15.331826
            ],
            [
              101.002604,
              15.310437
            ]
          ]
        ]
      }
    },
    {
      "type": "Feature",
      "id": "catchment_2821",
      "properties": {
        "station_id": "2821",
        "station_name": "บ้านซับฟาน",
        "catchment_area_km2": 2.64,
        "contributing_cells": 2784
      },
      "geometry": {
        "type": "Polygon",
        "coordinates": [
          [
            [
              100.952327,
              16.076548
            ],
            [
              100.95066,
              16.083492
            ],
            [
              100.951493,
              16.084881
            ],
            [
              100.954271,
              16.089048
            ],
            [
              100.95566,
              16.090714
            ],
            [
              100.957327,
              16.092659
            ],
            [
              100.960938,
              16.093492
            ],
            [
              100.968438,
              16.089326
            ],
            [
              100.970104,
              16.088214
            ],
            [
              100.971216,
              16.084048
            ],
            [
              100.962049,
              16.079326
            ],
            [
              100.956771,
              16.077381
            ],
            [
              100.952327,
              16.076548
            ]
          ]
        ]
      }
    },
    {
      "type": "Feature",
      "id": "catchment_5745",
      "properties": {
        "station_id": "5745",
        "station_name": "บ้านวังท่าดี*",
        "catchment_area_km2": 500.04,
        "contributing_cells": 526644
      },
      "geometry": {
        "type": "Polygon",
        "coordinates": [
          [
            [
              101.314549,
              15.859603
            ],
            [
              101.28066,
              15.874881
            ],
            [
              101.231493,
              15.904881
            ],
            [
              101.217327,
              16.005437
            ],
            [
              101.275104,
              16.163214
            ],
            [
              101.289827,
              16.169881
            ],
            [
              101.323716,
              16.168214
            ],
            [
              101.394549,
              16.107381
            ],
            [
              101.396216,
              16.097103
            ],
            [
              101.387327,
              16.00627
            ],
            [
              101.366493,
              15.917381
            ],
            [
              101.314549,
              15.859603
            ]
          ]
        ]
      }
    },
    {
      "type": "Feature",
      "id": "catchment_2820",
      "properties": {
        "station_id": "2820",
        "station_name": "บ้านวังสงวน*",
        "catchment_area_km2": 87.56,
        "contributing_cells": 92215
      },
      "geometry": {
        "type": "Polygon",
        "coordinates": [
          [
            [
              101.205938,
              16.093492
            ],
            [
              101.202049,
              16.107103
            ],
            [
              101.19566,
              16.141548
            ],
            [
              101.193716,
              16.15377
            ],
            [
              101.192882,
              16.160159
            ],
            [
              101.201771,
              16.210159
            ],
            [
              101.209827,
              16.214048
            ],
            [
              101.213716,
              16.213214
            ],
            [
              101.255104,
              16.200992
            ],
            [
              101.259271,
              16.199603
            ],
            [
              101.26316,
              16.187659
            ],
            [
              101.260938,
              16.137381
            ],
            [
              101.257882,
              16.119881
            ],
            [
              101.252604,
              16.103214
            ],
            [
              101.205938,
              16.093492
            ]
          ]
        ]
      }
    },
    {
      "type": "Feature",
      "id": "catchment_1778",
      "properties": {
        "station_id": "1778",
        "station_name": "หนองไผ่",
        "catchment_area_km2": 5388.12,
        "contributing_cells": 5674786
      },
      "geometry": {
        "type": "Polygon",
        "coordinates": [
          [
            [
              100.994549,
              16.075437
            ],
            [
              100.914827,
              16.10627
            ],
            [
              101.06816,
              16.835437
            ],
            [
              101.146771,
              17.184326
            ],
            [
              101.162882,
              17.227381
            ],
            [
              101.312882,
              17.237103
            ],
            [
              101.418716,
              17.183492
            ],
            [
              101.527604,
              16.969048
            ],
            [
              101.539271,
              16.762937
            ],
            [
              101.265104,
              16.206548
            ],
            [
              101.098438,
              16.113492
            ],
            [
              100.994549,
              16.075437
            ]
          ]
        ]
      }
    },
    {
      "type": "Feature",
      "id": "catchment_3618",
      "properties": {
        "station_id": "3618",
        "station_name": "ต.ตาลเดี่ยว",
        "catchment_area_km2": 1072.74,
        "contributing_cells": 1129816
      },
      "geometry": {
        "type": "Polygon",
        "coordinates": [
          [
            [
              101.245382,
              16.780714
            ],
            [
              101.207049,
              17.171826
            ],
            [
              101.208716,
              17.210714
            ],
            [
              101.221216,
              17.23127
            ],
            [
              101.253438,
              17.26127
            ],
            [
              101.342049,
              17.252103
            ],
            [
              101.373716,
              17.245437
            ],
            [
              101.404827,
              17.218214
            ],
            [
              101.443993,
              17.182103
            ],
            [
              101.508438,
              17.042381
            ],
            [
              101.464549,
              16.977103
            ],
            [
              101.38566,
              16.869326
            ],
            [
              101.245382,
              16.780714
            ]
          ]
        ]
      }
    },
    {
      "type": "Feature",
      "id": "catchment_5732",
      "properties": {
        "station_id": "5732",
        "station_name": "บ้านน้ำชุน*",
        "catchment_area_km2": 72.73,
        "contributing_cells": 76602
      },
      "geometry": {
        "type": "Polygon",
        "coordinates": [
          [
            [
              101.107049,
              16.737103
            ],
            [
              101.104271,
              16.737659
            ],
            [
              101.060104,
              16.75627
            ],
            [
              101.032882,
              16.802381
            ],
            [
              101.049549,
              16.819603
            ],
            [
              101.058993,
              16.821548
            ],
            [
              101.066216,
              16.820437
            ],
            [
              101.127327,
              16.787103
            ],
            [
              101.168716,
              16.759881
            ],
            [
              101.124827,
              16.741826
            ],
            [
              101.107049,
              16.737103
            ]
          ]
        ]
      }
    },
    {
      "type": "Feature",
      "id": "catchment_5628",
      "properties": {
        "station_id": "5628",
        "station_name": "บ้านวังยาว",
        "catchment_area_km2": 7.29,
        "contributing_cells": 7676
      },
      "geometry": {
        "type": "Polygon",
        "coordinates": [
          [
            [
              101.434271,
              16.732659
            ],
            [
              101.430382,
              16.734048
            ],
            [
              101.420104,
              16.73877
            ],
            [
              101.422882,
              16.743214
            ],
            [
              101.432882,
              16.752937
            ],
            [
              101.44816,
              16.757103
            ],
            [
              101.457327,
              16.758492
            ],
            [
              101.459827,
              16.758214
            ],
            [
              101.460104,
              16.75627
            ],
            [
              101.458716,
              16.753214
            ],
            [
              101.454549,
              16.747381
            ],
            [
              101.443993,
              16.736548
            ],
            [
              101.442327,
              16.735159
            ],
            [
              101.434271,
              16.732659
            ]
          ]
        ]
      }
    },
    {
      "type": "Feature",
      "id": "catchment_2813",
      "properties": {
        "station_id": "2813",
        "station_name": "บ้านเนินสะอาด",
        "catchment_area_km2": 34.67,
        "contributing_cells": 36512
      },
      "geometry": {
        "type": "Polygon",
        "coordinates": [
          [
            [
              101.066493,
              16.636826
            ],
            [
              101.061771,
              16.638214
            ],
            [
              101.036771,
              16.645714
            ],
            [
              101.031771,
              16.647381
            ],
            [
              101.028438,
              16.648492
            ],
            [
              101.024827,
              16.650714
            ],
            [
              101.023438,
              16.65877
            ],
            [
              101.023993,
              16.664603
            ],
            [
              101.036493,
              16.670437
            ],
            [
              101.039827,
              16.670714
            ],
            [
              101.059271,
              16.670159
            ],
            [
              101.134271,
              16.664881
            ],
            [
              101.128993,
              16.652103
            ],
            [
              101.124271,
              16.644048
            ],
            [
              101.109827,
              16.640159
            ],
            [
              101.087882,
              16.637659
            ],
            [
              101.066493,
              16.636826
            ]
          ]
        ]
      }
    },
    {
      "type": "Feature",
      "id": "catchment_15502748",
      "properties": {
        "station_id": "15502748",
        "station_name": "สะพานบ้านวังร่อง",
        "catchment_area_km2": 1010.04,
        "contributing_cells": 1063777
      },
      "geometry": {
        "type": "Polygon",
        "coordinates": [
          [
            [
              101.306493,
              16.830159
            ],
            [
              101.212327,
              17.157103
            ],
            [
              101.207882,
              17.186826
            ],
            [
              101.207604,
              17.194048
            ],
            [
              101.221493,
              17.234881
            ],
            [
              101.255104,
              17.255992
            ],
            [
              101.408716,
              17.245159
            ],
            [
              101.500104,
              17.04127
            ],
            [
              101.457604,
              16.925437
            ],
            [
              101.306493,
              16.830159
            ]
          ]
        ]
      }
    },
    {
      "type": "Feature",
      "id": "catchment_1771",
      "properties": {
        "station_id": "1771",
        "station_name": "หล่มสัก",
        "catchment_area_km2": 1072.74,
        "contributing_cells": 1129816
      },
      "geometry": {
        "type": "Polygon",
        "coordinates": [
          [
            [
              101.245382,
              16.780714
            ],
            [
              101.207049,
              17.171826
            ],
            [
              101.208716,
              17.210714
            ],
            [
              101.221216,
              17.23127
            ],
            [
              101.253438,
              17.26127
            ],
            [
              101.342049,
              17.252103
            ],
            [
              101.373716,
              17.245437
            ],
            [
              101.404827,
              17.218214
            ],
            [
              101.443993,
              17.182103
            ],
            [
              101.508438,
              17.042381
            ],
            [
              101.464549,
              16.977103
            ],
            [
              101.38566,
              16.869326
            ],
            [
              101.245382,
              16.780714
            ]
          ]
        ]
      }
    },
    {
      "type": "Feature",
      "id": "catchment_4026",
      "properties": {
        "station_id": "4026",
        "station_name": "ต.ตาดกลอย",
        "catchment_area_km2": 538.95,
        "contributing_cells": 567626
      },
      "geometry": {
        "type": "Polygon",
        "coordinates": [
          [
            [
              101.397327,
              16.982937
            ],
            [
              101.352327,
              17.002659
            ],
            [
              101.208438,
              17.209881
            ],
            [
              101.216493,
              17.226548
            ],
            [
              101.234271,
              17.246548
            ],
            [
              101.349827,
              17.257381
            ],
            [
              101.403716,
              17.252103
            ],
            [
              101.454827,
              17.171826
            ],
            [
              101.499271,
              17.033492
            ],
            [
              101.488993,
              17.022103
            ],
            [
              101.457327,
              17.002659
            ],
            [
              101.397327,
              16.982937
            ]
          ]
        ]
      }
    },
    {
      "type": "Feature",
      "id": "catchment_2819",
      "properties": {
        "station_id": "2819",
        "station_name": "บ้านกลาง*",
        "catchment_area_km2": 317.97,
        "contributing_cells": 334888
      },
      "geometry": {
        "type": "Polygon",
        "coordinates": [
          [
            [
              101.387049,
              17.085714
            ],
            [
              101.374827,
              17.087103
            ],
            [
              101.208993,
              17.208492
            ],
            [
              101.211216,
              17.227103
            ],
            [
              101.246493,
              17.253492
            ],
            [
              101.257604,
              17.259048
            ],
            [
              101.405104,
              17.264603
            ],
            [
              101.442882,
              17.168492
            ],
            [
              101.444549,
              17.16127
            ],
            [
              101.409271,
              17.102103
            ],
            [
              101.404271,
              17.09627
            ],
            [
              101.387049,
              17.085714
            ]
          ]
        ]
      }
    },
    {
      "type": "Feature",
      "id": "catchment_2815",
      "properties": {
        "station_id": "2815",
        "station_name": "บ้านวังหว้า-วังรู",
        "catchment_area_km2": 2.11,
        "contributing_cells": 2227
      },
      "geometry": {
        "type": "Polygon",
        "coordinates": [
          [
            [
              101.175382,
              16.962381
            ],
            [
              101.173716,
              16.965992
            ],
            [
              101.172882,
              16.979326
            ],
            [
              101.17316,
              16.981548
            ],
            [
              101.173716,
              16.983214
            ],
            [
              101.174271,
              16.984326
            ],
            [
              101.176771,
              16.985714
            ],
            [
              101.180104,
              16.981548
            ],
            [
              101.18066,
              16.980437
            ],
            [
              101.18316,
              16.97377
            ],
            [
              101.181493,
              16.969881
            ],
            [
              101.179827,
              16.966826
            ],
            [
              101.176771,
              16.962659
            ],
            [
              101.175382,
              16.962381
            ]
          ]
        ]
      }
    },
    {
      "type": "Feature",
      "id": "catchment_8729",
      "properties": {
        "station_id": "8729",
        "station_name": "บ้านห้วยข่อย*",
        "catchment_area_km2": 114.11,
        "contributing_cells": 120184
      },
      "geometry": {
        "type": "Polygon",
        "coordinates": [
          [
            [
              101.297604,
              17.043214
            ],
            [
              101.20316,
              17.142381
            ],
            [
              101.20066,
              17.163492
            ],
            [
              101.208438,
              17.186548
            ],
            [
              101.247049,
              17.204603
            ],
            [
              101.25816,
              17.203492
            ],
            [
              101.311493,
              17.124881
            ],
            [
              101.317327,
              17.104326
            ],
            [
              101.320382,
              17.093492
            ],
            [
              101.323993,
              17.068214
            ],
            [
              101.297604,
              17.043214
            ]
          ]
        ]
      }
    },
    {
      "type": "Feature",
      "id": "catchment_2814",
      "properties": {
        "station_id": "2814",
        "station_name": "บ้านอีเลิศใหม่",
        "catchment_area_km2": 22.5,
        "contributing_cells": 23693
      },
      "geometry": {
        "type": "Polygon",
        "coordinates": [
          [
            [
              101.285104,
              16.995714
            ],
            [
              101.279827,
              16.997103
            ],
            [
              101.250938,
              17.007103
            ],
            [
              101.240382,
              17.023492
            ],
            [
              101.239271,
              17.029326
            ],
            [
              101.237882,
              17.037937
            ],
            [
              101.244549,
              17.054603
            ],
            [
              101.248993,
              17.056826
            ],
            [
              101.275938,
              17.028214
            ],
            [
              101.28816,
              17.010159
            ],
            [
              101.288993,
              17.002381
            ],
            [
              101.288716,
              16.996826
            ],
            [
              101.285104,
              16.995714
            ]
          ]
        ]
      }
    },
    {
      "type": "Feature",
      "id": "catchment_10112",
      "properties": {
        "station_id": "10112",
        "station_name": "ต.นาเฉลียง",
        "catchment_area_km2": 5388.12,
        "contributing_cells": 5674786
      },
      "geometry": {
        "type": "Polygon",
        "coordinates": [
          [
            [
              100.994549,
              16.075437
            ],
            [
              100.914827,
              16.10627
            ],
            [
              101.06816,
              16.835437
            ],
            [
              101.146771,
              17.184326
            ],
            [
              101.162882,
              17.227381
            ],
            [
              101.312882,
              17.237103
            ],
            [
              101.418716,
              17.183492
            ],
            [
              101.527604,
              16.969048
            ],
            [
              101.539271,
              16.762937
            ],
            [
              101.265104,
              16.206548
            ],
            [
              101.098438,
              16.113492
            ],
            [
              100.994549,
              16.075437
            ]
          ]
        ]
      }
    },
    {
      "type": "Feature",
      "id": "catchment_3923",
      "properties": {
        "station_id": "3923",
        "station_name": "ต.ในเมือง",
        "catchment_area_km2": 3482.04,
        "contributing_cells": 3667292
      },
      "geometry": {
        "type": "Polygon",
        "coordinates": [
          [
            [
              101.163438,
              16.422659
            ],
            [
              101.130104,
              16.429603
            ],
            [
              101.101216,
              16.46127
            ],
            [
              101.039549,
              16.562659
            ],
            [
              101.03316,
              16.610437
            ],
            [
              101.032327,
              16.638214
            ],
            [
              101.158716,
              17.180437
            ],
            [
              101.199549,
              17.218214
            ],
            [
              101.257327,
              17.235437
            ],
            [
              101.338716,
              17.22127
            ],
            [
              101.393716,
              17.196826
            ],
            [
              101.441493,
              17.153214
            ],
            [
              101.533438,
              16.917659
            ],
            [
              101.501216,
              16.772381
            ],
            [
              101.465104,
              16.667103
            ],
            [
              101.163438,
              16.422659
            ]
          ]
        ]
      }
    },
    {
      "type": "Feature",
      "id": "catchment_2806",
      "properties": {
        "station_id": "2806",
        "station_name": "บ้านหนองผักบุ้ง*",
        "catchment_area_km2": 4932.17,
        "contributing_cells": 5194577
      },
      "geometry": {
        "type": "Polygon",
        "coordinates": [
          [
            [
              101.282604,
              16.227659
            ],
            [
              101.127327,
              16.249326
            ],
            [
              100.968716,
              16.294326
            ],
            [
              101.144549,
              17.192381
            ],
            [
              101.326493,
              17.239048
            ],
            [
              101.374827,
              17.237659
            ],
            [
              101.443438,
              17.13877
            ],
            [
              101.513438,
              16.968492
            ],
            [
              101.508993,
              16.815437
            ],
            [
              101.491216,
              16.684881
            ],
            [
              101.392882,
              16.375437
            ],
            [
              101.352882,
              16.275992
            ],
            [
              101.282604,
              16.227659
            ]
          ]
        ]
      }
    },
    {
      "type": "Feature",
      "id": "catchment_5417",
      "properties": {
        "station_id": "5417",
        "station_name": "บ้านโมคลา*",
        "catchment_area_km2": 0.36,
        "contributing_cells": 378
      },
      "geometry": {
        "type": "Polygon",
        "coordinates": [
          [
            [
              101.192327,
              16.32377
            ],
            [
              101.191216,
              16.324326
            ],
            [
              101.190382,
              16.324881
            ],
            [
              101.189827,
              16.325437
            ],
            [
              101.189827,
              16.325992
            ],
            [
              101.190382,
              16.332381
            ],
            [
              101.190938,
              16.333214
            ],
            [
              101.191216,
              16.333492
            ],
            [
              101.194549,
              16.329603
            ],
            [
              101.195104,
              16.32877
            ],
            [
              101.195104,
              16.327381
            ],
            [
              101.194827,
              16.326826
            ],
            [
              101.192882,
              16.324048
            ],
            [
              101.192327,
              16.32377
            ]
          ]
        ]
      }
    },
    {
      "type": "Feature",
      "id": "catchment_1769",
      "properties": {
        "station_id": "1769",
        "station_name": "เมืองเพชรบูรณ์",
        "catchment_area_km2": 3399.89,
        "contributing_cells": 3580776
      },
      "geometry": {
        "type": "Polygon",
        "coordinates": [
          [
            [
              101.170104,
              16.446548
            ],
            [
              101.043716,
              16.588492
            ],
            [
              101.04816,
              16.802103
            ],
            [
              101.153716,
              17.162659
            ],
            [
              101.174271,
              17.215992
            ],
            [
              101.280104,
              17.246548
            ],
            [
              101.366771,
              17.260437
            ],
            [
              101.417882,
              17.207381
            ],
            [
              101.497049,
              17.042381
            ],
            [
              101.517327,
              16.899881
            ],
            [
              101.503438,
              16.804603
            ],
            [
              101.467049,
              16.671548
            ],
            [
              101.170104,
              16.446548
            ]
          ]
        ]
      }
    },
    {
      "type": "Feature",
      "id": "catchment_2209",
      "properties": {
        "station_id": "2209",
        "station_name": "บ้านด่านดู่",
        "catchment_area_km2": 132.49,
        "contributing_cells": 139535
      },
      "geometry": {
        "type": "Polygon",
        "coordinates": [
          [
            [
              101.13816,
              17.033214
            ],
            [
              101.134271,
              17.041826
            ],
            [
              101.135938,
              17.19377
            ],
            [
              101.146493,
              17.223214
            ],
            [
              101.175104,
              17.229603
            ],
            [
              101.20316,
              17.21627
            ],
            [
              101.206493,
              17.196548
            ],
            [
              101.202327,
              17.103492
            ],
            [
              101.196493,
              17.091826
            ],
            [
              101.174271,
              17.054048
            ],
            [
              101.16816,
              17.045159
            ],
            [
              101.154549,
              17.037381
            ],
            [
              101.13816,
              17.033214
            ]
          ]
        ]
      }
    }
  ]
}