{
  "type": "FeatureCollection",
  "features": [
    {
      "type": "Feature",
      "properties": {
        "basin_slug": "pa-sak",
        "basin_name_th": "ลุ่มน้ำป่าสัก",
        "source": "ThaiWater (HII Official)",
        "min_lat": 14.41,
        "max_lat": 17.268,
        "min_lon": 100.571,
        "max_lon": 101.56
      },
      "geometry": {
        "type": "Polygon",
        "coordinates": [
          [
            [
              101.062,
              14.415
            ],
            [
              101.066,
              14.429
            ],
            [
              101.125,
              14.46
            ],
            [
              101.133,
              14.468
            ],
            [
              101.147,
              14.483
            ],
            [
              101.156,
              14.495
            ],
            [
              101.172,
              14.514
            ],
            [
              101.225,
              14.473
            ],
            [
              101.262,
              14.501
            ],
            [
              101.264,
              14.503
            ],
            [
              101.267,
              14.506
            ],
            [
              101.276,
              14.512
            ],
            [
              101.28,
              14.542
            ],
            [
              101.305,
              14.56
            ],
            [
              101.321,
              14.578
            ],
            [
              101.35,
              14.579
            ],
            [
              101.366,
              14.629
            ],
            [
              101.351,
              14.646
            ],
            [
              101.346,
              14.685
            ],
            [
              101.336,
              14.714
            ],
            [
              101.357,
              14.767
            ],
            [
              101.386,
              14.783
            ],
            [
              101.475,
              14.809
            ],
            [
              101.492,
              14.843
            ],
            [
              101.463,
              14.884
            ],
            [
              101.444,
              14.962
            ],
            [
              101.445,
              14.983
            ],
            [
              101.493,
              15.013
            ],
            [
              101.485,
              15.034
            ],
            [
              101.494,
              15.063
            ],
            [
              101.476,
              15.076
            ],
            [
              101.439,
              15.072
            ],
            [
              101.463,
              15.122
            ],
            [
              101.428,
              15.211
            ],
            [
              101.452,
              15.254
            ],
            [
              101.448,
              15.295
            ],
            [
              101.464,
              15.337
            ],
            [
              101.459,
              15.355
            ],
            [
              101.431,
              15.373
            ],
            [
              101.435,
              15.421
            ],
            [
              101.408,
              15.456
            ],
            [
              101.415,
              15.485
            ],
            [
              101.385,
              15.488
            ],
            [
              101.373,
              15.549
            ],
            [
              101.376,
              15.607
            ],
            [
              101.391,
              15.657
            ],
            [
              101.403,
              15.734
            ],
            [
              101.346,
              15.752
            ],
            [
              101.334,
              15.771
            ],
            [
              101.326,
              15.812
            ],
            [
              101.326,
              15.818
            ],
            [
              101.332,
              15.883
            ],
            [
              101.351,
              15.888
            ],
            [
              101.356,
              15.894
            ],
            [
              101.361,
              15.9
            ],
            [
              101.362,
              15.925
            ],
            [
              101.365,
              15.934
            ],
            [
              101.375,
              15.96
            ],
            [
              101.375,
              15.961
            ],
            [
              101.375,
              15.96
            ],
            [
              101.375,
              15.961
            ],
            [
              101.379,
              15.971
            ],
            [
              101.385,
              15.982
            ],
            [
              101.394,
              16.032
            ],
            [
              101.382,
              16.04
            ],
            [
              101.404,
              16.105
            ],
            [
              101.379,
              16.125
            ],
            [
              101.345,
              16.143
            ],
            [
              101.348,
              16.161
            ],
            [
              101.293,
              16.179
            ],
            [
              101.282,
              16.169
            ],
            [
              101.259,
              16.174
            ],
            [
              101.264,
              16.188
            ],
            [
              101.291,
              16.188
            ],
            [
              101.339,
              16.238
            ],
            [
              101.342,
              16.262
            ],
            [
              101.369,
              16.274
            ],
            [
              101.373,
              16.302
            ],
            [
              101.378,
              16.35
            ],
            [
              101.408,
              16.387
            ],
            [
              101.408,
              16.392
            ],
            [
              101.402,
              16.396
            ],
            [
              101.411,
              16.408
            ],
            [
              101.418,
              16.42
            ],
            [
              101.419,
              16.448
            ],
            [
              101.419,
              16.451
            ],
            [
              101.407,
              16.528
            ],
            [
              101.394,
              16.551
            ],
            [
              101.421,
              16.582
            ],
            [
              101.404,
              16.6
            ],
            [
              101.433,
              16.638
            ],
            [
              101.472,
              16.659
            ],
            [
              101.514,
              16.684
            ],
            [
              101.515,
              16.687
            ],
            [
              101.514,
              16.726
            ],
            [
              101.546,
              16.737
            ],
            [
              101.56,
              16.763
            ],
            [
              101.533,
              16.781
            ],
            [
              101.531,
              16.794
            ],
            [
              101.529,
              16.801
            ],
            [
              101.529,
              16.802
            ],
            [
              101.529,
              16.803
            ],
            [
              101.527,
              16.807
            ],
            [
              101.525,
              16.811
            ],
            [
              101.525,
              16.812
            ],
            [
              101.517,
              16.819
            ],
            [
              101.513,
              16.829
            ],
            [
              101.508,
              16.846
            ],
            [
              101.507,
              16.848
            ],
            [
              101.508,
              16.85
            ],
            [
              101.513,
              16.851
            ],
            [
              101.516,
              16.866
            ],
            [
              101.512,
              16.871
            ],
            [
              101.511,
              16.874
            ],
            [
              101.534,
              16.896
            ],
            [
              101.544,
              16.89
            ],
            [
              101.55,
              16.91
            ],
            [
              101.547,
              16.942
            ],
            [
              101.547,
              16.943
            ],
            [
              101.531,
              16.951
            ],
            [
              101.529,
              16.955
            ],
            [
              101.513,
              16.992
            ],
            [
              101.503,
              17.029
            ],
            [
              101.475,
              17.089
            ],
            [
              101.463,
              17.095
            ],
            [
              101.449,
              17.145
            ],
            [
              101.456,
              17.166
            ],
            [
              101.436,
              17.194
            ],
            [
              101.417,
              17.242
            ],
            [
              101.413,
              17.251
            ],
            [
              101.412,
              17.258
            ],
            [
              101.411,
              17.266
            ],
            [
              101.394,
              17.261
            ],
            [
              101.395,
              17.261
            ],
            [
              101.394,
              17.261
            ],
            [
              101.395,
              17.261
            ],
            [
              101.378,
              17.25
            ],
            [
              101.374,
              17.263
            ],
            [
              101.373,
              17.264
            ],
            [
              101.365,
              17.268
            ],
            [
              101.31,
              17.243
            ],
            [
              101.309,
              17.235
            ],
            [
              101.297,
              17.226
            ],
            [
              101.292,
              17.228
            ],
            [
              101.251,
              17.268
            ],
            [
              101.204,
              17.224
            ],
            [
              101.187,
              17.237
            ],
            [
              101.144,
              17.224
            ],
            [
              101.133,
              17.198
            ],
            [
              101.138,
              17.181
            ],
            [
              101.151,
              17.13
            ],
            [
              101.134,
              17.05
            ],
            [
              101.133,
              16.975
            ],
            [
              101.129,
              16.948
            ],
            [
              101.122,
              16.924
            ],
            [
              101.108,
              16.898
            ],
            [
              101.085,
              16.894
            ],
            [
              101.059,
              16.872
            ],
            [
              101.061,
              16.861
            ],
            [
              101.057,
              16.821
            ],
            [
              101.034,
              16.803
            ],
            [
              101.053,
              16.775
            ],
            [
              101.054,
              16.765
            ],
            [
              101.055,
              16.76
            ],
            [
              101.054,
              16.742
            ],
            [
              101.058,
              16.735
            ],
            [
              101.059,
              16.727
            ],
            [
              101.06,
              16.709
            ],
            [
              101.058,
              16.693
            ],
            [
              101.058,
              16.687
            ],
            [
              101.053,
              16.681
            ],
            [
              101.015,
              16.65
            ],
            [
              101.017,
              16.634
            ],
            [
              101.023,
              16.619
            ],
            [
              101.026,
              16.608
            ],
            [
              101.027,
              16.599
            ],
            [
              101.036,
              16.574
            ],
            [
              101.036,
              16.573
            ],
            [
              101.027,
              16.558
            ],
            [
              101.026,
              16.558
            ],
            [
              101.027,
              16.558
            ],
            [
              101.026,
              16.558
            ],
            [
              100.982,
              16.531
            ],
            [
              101.006,
              16.476
            ],
            [
              101.008,
              16.463
            ],
            [
              101.009,
              16.414
            ],
            [
              100.991,
              16.399
            ],
            [
              100.99,
              16.397
            ],
            [
              100.994,
              16.353
            ],
            [
              100.967,
              16.319
            ],
            [
              100.961,
              16.284
            ],
            [
              100.983,
              16.248
            ],
            [
              100.99,
              16.204
            ],
            [
              100.975,
              16.139
            ],
            [
              100.926,
              16.133
            ],
            [
              100.907,
              16.107
            ],
            [
              100.907,
              16.106
            ],
            [
              100.907,
              16.107
            ],
            [
              100.907,
              16.106
            ],
            [
              100.926,
              16.076
            ],
            [
              100.963,
              16.066
            ],
            [
              100.988,
              16.043
            ],
            [
              100.988,
              16.021
            ],
            [
              100.976,
              15.997
            ],
            [
              100.945,
              15.983
            ],
            [
              100.939,
              15.977
            ],
            [
              100.931,
              15.973
            ],
            [
              100.897,
              15.954
            ],
            [
              100.896,
              15.949
            ],
            [
              100.888,
              15.946
            ],
            [
              100.899,
              15.905
            ],
            [
              100.908,
              15.898
            ],
            [
              100.91,
              15.882
            ],
            [
              100.91,
              15.881
            ],
            [
              100.912,
              15.87
            ],
            [
              100.919,
              15.854
            ],
            [
              100.922,
              15.837
            ],
            [
              100.93,
              15.819
            ],
            [
              100.938,
              15.81
            ],
            [
              100.941,
              15.786
            ],
            [
              100.935,
              15.748
            ],
            [
              100.952,
              15.718
            ],
            [
              100.907,
              15.69
            ],
            [
              100.9,
              15.647
            ],
            [
              100.825,
              15.612
            ],
            [
              100.827,
              15.593
            ],
            [
              100.885,
              15.577
            ],
            [
              100.889,
              15.548
            ],
            [
              100.933,
              15.517
            ],
            [
              100.882,
              15.455
            ],
            [
              100.9,
              15.363
            ],
            [
              100.914,
              15.339
            ],
            [
              100.914,
              15.338
            ],
            [
              100.914,
              15.339
            ],
            [
              100.914,
              15.338
            ],
            [
              100.921,
              15.327
            ],
            [
              100.921,
              15.321
            ],
            [
              100.923,
              15.305
            ],
            [
              100.937,
              15.291
            ],
            [
              100.959,
              15.288
            ],
            [
              100.982,
              15.251
            ],
            [
              100.965,
              15.219
            ],
            [
              100.972,
              15.196
            ],
            [
              100.932,
              15.159
            ],
            [
              100.927,
              15.075
            ],
            [
              100.897,
              15.038
            ],
            [
              100.885,
              15.016
            ],
            [
              100.885,
              15.008
            ],
            [
              100.874,
              14.966
            ],
            [
              100.832,
              14.919
            ],
            [
              100.774,
              14.904
            ],
            [
              100.775,
              14.889
            ],
            [
              100.834,
              14.822
            ],
            [
              100.841,
              14.802
            ],
            [
              100.809,
              14.794
            ],
            [
              100.788,
              14.761
            ],
            [
              100.756,
              14.735
            ],
            [
              100.709,
              14.718
            ],
            [
              100.737,
              14.68
            ],
            [
              100.743,
              14.643
            ],
            [
              100.726,
              14.626
            ],
            [
              100.651,
              14.589
            ],
            [
              100.627,
              14.622
            ],
            [
              100.587,
              14.611
            ],
            [
              100.593,
              14.563
            ],
            [
              100.571,
              14.538
            ],
            [
              100.601,
              14.493
            ],
            [
              100.626,
              14.488
            ],
            [
              100.677,
              14.499
            ],
            [
              100.688,
              14.528
            ],
            [
              100.744,
              14.531
            ],
            [
              100.762,
              14.555
            ],
            [
              100.811,
              14.557
            ],
            [
              100.866,
              14.55
            ],
            [
              100.913,
              14.529
            ],
            [
              100.915,
              14.488
            ],
            [
              100.937,
              14.469
            ],
            [
              100.938,
              14.469
            ],
            [
              100.937,
              14.469
            ],
            [
              100.938,
              14.469
            ],
            [
              100.959,
              14.424
            ],
            [
              100.991,
              14.419
            ],
            [
              101.016,
              14.41
            ],
            [
              101.062,
              14.415
            ]
          ]
        ]
      }
    }
  ]
}