{
  "type": "FeatureCollection",
  "features": [
    {
      "type": "Feature",
      "properties": {
        "basin_slug": "wang",
        "basin_name_th": "ลุ่มน้ำวัง",
        "source": "ThaiWater (HII Official)",
        "min_lat": 17.066,
        "max_lat": 19.509,
        "min_lon": 98.888,
        "max_lon": 99.952
      },
      "geometry": {
        "type": "Polygon",
        "coordinates": [
          [
            [
              99.298,
              17.287
            ],
            [
              99.298,
              17.291
            ],
            [
              99.274,
              17.347
            ],
            [
              99.274,
              17.403
            ],
            [
              99.268,
              17.413
            ],
            [
              99.253,
              17.429
            ],
            [
              99.244,
              17.449
            ],
            [
              99.252,
              17.483
            ],
            [
              99.233,
              17.499
            ],
            [
              99.233,
              17.5
            ],
            [
              99.236,
              17.542
            ],
            [
              99.275,
              17.57
            ],
            [
              99.298,
              17.603
            ],
            [
              99.329,
              17.636
            ],
            [
              99.338,
              17.635
            ],
            [
              99.353,
              17.658
            ],
            [
              99.387,
              17.69
            ],
            [
              99.38,
              17.706
            ],
            [
              99.382,
              17.73
            ],
            [
              99.386,
              17.741
            ],
            [
              99.38,
              17.766
            ],
            [
              99.393,
              17.815
            ],
            [
              99.448,
              17.869
            ],
            [
              99.459,
              17.883
            ],
            [
              99.472,
              17.893
            ],
            [
              99.484,
              17.918
            ],
            [
              99.539,
              17.964
            ],
            [
              99.547,
              17.972
            ],
            [
              99.571,
              17.994
            ],
            [
              99.595,
              18.011
            ],
            [
              99.585,
              18.036
            ],
            [
              99.61,
              18.049
            ],
            [
              99.636,
              18.062
            ],
            [
              99.656,
              18.04
            ],
            [
              99.682,
              18.046
            ],
            [
              99.69,
              18.065
            ],
            [
              99.723,
              18.075
            ],
            [
              99.756,
              18.121
            ],
            [
              99.756,
              18.144
            ],
            [
              99.801,
              18.212
            ],
            [
              99.849,
              18.25
            ],
            [
              99.852,
              18.258
            ],
            [
              99.88,
              18.283
            ],
            [
              99.886,
              18.282
            ],
            [
              99.907,
              18.28
            ],
            [
              99.952,
              18.37
            ],
            [
              99.913,
              18.388
            ],
            [
              99.909,
              18.401
            ],
            [
              99.915,
              18.408
            ],
            [
              99.917,
              18.421
            ],
            [
              99.911,
              18.439
            ],
            [
              99.909,
              18.452
            ],
            [
              99.908,
              18.452
            ],
            [
              99.909,
              18.452
            ],
            [
              99.908,
              18.452
            ],
            [
              99.908,
              18.453
            ],
            [
              99.911,
              18.456
            ],
            [
              99.898,
              18.473
            ],
            [
              99.887,
              18.5
            ],
            [
              99.877,
              18.504
            ],
            [
              99.872,
              18.498
            ],
            [
              99.833,
              18.481
            ],
            [
              99.816,
              18.506
            ],
            [
              99.82,
              18.55
            ],
            [
              99.794,
              18.566
            ],
            [
              99.794,
              18.567
            ],
            [
              99.794,
              18.566
            ],
            [
              99.794,
              18.567
            ],
            [
              99.807,
              18.603
            ],
            [
              99.829,
              18.642
            ],
            [
              99.834,
              18.662
            ],
            [
              99.805,
              18.693
            ],
            [
              99.803,
              18.694
            ],
            [
              99.789,
              18.702
            ],
            [
              99.776,
              18.73
            ],
            [
              99.777,
              18.739
            ],
            [
              99.796,
              18.781
            ],
            [
              99.802,
              18.816
            ],
            [
              99.801,
              18.881
            ],
            [
              99.779,
              18.913
            ],
            [
              99.768,
              18.914
            ],
            [
              99.766,
              18.917
            ],
            [
              99.753,
              19.049
            ],
            [
              99.764,
              19.056
            ],
            [
              99.773,
              19.064
            ],
            [
              99.774,
              19.064
            ],
            [
              99.773,
              19.064
            ],
            [
              99.774,
              19.076
            ],
            [
              99.764,
              19.092
            ],
            [
              99.757,
              19.122
            ],
            [
              99.73,
              19.169
            ],
            [
              99.705,
              19.243
            ],
            [
              99.701,
              19.3
            ],
            [
              99.707,
              19.346
            ],
            [
              99.689,
              19.394
            ],
            [
              99.682,
              19.459
            ],
            [
              99.651,
              19.469
            ],
            [
              99.651,
              19.478
            ],
            [
              99.642,
              19.508
            ],
            [
              99.612,
              19.509
            ],
            [
              99.586,
              19.48
            ],
            [
              99.563,
              19.404
            ],
            [
              99.575,
              19.391
            ],
            [
              99.577,
              19.325
            ],
            [
              99.57,
              19.289
            ],
            [
              99.562,
              19.274
            ],
            [
              99.561,
              19.268
            ],
            [
              99.548,
              19.247
            ],
            [
              99.539,
              19.163
            ],
            [
              99.553,
              19.146
            ],
            [
              99.557,
              19.129
            ],
            [
              99.539,
              19.103
            ],
            [
              99.53,
              19.077
            ],
            [
              99.503,
              19.079
            ],
            [
              99.476,
              19.052
            ],
            [
              99.444,
              19.018
            ],
            [
              99.402,
              19.0
            ],
            [
              99.381,
              18.989
            ],
            [
              99.375,
              18.959
            ],
            [
              99.388,
              18.874
            ],
            [
              99.387,
              18.874
            ],
            [
              99.388,
              18.874
            ],
            [
              99.387,
              18.874
            ],
            [
              99.353,
              18.848
            ],
            [
              99.371,
              18.753
            ],
            [
              99.348,
              18.732
            ],
            [
              99.341,
              18.716
            ],
            [
              99.327,
              18.685
            ],
            [
              99.33,
              18.647
            ],
            [
              99.328,
              18.618
            ],
            [
              99.354,
              18.614
            ],
            [
              99.333,
              18.577
            ],
            [
              99.32,
              18.512
            ],
            [
              99.309,
              18.497
            ],
            [
              99.257,
              18.493
            ],
            [
              99.234,
              18.445
            ],
            [
              99.202,
              18.426
            ],
            [
              99.19,
              18.392
            ],
            [
              99.167,
              18.373
            ],
            [
              99.169,
              18.347
            ],
            [
              99.131,
              18.313
            ],
            [
              99.123,
              18.301
            ],
            [
              99.114,
              18.289
            ],
            [
              99.116,
              18.272
            ],
            [
              99.068,
              18.272
            ],
            [
              99.018,
              18.253
            ],
            [
              99.052,
              18.166
            ],
            [
              99.065,
              18.138
            ],
            [
              99.071,
              18.076
            ],
            [
              99.1,
              17.999
            ],
            [
              99.095,
              17.954
            ],
            [
              99.111,
              17.929
            ],
            [
              99.107,
              17.922
            ],
            [
              99.133,
              17.914
            ],
            [
              99.163,
              17.886
            ],
            [
              99.184,
              17.86
            ],
            [
              99.168,
              17.83
            ],
            [
              99.17,
              17.817
            ],
            [
              99.174,
              17.815
            ],
            [
              99.136,
              17.82
            ],
            [
              99.109,
              17.816
            ],
            [
              99.124,
              17.768
            ],
            [
              99.087,
              17.706
            ],
            [
              99.065,
              17.674
            ],
            [
              99.059,
              17.627
            ],
            [
              99.026,
              17.615
            ],
            [
              99.009,
              17.623
            ],
            [
              98.999,
              17.636
            ],
            [
              98.905,
              17.648
            ],
            [
              98.889,
              17.63
            ],
            [
              98.888,
              17.59
            ],
            [
              98.905,
              17.559
            ],
            [
              98.907,
              17.547
            ],
            [
              98.925,
              17.526
            ],
            [
              98.93,
              17.486
            ],
            [
              98.944,
              17.456
            ],
            [
              98.945,
              17.456
            ],
            [
              98.944,
              17.456
            ],
            [
              98.945,
              17.456
            ],
            [
              98.954,
              17.44
            ],
            [
              98.954,
              17.435
            ],
            [
              98.942,
              17.404
            ],
            [
              98.973,
              17.362
            ],
            [
              98.962,
              17.346
            ],
            [
              98.974,
              17.304
            ],
            [
              99.003,
              17.277
            ],
            [
              99.037,
              17.27
            ],
            [
              99.074,
              17.213
            ],
            [
              99.097,
              17.2
            ],
            [
              99.096,
              17.164
            ],
            [
              99.08,
              17.1
            ],
            [
              99.086,
              17.084
            ],
            [
              99.097,
              17.079
            ],
            [
              99.169,
              17.066
            ],
            [
              99.199,
              17.14
            ],
            [
              99.199,
              17.144
            ],
            [
              99.199,
              17.147
            ],
            [
              99.214,
              17.156
            ],
            [
              99.261,
              17.215
            ],
            [
              99.284,
              17.281
            ],
            [
              99.298,
              17.287
            ]
          ]
        ]
      }
    }
  ]
}